<?xml version="1.0" encoding="UTF-8"?>
<kml xmlns="http://www.opengis.net/kml/2.2">
  <Document>
    <name>Ward 21</name>
    <description>Part of OS-Bhugol open geographic data project</description>
    <Placemark>
      <name>Ward 21</name>
      <ExtendedData>
        <Data name="ward_number"><value>21</value></Data>
        <Data name="ward_name_en"><value>Ward 21</value></Data>
        <Data name="ward_name_mr"><value>प्रभाग २१</value></Data>
        <Data name="entity_type"><value>ward</value></Data>
        <Data name="parent_municipality"><value>Pune Municipal Corporation</value></Data>
        <Data name="parent_municipality_mr"><value>पुणे महानगरपालिका</value></Data>
        <Data name="district"><value>Pune</value></Data>
        <Data name="district_mr"><value>पुणे</value></Data>
        <Data name="state"><value>Maharashtra</value></Data>
        <Data name="state_mr"><value>महाराष्ट्र</value></Data>
        <Data name="country"><value>India</value></Data>
        <Data name="country_mr"><value>भारत</value></Data>
        <Data name="area_sq_km"><value>5.2806</value></Data>
        <Data name="perimeter_km"><value>15.1671</value></Data>
        <Data name="author"><value>Parisar</value></Data>
        <Data name="source_url"><value>https://data.opencity.in/dataset/pune-wards-info/resource/2badcc86-489c-4b7e-b7dd-a273ef01b798</value></Data>
        <Data name="created_date"><value>2025-11-02</value></Data>
        <Data name="data_year"><value>2025</value></Data>
      </ExtendedData>
      <MultiGeometry>
      <Polygon>
        <outerBoundaryIs>
          <LinearRing>
            <tessellate>1</tessellate>
            <coordinates>
              73.8693375347999,18.5000563631534 73.8691880942185,18.4929726971743 73.8736410880759,18.4940413064438 73.8743143648164,18.4945340074606 73.8749984526976,18.4948515773059 73.8756522283093,18.4953718204142 73.8762940593044,18.4962423760708 73.8770427778294,18.4974001326295 73.8774684644981,18.4970749784276 73.8772491486293,18.4966582775575 73.8770298318614,18.4957810131833 73.8770517636282,18.4949037479097 73.8772710794968,18.4935110901647 73.8775342588991,18.4913179278802 73.8773452088144,18.4886659566687 73.8785803979671,18.4884554127872 73.8790295571685,18.4887501736816 73.8797243508982,18.4892835507953 73.8802436922927,18.4895362027336 73.8808402323909,18.4897116559683 73.8816122248244,18.4898590368651 73.8828684680055,18.489901144922 73.8833527187531,18.490245033082 73.8836474796476,18.4898028912905 73.8840124218358,18.4896555112929 73.8844865830894,18.489585329999 73.8885882353588,18.4899993985534 73.8892339027225,18.4872412785622 73.88961288063,18.4861464519973 73.8896805357282,18.4847282301238 73.8902015606537,18.4839422010719 73.8902105439815,18.4832190535165 73.8904739157513,18.4829729461316 73.890960359187,18.4826865186863 73.8912140982953,18.4822887439124 73.8911589758742,18.4807352190613 73.8904988681581,18.4780846969421 73.8900311304941,18.4772728005627 73.8879787636178,18.4776106692843 73.8878963890861,18.4776219018098 73.8871732070817,18.4787401428148 73.8869626865766,18.4787439021865 73.88700306779,18.4777661692673 73.8867334806641,18.4777645851441 73.886735098039,18.4767258915228 73.8860226720633,18.476770241114 73.8857791462272,18.4766717339136 73.8836027065813,18.4768627780072 73.8808907506921,18.4773995663998 73.8797164557499,18.4755929554506 73.879551392383,18.4750254382735 73.8796238516595,18.4746176469869 73.8799292803121,18.4740741641914 73.8798978391141,18.4735845804641 73.8796373262018,18.4730006722433 73.879639695016,18.4718974765874 73.8786418063744,18.4718536139532 73.8781812419709,18.4718097504198 73.8777177868823,18.4718283939719 73.8774081941803,18.4732830991356 73.8772929293682,18.4741007234758 73.8769831840922,18.4743926387722 73.876874056634,18.4776442365138 73.8766882564113,18.4794996415058 73.8778839219685,18.4795873004833 73.8780941618159,18.4810715694547 73.8779983566141,18.4822774787067 73.8773496081474,18.4822841260044 73.8771962995595,18.4821887972002 73.8764518131719,18.481701791461 73.8751312042361,18.4812559488294 73.8738441790219,18.4810352007894 73.8721500436999,18.4808894411506 73.8705989910145,18.4804411218096 73.8683097279946,18.4807051837695 73.8683155532157,18.4829085035754 73.8682037115549,18.483062683835 73.8681666351468,18.4836608470592 73.8669961464139,18.4837126240345 73.8670035083189,18.4827805097234 73.8653562902571,18.4826872931935 73.8651547590229,18.48247401014 73.8640058751836,18.4823103717966 73.8624598928459,18.4822826512438 73.8624646198816,18.4844956381556 73.8625958197746,18.4852916159504 73.8628414491859,18.4855586459826 73.8631914362023,18.4881242980391 73.8631024409806,18.4888885021243 73.8632436846999,18.4894518100425 73.8574274316155,18.4893565926791 73.8574202312514,18.4896943370177 73.857493436335,18.4903531791575 73.8578803753009,18.4960003981449 73.8578594602152,18.4964605410859 73.8583993187862,18.5005467390779 73.8604056938137,18.5004129389166 73.8619295842905,18.500021642281 73.8636648269071,18.4999696172714 73.8646090099015,18.5000149161007 73.8652114963986,18.5000924530853 73.8665205890551,18.50046964948 73.8679739043859,18.5011907601587 73.8691942445986,18.5015235799368 73.8693375347999,18.5000563631534
            </coordinates>
          </LinearRing>
        </outerBoundaryIs>
      </Polygon>

      </MultiGeometry>
    </Placemark>
  </Document>
</kml>
