{
  "type": "FeatureCollection",
  "features": [
    {
      "type": "Feature",
      "properties": {
        "ward_number": 36,
        "ward_name_en": "Ward 36",
        "ward_name_mr": "प्रभाग ३६",
        "entity_type": "ward",
        "parent_municipality": "Pune Municipal Corporation",
        "parent_municipality_mr": "पुणे महानगरपालिका",
        "district": "Pune",
        "district_mr": "पुणे",
        "state": "Maharashtra",
        "state_mr": "महाराष्ट्र",
        "country": "India",
        "country_mr": "भारत",
        "area_sq_km": 4.1311,
        "perimeter_km": 9.3391,
        "author": "Parisar",
        "added_by": "mahanvyakti",
        "source_url": "https://data.opencity.in/dataset/pune-wards-info/resource/2badcc86-489c-4b7e-b7dd-a273ef01b798",
        "created_date": "2025-11-02",
        "data_year": 2025
      },
      "geometry": {
        "type": "Polygon",
        "coordinates": [
          [
            [
              73.8471980664566,
              18.4926959014574
            ],
            [
              73.8497444126364,
              18.4926509627932
            ],
            [
              73.8507720220633,
              18.4926674304294
            ],
            [
              73.8576392937145,
              18.4924819393505
            ],
            [
              73.857493436297,
              18.490353179059
            ],
            [
              73.8574202308963,
              18.4896943372053
            ],
            [
              73.8574274317718,
              18.4893565930053
            ],
            [
              73.8574753783681,
              18.4871079735425
            ],
            [
              73.8575248087971,
              18.4847896232328
            ],
            [
              73.8571587860252,
              18.482739892347
            ],
            [
              73.8570751237316,
              18.4774796121927
            ],
            [
              73.8562891144641,
              18.4762468455876
            ],
            [
              73.8562422632493,
              18.4745602090006
            ],
            [
              73.8562908521412,
              18.473457693318
            ],
            [
              73.8575984151349,
              18.4686296649272
            ],
            [
              73.8576181120863,
              18.4684353897816
            ],
            [
              73.8576288526896,
              18.4683294478458
            ],
            [
              73.8531818247815,
              18.4679484689469
            ],
            [
              73.8527256472708,
              18.4684257013852
            ],
            [
              73.8519536539381,
              18.4683274477536
            ],
            [
              73.8515746760306,
              18.467843197006
            ],
            [
              73.850416686481,
              18.4678642519338
            ],
            [
              73.8500306893649,
              18.4683555200913
            ],
            [
              73.8491674607098,
              18.4683765741197
            ],
            [
              73.8480703885377,
              18.4685495011586
            ],
            [
              73.8466128653916,
              18.4686151903389
            ],
            [
              73.845616292458,
              18.4686081720296
            ],
            [
              73.8447109557462,
              18.4684537737228
            ],
            [
              73.8440372160448,
              18.4705311366028
            ],
            [
              73.8441357502649,
              18.4718418409283
            ],
            [
              73.8435922674692,
              18.4721427774673
            ],
            [
              73.8439108900756,
              18.4746227002775
            ],
            [
              73.8437564917688,
              18.4765386465415
            ],
            [
              73.8441104676241,
              18.4800670061876
            ],
            [
              73.8450535272986,
              18.4819421601028
            ],
            [
              73.8444613740932,
              18.4817009115678
            ],
            [
              73.8441948600049,
              18.4816460969899
            ],
            [
              73.8439275203389,
              18.4816230995266
            ],
            [
              73.8437032995677,
              18.4817697052078
            ],
            [
              73.8431296328264,
              18.4829136257634
            ],
            [
              73.8428556453719,
              18.4839871168122
            ],
            [
              73.8425097930926,
              18.4847147555816
            ],
            [
              73.8423840283004,
              18.4852402717212
            ],
            [
              73.8423436037745,
              18.4857343475621
            ],
            [
              73.8423211459042,
              18.4861071498251
            ],
            [
              73.8419970895941,
              18.4864077716015
            ],
            [
              73.8416795659593,
              18.4865933206253
            ],
            [
              73.8413116146394,
              18.4867284275749
            ],
            [
              73.8413116146394,
              18.4872171137789
            ],
            [
              73.8402727663751,
              18.4877119540435
            ],
            [
              73.8402727663751,
              18.4887025177072
            ],
            [
              73.8406007230451,
              18.4896127656168
            ],
            [
              73.8406743460444,
              18.490402540345
            ],
            [
              73.840734582635,
              18.4912592444188
            ],
            [
              73.8410357682862,
              18.4914801134167
            ],
            [
              73.8415712084447,
              18.4922698872456
            ],
            [
              73.8423877541916,
              18.4929191078306
            ],
            [
              73.8427981688006,
              18.4937372597669
            ],
            [
              73.8432093874034,
              18.4938614822217
            ],
            [
              73.8437319762497,
              18.4944012058511
            ],
            [
              73.8439118838264,
              18.4944740257557
            ],
            [
              73.8442631320381,
              18.4946196646659
            ],
            [
              73.8449185111805,
              18.4951251214273
            ],
            [
              73.8452012229582,
              18.4955106374061
            ],
            [
              73.8460421317891,
              18.4955762285601
            ],
            [
              73.8463251019605,
              18.4944309149984
            ],
            [
              73.8471980664566,
              18.4926959014574
            ]
          ]
        ]
      }
    }
  ]
}