<?xml version="1.0" encoding="UTF-8"?>
<kml xmlns="http://www.opengis.net/kml/2.2">
  <Document>
    <name>Ward 39</name>
    <description>Part of OS-Bhugol open geographic data project</description>
    <Placemark>
      <name>Ward 39</name>
      <ExtendedData>
        <Data name="ward_number"><value>39</value></Data>
        <Data name="ward_name_en"><value>Ward 39</value></Data>
        <Data name="ward_name_mr"><value>प्रभाग ३९</value></Data>
        <Data name="entity_type"><value>ward</value></Data>
        <Data name="parent_municipality"><value>Pune Municipal Corporation</value></Data>
        <Data name="parent_municipality_mr"><value>पुणे महानगरपालिका</value></Data>
        <Data name="district"><value>Pune</value></Data>
        <Data name="district_mr"><value>पुणे</value></Data>
        <Data name="state"><value>Maharashtra</value></Data>
        <Data name="state_mr"><value>महाराष्ट्र</value></Data>
        <Data name="country"><value>India</value></Data>
        <Data name="country_mr"><value>भारत</value></Data>
        <Data name="area_sq_km"><value>0.0009</value></Data>
        <Data name="perimeter_km"><value>0.3018</value></Data>
        <Data name="author"><value>Parisar</value></Data>
        <Data name="source_url"><value>https://data.opencity.in/dataset/pune-wards-info/resource/2badcc86-489c-4b7e-b7dd-a273ef01b798</value></Data>
        <Data name="created_date"><value>2025-11-02</value></Data>
        <Data name="data_year"><value>2025</value></Data>
      </ExtendedData>
      <MultiGeometry>
      <Polygon>
        <outerBoundaryIs>
          <LinearRing>
            <tessellate>1</tessellate>
            <coordinates>
              73.8630972631337,18.4491863863416 73.8639207772551,18.4480885154026 73.8633009834461,18.4487240013701 73.8630972631337,18.4491863863416
            </coordinates>
          </LinearRing>
        </outerBoundaryIs>
      </Polygon>
      <Polygon>
        <outerBoundaryIs>
          <LinearRing>
            <tessellate>1</tessellate>
            <coordinates>
              73.8630972631337,18.4491863863416 73.86291826142,18.4502558099672 73.863349150806,18.4515755670406 73.8639630031046,18.4532692056058 73.8651646303169,18.4551457527308 73.8649929260768,18.4552209594385 73.8630120115251,18.4564616754342 73.8631929582362,18.4571945451726 73.8630936339491,18.4577640025504 73.8629024184074,18.4582921906812 73.8629128334809,18.458978352402 73.862908969435,18.4592347734507 73.8629064367209,18.4594028340348 73.8626905967055,18.4598756666415 73.8611374408385,18.4599849143935 73.8611342391879,18.460636112987 73.8609480836047,18.4609027013384 73.8609411795411,18.461949113036 73.8611951664514,18.462256024014 73.861216217161,18.4632085705119 73.8607351154939,18.4643545597636 73.8606105355143,18.4646513099507 73.8619872653873,18.4652853156719 73.861462600395,18.4664724360035 73.8632674990174,18.4667783318849 73.8644014581637,18.466865936418 73.8644599418076,18.4665518632022 73.86448494436,18.4648354943108 73.8662723721656,18.4648245290694 73.8675145080011,18.4645744379192 73.8678240428878,18.4645268910741 73.8691576605434,18.4646766582216 73.8694751507416,18.4645442654623 73.8705648619786,18.4646783340352 73.8703867757278,18.4660872773715 73.8703906522882,18.4673009779529 73.8697800779905,18.4677055673081 73.8699439583763,18.4681233689328 73.8699530788375,18.4694813238368 73.8705924531458,18.4694937303198 73.872082416466,18.4693269580474 73.8720806610442,18.4695955200408 73.8737760732662,18.4696458885606 73.8736677146408,18.4711276768511 73.873702812151,18.4721014252081 73.8748537764008,18.4721803947984 73.8750059542944,18.4712744823588 73.8762396084541,18.4678647992259 73.8764884783515,18.4668892222602 73.8768868046715,18.4658627038838 73.877500645566,18.4648278336198 73.8775118065015,18.4646436184251 73.8776834748692,18.4620185744291 73.8776821070709,18.4607830783796 73.87468015949,18.4607497039125 73.8746711085478,18.4592920397873 73.873492925681,18.4588424489575 73.8727202843518,18.458790646686 73.8725299801005,18.4585770699773 73.8721219791176,18.4585569395895 73.8719421154632,18.4586384870972 73.8705758133762,18.4585890444068 73.8694351628205,18.4584725825462 73.8684893623541,18.4583687630817 73.868454324186,18.4574358689944 73.8683806877943,18.4559879027944 73.8689811770761,18.4557841350201 73.8689598205151,18.4540183854681 73.8684205260506,18.4539272014031 73.8683966198242,18.4535563407753 73.8681335162105,18.4535170707667 73.8678217785684,18.4528617414149 73.8678054869246,18.4523338423662 73.8674503781145,18.4522688889676 73.8674270502685,18.4518100648327 73.8671750190627,18.4517143094445 73.8658070388847,18.4516766803353 73.8653124237077,18.4518013526401 73.8648483466078,18.451975294633 73.8640409004639,18.4511752241261 73.8632169579893,18.4497565350302 73.8630972631337,18.4491863863416
            </coordinates>
          </LinearRing>
        </outerBoundaryIs>
      </Polygon>

      </MultiGeometry>
    </Placemark>
  </Document>
</kml>
