{
  "type": "FeatureCollection",
  "features": [
    {
      "type": "Feature",
      "properties": {
        "ward_number": 28,
        "ward_name_en": "28 Mahatma Phule Smarak - Bhavani Peth",
        "ward_name_mr": "प्रभाग २८ : महात्मा फुले स्मारक - भवानी पेठ",
        "entity_type": "ward",
        "parent_municipality": "Pune Municipal Corporation",
        "parent_municipality_mr": "पुणे महानगरपालिका",
        "district": "Pune",
        "district_mr": "पुणे",
        "state": "Maharashtra",
        "state_mr": "महाराष्ट्र",
        "country": "India",
        "country_mr": "भारत",
        "area_sq_km": 0.8207,
        "perimeter_km": 4.6976,
        "author": "Nikhil VJ",
        "added_by": "mahanvyakti",
        "source_url": "http://www.pmc.gov.in/sites/default/files/final_ward_maps/28_F_Ward.pdf",
        "created_date": "2025-11-02",
        "data_year": 2022
      },
      "geometry": {
        "type": "Polygon",
        "coordinates": [
          [
            [
              73.86864,
              18.51539
            ],
            [
              73.86868,
              18.51308
            ],
            [
              73.86868,
              18.51299
            ],
            [
              73.8687,
              18.51264
            ],
            [
              73.86871,
              18.51238
            ],
            [
              73.86868,
              18.5119
            ],
            [
              73.86865,
              18.51162
            ],
            [
              73.86862,
              18.51148
            ],
            [
              73.86852,
              18.51126
            ],
            [
              73.86835,
              18.51084
            ],
            [
              73.86824,
              18.51035
            ],
            [
              73.86817,
              18.50988
            ],
            [
              73.86817,
              18.5096
            ],
            [
              73.86818,
              18.50912
            ],
            [
              73.86821,
              18.5082
            ],
            [
              73.86824,
              18.50781
            ],
            [
              73.86829,
              18.50742
            ],
            [
              73.86835,
              18.50706
            ],
            [
              73.86845,
              18.50675
            ],
            [
              73.86846,
              18.50626
            ],
            [
              73.86825,
              18.50618
            ],
            [
              73.86796,
              18.50607
            ],
            [
              73.86781,
              18.50602
            ],
            [
              73.86767,
              18.506
            ],
            [
              73.86748,
              18.506
            ],
            [
              73.86629,
              18.50605
            ],
            [
              73.86596,
              18.50607
            ],
            [
              73.86601,
              18.50533
            ],
            [
              73.86609,
              18.50479
            ],
            [
              73.86609,
              18.50478
            ],
            [
              73.86583,
              18.50476
            ],
            [
              73.86564,
              18.50474
            ],
            [
              73.86544,
              18.50469
            ],
            [
              73.8653,
              18.50469
            ],
            [
              73.86508,
              18.50471
            ],
            [
              73.86464,
              18.50474
            ],
            [
              73.86422,
              18.50475
            ],
            [
              73.86393,
              18.50473
            ],
            [
              73.86343,
              18.50469
            ],
            [
              73.86343,
              18.50494
            ],
            [
              73.86341,
              18.50608
            ],
            [
              73.86338,
              18.507
            ],
            [
              73.86334,
              18.50791
            ],
            [
              73.86327,
              18.50905
            ],
            [
              73.86305,
              18.50899
            ],
            [
              73.86271,
              18.50895
            ],
            [
              73.86234,
              18.50893
            ],
            [
              73.8621,
              18.50893
            ],
            [
              73.86198,
              18.50892
            ],
            [
              73.8618,
              18.50889
            ],
            [
              73.86136,
              18.50885
            ],
            [
              73.86103,
              18.50883
            ],
            [
              73.86085,
              18.50882
            ],
            [
              73.86064,
              18.50877
            ],
            [
              73.8603,
              18.50871
            ],
            [
              73.86001,
              18.50865
            ],
            [
              73.8597,
              18.50861
            ],
            [
              73.85944,
              18.50861
            ],
            [
              73.85914,
              18.50862
            ],
            [
              73.85897,
              18.50863
            ],
            [
              73.85867,
              18.50869
            ],
            [
              73.85817,
              18.50876
            ],
            [
              73.85801,
              18.50877
            ],
            [
              73.85796,
              18.50942
            ],
            [
              73.85793,
              18.51035
            ],
            [
              73.85789,
              18.5114
            ],
            [
              73.85787,
              18.5119
            ],
            [
              73.85781,
              18.51217
            ],
            [
              73.85771,
              18.51244
            ],
            [
              73.85765,
              18.51269
            ],
            [
              73.85839,
              18.5128
            ],
            [
              73.85871,
              18.51287
            ],
            [
              73.85972,
              18.51295
            ],
            [
              73.86008,
              18.5131
            ],
            [
              73.86042,
              18.5132
            ],
            [
              73.86101,
              18.51325
            ],
            [
              73.86131,
              18.51323
            ],
            [
              73.86142,
              18.51318
            ],
            [
              73.86196,
              18.51312
            ],
            [
              73.86258,
              18.51307
            ],
            [
              73.86296,
              18.51301
            ],
            [
              73.8632,
              18.51295
            ],
            [
              73.86337,
              18.51291
            ],
            [
              73.86403,
              18.51252
            ],
            [
              73.86435,
              18.51243
            ],
            [
              73.86454,
              18.51281
            ],
            [
              73.86478,
              18.51332
            ],
            [
              73.86507,
              18.51379
            ],
            [
              73.86514,
              18.51397
            ],
            [
              73.86514,
              18.51423
            ],
            [
              73.86513,
              18.51463
            ],
            [
              73.86507,
              18.51474
            ],
            [
              73.86492,
              18.51502
            ],
            [
              73.86484,
              18.5153
            ],
            [
              73.86487,
              18.51545
            ],
            [
              73.86542,
              18.51545
            ],
            [
              73.86717,
              18.5154
            ],
            [
              73.86832,
              18.51543
            ],
            [
              73.86864,
              18.51539
            ]
          ]
        ]
      }
    }
  ]
}