{
  "type": "FeatureCollection",
  "features": [
    {
      "type": "Feature",
      "properties": {
        "ward_number": 21,
        "ward_name_en": "21 Koregaon park - Mundhwa",
        "ward_name_mr": "प्रभाग २१ : कोरेगाव पार्क - मुंढवा",
        "entity_type": "ward",
        "parent_municipality": "Pune Municipal Corporation",
        "parent_municipality_mr": "पुणे महानगरपालिका",
        "district": "Pune",
        "district_mr": "पुणे",
        "state": "Maharashtra",
        "state_mr": "महाराष्ट्र",
        "country": "India",
        "country_mr": "भारत",
        "area_sq_km": 8.9201,
        "perimeter_km": 18.6404,
        "author": "Nikhil VJ",
        "added_by": "mahanvyakti",
        "source_url": "http://www.pmc.gov.in/sites/default/files/final_ward_maps/21_F_Ward.pdf",
        "created_date": "2025-11-02",
        "data_year": 2022
      },
      "geometry": {
        "type": "Polygon",
        "coordinates": [
          [
            [
              73.90264,
              18.54116
            ],
            [
              73.90376,
              18.54113
            ],
            [
              73.90495,
              18.5412
            ],
            [
              73.90518,
              18.54122
            ],
            [
              73.90583,
              18.54125
            ],
            [
              73.90904,
              18.54087
            ],
            [
              73.91043,
              18.54055
            ],
            [
              73.91065,
              18.54048
            ],
            [
              73.91146,
              18.54011
            ],
            [
              73.91212,
              18.53996
            ],
            [
              73.91305,
              18.53987
            ],
            [
              73.91455,
              18.53971
            ],
            [
              73.91501,
              18.5397
            ],
            [
              73.91545,
              18.53975
            ],
            [
              73.91574,
              18.53977
            ],
            [
              73.91606,
              18.53973
            ],
            [
              73.91713,
              18.53927
            ],
            [
              73.91755,
              18.53919
            ],
            [
              73.91804,
              18.53911
            ],
            [
              73.91912,
              18.539
            ],
            [
              73.92256,
              18.53891
            ],
            [
              73.92259,
              18.53899
            ],
            [
              73.92345,
              18.53883
            ],
            [
              73.92425,
              18.53864
            ],
            [
              73.9256,
              18.53824
            ],
            [
              73.92633,
              18.53798
            ],
            [
              73.92705,
              18.53771
            ],
            [
              73.92838,
              18.53728
            ],
            [
              73.93049,
              18.53653
            ],
            [
              73.93131,
              18.53631
            ],
            [
              73.93192,
              18.53614
            ],
            [
              73.93235,
              18.53614
            ],
            [
              73.93377,
              18.53603
            ],
            [
              73.93309,
              18.53292
            ],
            [
              73.93295,
              18.53248
            ],
            [
              73.93286,
              18.53235
            ],
            [
              73.93234,
              18.53173
            ],
            [
              73.93224,
              18.53148
            ],
            [
              73.93248,
              18.52965
            ],
            [
              73.93241,
              18.52879
            ],
            [
              73.93233,
              18.52777
            ],
            [
              73.93229,
              18.52628
            ],
            [
              73.92767,
              18.5268
            ],
            [
              73.92133,
              18.52758
            ],
            [
              73.91732,
              18.52808
            ],
            [
              73.91481,
              18.5284
            ],
            [
              73.90964,
              18.52905
            ],
            [
              73.90962,
              18.52562
            ],
            [
              73.90905,
              18.52566
            ],
            [
              73.90907,
              18.52578
            ],
            [
              73.90763,
              18.52584
            ],
            [
              73.90763,
              18.52562
            ],
            [
              73.90703,
              18.52565
            ],
            [
              73.90701,
              18.52532
            ],
            [
              73.90622,
              18.52531
            ],
            [
              73.90635,
              18.52256
            ],
            [
              73.90649,
              18.52024
            ],
            [
              73.90652,
              18.51969
            ],
            [
              73.90662,
              18.51821
            ],
            [
              73.90681,
              18.51731
            ],
            [
              73.90705,
              18.51637
            ],
            [
              73.90717,
              18.51584
            ],
            [
              73.90715,
              18.51561
            ],
            [
              73.90682,
              18.51557
            ],
            [
              73.90628,
              18.51529
            ],
            [
              73.90554,
              18.51449
            ],
            [
              73.90375,
              18.51253
            ],
            [
              73.90279,
              18.51146
            ],
            [
              73.90236,
              18.51117
            ],
            [
              73.90197,
              18.51105
            ],
            [
              73.90133,
              18.511
            ],
            [
              73.90081,
              18.51101
            ],
            [
              73.9004,
              18.51102
            ],
            [
              73.90033,
              18.51127
            ],
            [
              73.90029,
              18.51166
            ],
            [
              73.90039,
              18.51197
            ],
            [
              73.90042,
              18.51301
            ],
            [
              73.90038,
              18.51327
            ],
            [
              73.90018,
              18.51348
            ],
            [
              73.90007,
              18.51363
            ],
            [
              73.89972,
              18.51429
            ],
            [
              73.89959,
              18.51441
            ],
            [
              73.89942,
              18.51441
            ],
            [
              73.89932,
              18.51443
            ],
            [
              73.89835,
              18.51544
            ],
            [
              73.89811,
              18.51587
            ],
            [
              73.89812,
              18.51619
            ],
            [
              73.89818,
              18.5164
            ],
            [
              73.89855,
              18.51701
            ],
            [
              73.89847,
              18.51848
            ],
            [
              73.89853,
              18.51859
            ],
            [
              73.89867,
              18.51872
            ],
            [
              73.89881,
              18.51879
            ],
            [
              73.89943,
              18.51876
            ],
            [
              73.89965,
              18.51892
            ],
            [
              73.89984,
              18.51928
            ],
            [
              73.9001,
              18.51961
            ],
            [
              73.90039,
              18.51999
            ],
            [
              73.90058,
              18.52036
            ],
            [
              73.90065,
              18.52076
            ],
            [
              73.90078,
              18.52109
            ],
            [
              73.9008,
              18.52131
            ],
            [
              73.90067,
              18.5215
            ],
            [
              73.90058,
              18.52169
            ],
            [
              73.90053,
              18.52223
            ],
            [
              73.90059,
              18.52247
            ],
            [
              73.90101,
              18.5231
            ],
            [
              73.90029,
              18.52418
            ],
            [
              73.89944,
              18.52542
            ],
            [
              73.89898,
              18.52596
            ],
            [
              73.8983,
              18.5266
            ],
            [
              73.89727,
              18.52726
            ],
            [
              73.89702,
              18.52669
            ],
            [
              73.89538,
              18.52752
            ],
            [
              73.89254,
              18.5288
            ],
            [
              73.89111,
              18.52954
            ],
            [
              73.88715,
              18.5313
            ],
            [
              73.88684,
              18.52981
            ],
            [
              73.88551,
              18.53004
            ],
            [
              73.88573,
              18.53164
            ],
            [
              73.88387,
              18.53148
            ],
            [
              73.88304,
              18.53133
            ],
            [
              73.88103,
              18.53089
            ],
            [
              73.87934,
              18.53034
            ],
            [
              73.87933,
              18.53051
            ],
            [
              73.87869,
              18.53027
            ],
            [
              73.87738,
              18.52983
            ],
            [
              73.87597,
              18.52948
            ],
            [
              73.87561,
              18.53091
            ],
            [
              73.87617,
              18.53145
            ],
            [
              73.87822,
              18.53313
            ],
            [
              73.87896,
              18.53385
            ],
            [
              73.88089,
              18.53672
            ],
            [
              73.88367,
              18.54102
            ],
            [
              73.88383,
              18.5412
            ],
            [
              73.88397,
              18.54123
            ],
            [
              73.88539,
              18.5415
            ],
            [
              73.88533,
              18.5425
            ],
            [
              73.88518,
              18.54321
            ],
            [
              73.88509,
              18.54341
            ],
            [
              73.88521,
              18.54342
            ],
            [
              73.88584,
              18.54349
            ],
            [
              73.887,
              18.54363
            ],
            [
              73.88747,
              18.54369
            ],
            [
              73.88897,
              18.54376
            ],
            [
              73.88959,
              18.54382
            ],
            [
              73.89052,
              18.54381
            ],
            [
              73.89155,
              18.54373
            ],
            [
              73.89247,
              18.54356
            ],
            [
              73.89436,
              18.54298
            ],
            [
              73.89531,
              18.54273
            ],
            [
              73.8973,
              18.54217
            ],
            [
              73.89955,
              18.54165
            ],
            [
              73.90019,
              18.54151
            ],
            [
              73.90115,
              18.5413
            ],
            [
              73.90181,
              18.54124
            ],
            [
              73.90264,
              18.54116
            ]
          ]
        ]
      }
    }
  ]
}