{
  "type": "FeatureCollection",
  "features": [
    {
      "type": "Feature",
      "properties": {
        "ward_number": 37,
        "ward_name_en": "Ward 37",
        "ward_name_mr": "प्रभाग ३७",
        "entity_type": "ward",
        "parent_municipality": "Pune Municipal Corporation",
        "parent_municipality_mr": "पुणे महानगरपालिका",
        "district": "Pune",
        "district_mr": "पुणे",
        "state": "Maharashtra",
        "state_mr": "महाराष्ट्र",
        "country": "India",
        "country_mr": "भारत",
        "area_sq_km": 2.5522,
        "perimeter_km": 7.9957,
        "author": "Parisar",
        "added_by": "mahanvyakti",
        "source_url": "https://data.opencity.in/dataset/pune-wards-info/resource/2badcc86-489c-4b7e-b7dd-a273ef01b798",
        "created_date": "2025-11-02",
        "data_year": 2025
      },
      "geometry": {
        "type": "Polygon",
        "coordinates": [
          [
            [
              73.8580856401808,
              18.4635110680475
            ],
            [
              73.8580475612908,
              18.4614543909666
            ],
            [
              73.8580057852146,
              18.4600695665927
            ],
            [
              73.8580246870332,
              18.4586703776022
            ],
            [
              73.8584029942351,
              18.456895909519
            ],
            [
              73.8586725459134,
              18.4556370550699
            ],
            [
              73.8586774906854,
              18.4548888251215
            ],
            [
              73.8586219327566,
              18.4544208289582
            ],
            [
              73.8582654845301,
              18.4523427433171
            ],
            [
              73.8580909926616,
              18.4513779448592
            ],
            [
              73.8581261754555,
              18.4506157894616
            ],
            [
              73.8584283344347,
              18.4486832547308
            ],
            [
              73.8584858049703,
              18.4483569591935
            ],
            [
              73.8583633476394,
              18.4482409780755
            ],
            [
              73.8582273012219,
              18.4482755101993
            ],
            [
              73.8571691330599,
              18.4486521054876
            ],
            [
              73.8551776167837,
              18.4491998174901
            ],
            [
              73.851280037218,
              18.4504370978476
            ],
            [
              73.8511638835186,
              18.4517152818478
            ],
            [
              73.8510372949563,
              18.456243830444
            ],
            [
              73.8507172044787,
              18.4569828234116
            ],
            [
              73.8506334935594,
              18.4571045813668
            ],
            [
              73.8504825315325,
              18.4571396270537
            ],
            [
              73.8496196364791,
              18.4565698124788
            ],
            [
              73.8491650727433,
              18.4569266604764
            ],
            [
              73.8484920822555,
              18.4578995790786
            ],
            [
              73.8467156413322,
              18.4576457671951
            ],
            [
              73.8464541365153,
              18.4576252128376
            ],
            [
              73.8463279086299,
              18.4576813356055
            ],
            [
              73.8459656807035,
              18.4592086921961
            ],
            [
              73.8450660162065,
              18.4590665632302
            ],
            [
              73.8437816947205,
              18.4589688343989
            ],
            [
              73.8437321525112,
              18.4587595722129
            ],
            [
              73.8424312333339,
              18.4586967479659
            ],
            [
              73.8421591383578,
              18.4585304175735
            ],
            [
              73.8411791278614,
              18.4585248596161
            ],
            [
              73.84150520559,
              18.4612016408443
            ],
            [
              73.8420716043742,
              18.4615488309341
            ],
            [
              73.8422853567722,
              18.4621140900897
            ],
            [
              73.842372193572,
              18.4629685252994
            ],
            [
              73.8421914484351,
              18.46312483042
            ],
            [
              73.8417966819713,
              18.4647916318284
            ],
            [
              73.8436582381373,
              18.4649166420894
            ],
            [
              73.8453917128573,
              18.4652043846747
            ],
            [
              73.8447109557462,
              18.4684537737228
            ],
            [
              73.8456162933574,
              18.4686081720296
            ],
            [
              73.8466128662907,
              18.4686151903389
            ],
            [
              73.848070389437,
              18.4685495011586
            ],
            [
              73.8491674607098,
              18.4683765741197
            ],
            [
              73.8500306902643,
              18.4683555200913
            ],
            [
              73.8504166855818,
              18.4678642519338
            ],
            [
              73.8515746760306,
              18.467843197006
            ],
            [
              73.8519536539381,
              18.4683274477536
            ],
            [
              73.8523416983608,
              18.4683768349232
            ],
            [
              73.8527256472708,
              18.4684257013852
            ],
            [
              73.8531818247815,
              18.4679484689469
            ],
            [
              73.8576288526896,
              18.4683294478458
            ],
            [
              73.8580946178724,
              18.4637354869033
            ],
            [
              73.8580856401808,
              18.4635110680475
            ]
          ]
        ]
      }
    }
  ]
}