{
  "type": "FeatureCollection",
  "features": [
    {
      "type": "Feature",
      "properties": {
        "ward_number": 40,
        "ward_name_en": "40 Bibvewadi - Gangadham",
        "ward_name_mr": "प्रभाग ४० : बिबवेवाडी - गंगाधाम",
        "entity_type": "ward",
        "parent_municipality": "Pune Municipal Corporation",
        "parent_municipality_mr": "पुणे महानगरपालिका",
        "district": "Pune",
        "district_mr": "पुणे",
        "state": "Maharashtra",
        "state_mr": "महाराष्ट्र",
        "country": "India",
        "country_mr": "भारत",
        "area_sq_km": 4.9603,
        "perimeter_km": 13.303,
        "author": "Nikhil VJ",
        "added_by": "mahanvyakti",
        "source_url": "http://www.pmc.gov.in/sites/default/files/final_ward_maps/40_F_Ward.pdf",
        "created_date": "2025-11-02",
        "data_year": 2022
      },
      "geometry": {
        "type": "Polygon",
        "coordinates": [
          [
            [
              73.8905,
              18.48309
            ],
            [
              73.88999,
              18.48271
            ],
            [
              73.88961,
              18.48241
            ],
            [
              73.8894,
              18.48216
            ],
            [
              73.8891,
              18.48176
            ],
            [
              73.88897,
              18.48168
            ],
            [
              73.88854,
              18.4816
            ],
            [
              73.88823,
              18.48147
            ],
            [
              73.88795,
              18.48122
            ],
            [
              73.88786,
              18.481
            ],
            [
              73.88783,
              18.4808
            ],
            [
              73.88886,
              18.48069
            ],
            [
              73.88886,
              18.48002
            ],
            [
              73.88843,
              18.47997
            ],
            [
              73.88814,
              18.4799
            ],
            [
              73.88764,
              18.47963
            ],
            [
              73.88742,
              18.47946
            ],
            [
              73.88738,
              18.47921
            ],
            [
              73.88715,
              18.47882
            ],
            [
              73.8871,
              18.47886
            ],
            [
              73.88694,
              18.47889
            ],
            [
              73.88616,
              18.47886
            ],
            [
              73.88465,
              18.47883
            ],
            [
              73.88467,
              18.47818
            ],
            [
              73.8837,
              18.47824
            ],
            [
              73.88365,
              18.4776
            ],
            [
              73.88305,
              18.47768
            ],
            [
              73.88118,
              18.47801
            ],
            [
              73.88092,
              18.47752
            ],
            [
              73.88076,
              18.47727
            ],
            [
              73.88049,
              18.47694
            ],
            [
              73.88039,
              18.4767
            ],
            [
              73.87999,
              18.4761
            ],
            [
              73.87969,
              18.47569
            ],
            [
              73.87956,
              18.47555
            ],
            [
              73.87965,
              18.47546
            ],
            [
              73.87966,
              18.47474
            ],
            [
              73.87989,
              18.47415
            ],
            [
              73.87989,
              18.47376
            ],
            [
              73.8797,
              18.47335
            ],
            [
              73.87959,
              18.47299
            ],
            [
              73.87963,
              18.47255
            ],
            [
              73.87961,
              18.47202
            ],
            [
              73.87855,
              18.47202
            ],
            [
              73.87818,
              18.47191
            ],
            [
              73.87802,
              18.47188
            ],
            [
              73.87716,
              18.47199
            ],
            [
              73.87622,
              18.472
            ],
            [
              73.87601,
              18.47206
            ],
            [
              73.87543,
              18.47217
            ],
            [
              73.875,
              18.47223
            ],
            [
              73.87487,
              18.47225
            ],
            [
              73.87481,
              18.47241
            ],
            [
              73.87452,
              18.47235
            ],
            [
              73.87358,
              18.47225
            ],
            [
              73.87363,
              18.47127
            ],
            [
              73.87294,
              18.47127
            ],
            [
              73.8722,
              18.47135
            ],
            [
              73.87184,
              18.47135
            ],
            [
              73.87153,
              18.47138
            ],
            [
              73.87101,
              18.47149
            ],
            [
              73.87041,
              18.47171
            ],
            [
              73.86982,
              18.47186
            ],
            [
              73.86944,
              18.47203
            ],
            [
              73.86924,
              18.47215
            ],
            [
              73.86897,
              18.47242
            ],
            [
              73.86871,
              18.47219
            ],
            [
              73.86784,
              18.47214
            ],
            [
              73.86647,
              18.47199
            ],
            [
              73.86637,
              18.47285
            ],
            [
              73.86493,
              18.47282
            ],
            [
              73.86423,
              18.47283
            ],
            [
              73.86294,
              18.47269
            ],
            [
              73.86284,
              18.47294
            ],
            [
              73.86263,
              18.47367
            ],
            [
              73.86242,
              18.47461
            ],
            [
              73.86237,
              18.4755
            ],
            [
              73.86233,
              18.47631
            ],
            [
              73.86223,
              18.47666
            ],
            [
              73.86198,
              18.47769
            ],
            [
              73.86175,
              18.47821
            ],
            [
              73.86159,
              18.47868
            ],
            [
              73.86134,
              18.48018
            ],
            [
              73.86123,
              18.48093
            ],
            [
              73.86172,
              18.48101
            ],
            [
              73.86199,
              18.48105
            ],
            [
              73.86233,
              18.48106
            ],
            [
              73.86287,
              18.48107
            ],
            [
              73.86421,
              18.48104
            ],
            [
              73.86526,
              18.48101
            ],
            [
              73.86687,
              18.48093
            ],
            [
              73.8674,
              18.48091
            ],
            [
              73.86768,
              18.48088
            ],
            [
              73.86862,
              18.48083
            ],
            [
              73.86918,
              18.48076
            ],
            [
              73.86984,
              18.48067
            ],
            [
              73.87018,
              18.48062
            ],
            [
              73.87061,
              18.48059
            ],
            [
              73.87096,
              18.48061
            ],
            [
              73.87165,
              18.48077
            ],
            [
              73.87239,
              18.48097
            ],
            [
              73.87197,
              18.4823
            ],
            [
              73.87179,
              18.48299
            ],
            [
              73.87166,
              18.48358
            ],
            [
              73.8714,
              18.48459
            ],
            [
              73.87066,
              18.4876
            ],
            [
              73.87018,
              18.48945
            ],
            [
              73.86977,
              18.49106
            ],
            [
              73.86953,
              18.49187
            ],
            [
              73.86938,
              18.49251
            ],
            [
              73.8693,
              18.49313
            ],
            [
              73.86933,
              18.49406
            ],
            [
              73.86934,
              18.49719
            ],
            [
              73.86942,
              18.49857
            ],
            [
              73.86942,
              18.49953
            ],
            [
              73.86942,
              18.49996
            ],
            [
              73.86942,
              18.50067
            ],
            [
              73.86935,
              18.50153
            ],
            [
              73.86962,
              18.50159
            ],
            [
              73.8701,
              18.50169
            ],
            [
              73.87079,
              18.50183
            ],
            [
              73.87116,
              18.50185
            ],
            [
              73.87182,
              18.50186
            ],
            [
              73.87254,
              18.50188
            ],
            [
              73.87336,
              18.5019
            ],
            [
              73.87438,
              18.50194
            ],
            [
              73.87477,
              18.50195
            ],
            [
              73.87481,
              18.50195
            ],
            [
              73.87486,
              18.50073
            ],
            [
              73.87482,
              18.50065
            ],
            [
              73.87463,
              18.50061
            ],
            [
              73.87417,
              18.50058
            ],
            [
              73.87376,
              18.50057
            ],
            [
              73.87363,
              18.5005
            ],
            [
              73.87346,
              18.50037
            ],
            [
              73.87344,
              18.50027
            ],
            [
              73.87424,
              18.49986
            ],
            [
              73.87511,
              18.49915
            ],
            [
              73.8761,
              18.49822
            ],
            [
              73.87646,
              18.49791
            ],
            [
              73.87722,
              18.4974
            ],
            [
              73.87751,
              18.49722
            ],
            [
              73.87742,
              18.49673
            ],
            [
              73.87727,
              18.49655
            ],
            [
              73.87712,
              18.49587
            ],
            [
              73.87708,
              18.49516
            ],
            [
              73.87728,
              18.49384
            ],
            [
              73.87727,
              18.49343
            ],
            [
              73.87739,
              18.49334
            ],
            [
              73.8776,
              18.4915
            ],
            [
              73.87754,
              18.4905
            ],
            [
              73.87738,
              18.48871
            ],
            [
              73.8786,
              18.48847
            ],
            [
              73.87883,
              18.48868
            ],
            [
              73.87967,
              18.4893
            ],
            [
              73.88023,
              18.48957
            ],
            [
              73.88098,
              18.48978
            ],
            [
              73.88153,
              18.48987
            ],
            [
              73.88211,
              18.48992
            ],
            [
              73.88286,
              18.48999
            ],
            [
              73.88343,
              18.49027
            ],
            [
              73.88359,
              18.48993
            ],
            [
              73.88414,
              18.48967
            ],
            [
              73.88865,
              18.49003
            ],
            [
              73.88893,
              18.4888
            ],
            [
              73.88927,
              18.48725
            ],
            [
              73.88956,
              18.48624
            ],
            [
              73.88968,
              18.48479
            ],
            [
              73.89014,
              18.4841
            ],
            [
              73.89019,
              18.48321
            ],
            [
              73.8905,
              18.48309
            ]
          ]
        ]
      }
    }
  ]
}
