<?xml version="1.0" encoding="UTF-8"?>
<kml xmlns="http://www.opengis.net/kml/2.2">
  <Document>
    <name>45 Fursungi</name>
    <description>Part of OS-Bhugol open geographic data project</description>
    <Placemark>
      <name>45 Fursungi</name>
      <ExtendedData>
        <Data name="ward_number"><value>45</value></Data>
        <Data name="ward_name_en"><value>45 Fursungi</value></Data>
        <Data name="ward_name_mr"><value>प्रभाग ४५ : फुरसुंगी</value></Data>
        <Data name="entity_type"><value>ward</value></Data>
        <Data name="parent_municipality"><value>Pune Municipal Corporation</value></Data>
        <Data name="parent_municipality_mr"><value>पुणे महानगरपालिका</value></Data>
        <Data name="district"><value>Pune</value></Data>
        <Data name="district_mr"><value>पुणे</value></Data>
        <Data name="state"><value>Maharashtra</value></Data>
        <Data name="state_mr"><value>महाराष्ट्र</value></Data>
        <Data name="country"><value>India</value></Data>
        <Data name="country_mr"><value>भारत</value></Data>
        <Data name="area_sq_km"><value>6.5288</value></Data>
        <Data name="perimeter_km"><value>11.7122</value></Data>
        <Data name="author"><value>Nikhil VJ</value></Data>
        <Data name="source_url"><value>http://www.pmc.gov.in/sites/default/files/final_ward_maps/45_F_Ward.pdf</value></Data>
        <Data name="created_date"><value>2025-11-02</value></Data>
        <Data name="data_year"><value>2022</value></Data>
      </ExtendedData>
      <MultiGeometry>
      <Polygon>
        <outerBoundaryIs>
          <LinearRing>
            <tessellate>1</tessellate>
            <coordinates>
              73.95688,18.49336 73.95769,18.49337 73.95912,18.49314 73.96005,18.49217 73.9604,18.4916 73.96064,18.49091 73.96083,18.49014 73.96077,18.48863 73.96063,18.4873 73.96078,18.48585 73.96113,18.48423 73.96217,18.48171 73.96306,18.4805 73.96377,18.47994 73.97231,18.47797 73.9782,18.47683 73.97813,18.47671 73.97741,18.47593 73.97711,18.47484 73.97637,18.47449 73.97613,18.47436 73.97545,18.47333 73.97455,18.47273 73.97437,18.47246 73.97429,18.47218 73.9743,18.47042 73.97413,18.46994 73.97398,18.46972 73.97396,18.46957 73.97397,18.46939 73.97412,18.46928 73.97417,18.46913 73.97413,18.46888 73.97397,18.46881 73.97361,18.4689 73.97329,18.46887 73.97311,18.46874 73.97292,18.46856 73.97253,18.46844 73.97225,18.46846 73.97096,18.46888 73.97071,18.46893 73.97048,18.46886 73.97032,18.46861 73.9701,18.46796 73.96876,18.4677 73.96812,18.4675 73.9672,18.46718 73.96607,18.46661 73.9649,18.46579 73.96403,18.46507 73.96344,18.46548 73.96172,18.46532 73.95917,18.46639 73.95616,18.46672 73.95322,18.46745 73.9519,18.46775 73.95201,18.46821 73.95202,18.46846 73.95196,18.46893 73.95177,18.46931 73.95103,18.46962 73.95016,18.46967 73.94961,18.4695 73.94919,18.46902 73.94794,18.46932 73.94737,18.46917 73.94757,18.46947 73.94375,18.47294 73.94232,18.47343 73.94318,18.47606 73.94346,18.47689 73.9436,18.47689 73.94414,18.47885 73.94447,18.4801 73.94457,18.48037 73.94464,18.48057 73.94503,18.48206 73.94535,18.48326 73.94545,18.48354 73.94546,18.48389 73.9457,18.48409 73.94596,18.48456 73.94613,18.48472 73.94638,18.48497 73.94669,18.4854 73.94785,18.48693 73.94809,18.48728 73.94812,18.48766 73.94823,18.48795 73.94865,18.48917 73.94932,18.49117 73.94922,18.49126 73.9494,18.49182 73.94963,18.49252 73.94988,18.49322 73.95001,18.49358 73.95006,18.49387 73.9507,18.49381 73.95123,18.49375 73.95182,18.49371 73.9523,18.49372 73.95275,18.49372 73.95322,18.49369 73.95388,18.49362 73.95486,18.49353 73.95566,18.49343 73.95687,18.49327 73.95688,18.49336
            </coordinates>
          </LinearRing>
        </outerBoundaryIs>
      </Polygon>

      </MultiGeometry>
    </Placemark>
  </Document>
</kml>
