{
  "type": "FeatureCollection",
  "features": [
    {
      "type": "Feature",
      "properties": {
        "ward_number": 38,
        "ward_name_en": "Ward 38",
        "ward_name_mr": "प्रभाग ३८",
        "entity_type": "ward",
        "parent_municipality": "Pune Municipal Corporation",
        "parent_municipality_mr": "पुणे महानगरपालिका",
        "district": "Pune",
        "district_mr": "पुणे",
        "state": "Maharashtra",
        "state_mr": "महाराष्ट्र",
        "country": "India",
        "country_mr": "भारत",
        "area_sq_km": 35.4269,
        "perimeter_km": 34.8208,
        "author": "Parisar",
        "added_by": "mahanvyakti",
        "source_url": "https://data.opencity.in/dataset/pune-wards-info/resource/2badcc86-489c-4b7e-b7dd-a273ef01b798",
        "created_date": "2025-11-02",
        "data_year": 2025
      },
      "geometry": {
        "type": "Polygon",
        "coordinates": [
          [
            [
              73.8606105356205,
              18.4646513098576
            ],
            [
              73.8607351157113,
              18.4643545598549
            ],
            [
              73.8612162170646,
              18.4632085706156
            ],
            [
              73.8611951665407,
              18.4622560240341
            ],
            [
              73.8609411796457,
              18.4619491131886
            ],
            [
              73.8609480837094,
              18.460902701504
            ],
            [
              73.8611342392164,
              18.4606361128442
            ],
            [
              73.861137440987,
              18.4599849144839
            ],
            [
              73.8626905965989,
              18.4598756664583
            ],
            [
              73.8629064366013,
              18.4594028341082
            ],
            [
              73.862908969475,
              18.4592347734512
            ],
            [
              73.8626540907139,
              18.4589288318002
            ],
            [
              73.8627022637986,
              18.4582640349574
            ],
            [
              73.8628648953987,
              18.4578872621874
            ],
            [
              73.8631036123419,
              18.457147908849
            ],
            [
              73.8628777970727,
              18.4565457371961
            ],
            [
              73.8649929260828,
              18.4552209593799
            ],
            [
              73.8651646307926,
              18.4551457535733
            ],
            [
              73.8639630031046,
              18.4532692056058
            ],
            [
              73.863349150806,
              18.4515755670406
            ],
            [
              73.86291826142,
              18.4502558099672
            ],
            [
              73.8630972629962,
              18.4491863862669
            ],
            [
              73.8633009835509,
              18.4487240016648
            ],
            [
              73.8639207777218,
              18.4480885153728
            ],
            [
              73.8637133113203,
              18.4467453895881
            ],
            [
              73.8636229852127,
              18.4463991407079
            ],
            [
              73.8637584743743,
              18.4459700930454
            ],
            [
              73.8639767614185,
              18.4454281390974
            ],
            [
              73.8640896677041,
              18.4450818902172
            ],
            [
              73.8641423580835,
              18.444630260578
            ],
            [
              73.864134830758,
              18.4440280889252
            ],
            [
              73.8640369783087,
              18.4438022738379
            ],
            [
              73.8649007810708,
              18.4429718819795
            ],
            [
              73.865375182051,
              18.44262057393
            ],
            [
              73.865862902437,
              18.4425784263584
            ],
            [
              73.8662421895239,
              18.4420947147864
            ],
            [
              73.8673028569104,
              18.4420439318563
            ],
            [
              73.8675644121805,
              18.4419020338127
            ],
            [
              73.8678094769308,
              18.441677295111
            ],
            [
              73.8684833197293,
              18.4413231633995
            ],
            [
              73.8691520976085,
              18.4407365144522
            ],
            [
              73.8694568595206,
              18.4404430120401
            ],
            [
              73.8696171180408,
              18.4400983820125
            ],
            [
              73.8696274812569,
              18.4395203744231
            ],
            [
              73.8699380438168,
              18.4393462900106
            ],
            [
              73.8702686016013,
              18.4391346234176
            ],
            [
              73.8705457946243,
              18.4390294564408
            ],
            [
              73.8711200121506,
              18.4388066716917
            ],
            [
              73.8716880953071,
              18.4385147314771
            ],
            [
              73.8722867302681,
              18.4381121733015
            ],
            [
              73.8724736047641,
              18.4378327537074
            ],
            [
              73.8737971636527,
              18.4377481215233
            ],
            [
              73.8740687247515,
              18.4379005338647
            ],
            [
              73.8745762002993,
              18.4388271993652
            ],
            [
              73.8751381465016,
              18.4394777185192
            ],
            [
              73.8758657402234,
              18.4399658497969
            ],
            [
              73.8762186164634,
              18.4393584520287
            ],
            [
              73.8776558603393,
              18.4377764781979
            ],
            [
              73.8783960222354,
              18.4346784345712
            ],
            [
              73.8784993568426,
              18.4330198394447
            ],
            [
              73.8782923006694,
              18.4326302001255
            ],
            [
              73.8786069143189,
              18.4312054113681
            ],
            [
              73.8789453401449,
              18.4284575138046
            ],
            [
              73.8805625945882,
              18.4269752872798
            ],
            [
              73.8812192102984,
              18.4251028529144
            ],
            [
              73.8820964746727,
              18.4235939568958
            ],
            [
              73.8826772253737,
              18.4219482083434
            ],
            [
              73.8832145487125,
              18.4210928748365
            ],
            [
              73.8847826596921,
              18.4191957900538
            ],
            [
              73.8881820619526,
              18.4152289083875
            ],
            [
              73.8892957769786,
              18.4118706276275
            ],
            [
              73.8916362922812,
              18.4093046280062
            ],
            [
              73.8900601377651,
              18.4057835501708
            ],
            [
              73.8857528024499,
              18.4010330163606
            ],
            [
              73.8832537888314,
              18.4010781794145
            ],
            [
              73.8769686195062,
              18.3951919493491
            ],
            [
              73.8758874203683,
              18.3963800338117
            ],
            [
              73.8745433727785,
              18.3968039634323
            ],
            [
              73.872857291431,
              18.397382048543
            ],
            [
              73.8719901633154,
              18.4005422464277
            ],
            [
              73.8693367531888,
              18.4004433084122
            ],
            [
              73.8659714559181,
              18.3991662836971
            ],
            [
              73.85988199256,
              18.4008674187967
            ],
            [
              73.8572992394684,
              18.4012084929777
            ],
            [
              73.8512742475797,
              18.4020004403478
            ],
            [
              73.8511234687571,
              18.4018878323331
            ],
            [
              73.8472138013759,
              18.3992415551537
            ],
            [
              73.8426297680495,
              18.397209224926
            ],
            [
              73.8372704381803,
              18.3948306458178
            ],
            [
              73.831977441406,
              18.3930697633589
            ],
            [
              73.8307660411199,
              18.3903411717078
            ],
            [
              73.8290253880114,
              18.3902470828367
            ],
            [
              73.8235833618828,
              18.3920085480561
            ],
            [
              73.8244918848927,
              18.3952600487123
            ],
            [
              73.822813647432,
              18.3982564162007
            ],
            [
              73.8216498528133,
              18.4026046034039
            ],
            [
              73.8214949763434,
              18.4040143449617
            ],
            [
              73.8217503990728,
              18.4113484886791
            ],
            [
              73.8217743853044,
              18.4149075323346
            ],
            [
              73.8232036046392,
              18.4164532728004
            ],
            [
              73.8244672068005,
              18.4174750643044
            ],
            [
              73.8257486853063,
              18.4189343564001
            ],
            [
              73.8266562493405,
              18.4196582527907
            ],
            [
              73.8270693849865,
              18.4200679818043
            ],
            [
              73.8275436789725,
              18.4208954456983
            ],
            [
              73.8278792413882,
              18.4217373217753
            ],
            [
              73.8281257066932,
              18.4227440638362
            ],
            [
              73.8285354116859,
              18.4232682885365
            ],
            [
              73.8287176973908,
              18.4244793591085
            ],
            [
              73.8289439805359,
              18.4248272459725
            ],
            [
              73.8294894427736,
              18.4249120451576
            ],
            [
              73.829719186032,
              18.4250030394479
            ],
            [
              73.8301750941424,
              18.4257143392874
            ],
            [
              73.8305993023275,
              18.4260671251681
            ],
            [
              73.8321032783323,
              18.4269803168846
            ],
            [
              73.8329553226003,
              18.4274877429017
            ],
            [
              73.8333716548823,
              18.4278290738732
            ],
            [
              73.8338227501145,
              18.428413838357
            ],
            [
              73.8342655093189,
              18.4288856268321
            ],
            [
              73.8346616566798,
              18.4295221714904
            ],
            [
              73.8347594216314,
              18.4298702310928
            ],
            [
              73.8349794952875,
              18.4306381629542
            ],
            [
              73.8350646497225,
              18.4315073329604
            ],
            [
              73.8355879772512,
              18.4331935477142
            ],
            [
              73.8356104801101,
              18.4349201227916
            ],
            [
              73.8357070140602,
              18.4357893622058
            ],
            [
              73.8360907292306,
              18.4362477558937
            ],
            [
              73.8360417895165,
              18.4367577859364
            ],
            [
              73.8361949254933,
              18.4369932597184
            ],
            [
              73.8360429366904,
              18.4375894877228
            ],
            [
              73.8359299879337,
              18.4385724130113
            ],
            [
              73.8353716192854,
              18.4399741577933
            ],
            [
              73.8350326454289,
              18.4428032344154
            ],
            [
              73.8350668199762,
              18.4442051449106
            ],
            [
              73.8352076475572,
              18.4455760671132
            ],
            [
              73.8348065198743,
              18.4457157170684
            ],
            [
              73.8346991418168,
              18.4478378692957
            ],
            [
              73.8344995308822,
              18.4497249677808
            ],
            [
              73.8342713175249,
              18.4500021065789
            ],
            [
              73.834088614709,
              18.4514789572103
            ],
            [
              73.831048754833,
              18.4516026652011
            ],
            [
              73.8300873531757,
              18.4522446748103
            ],
            [
              73.8291817729809,
              18.4530977992392
            ],
            [
              73.8281103649654,
              18.4542777660604
            ],
            [
              73.8281727316207,
              18.4547309266723
            ],
            [
              73.8283817503109,
              18.4552708654496
            ],
            [
              73.8287531495774,
              18.455991355266
            ],
            [
              73.8287753622587,
              18.4563827531307
            ],
            [
              73.8286426394313,
              18.4564128469017
            ],
            [
              73.8284120701503,
              18.4564630951237
            ],
            [
              73.8272471850018,
              18.4575468181139
            ],
            [
              73.8259403151482,
              18.4583620687877
            ],
            [
              73.8260355054909,
              18.4585710657544
            ],
            [
              73.8265424820711,
              18.4595111797443
            ],
            [
              73.826212417224,
              18.4612750709076
            ],
            [
              73.8276914849984,
              18.4618835177159
            ],
            [
              73.8305131550617,
              18.4619144965219
            ],
            [
              73.8315199797403,
              18.4616207510845
            ],
            [
              73.8315594187427,
              18.4636738439823
            ],
            [
              73.8317279071497,
              18.4645295591195
            ],
            [
              73.832259735054,
              18.4649038069227
            ],
            [
              73.8328629343507,
              18.4649782053475
            ],
            [
              73.8336784721432,
              18.4650008586714
            ],
            [
              73.8344715190815,
              18.4650219134807
            ],
            [
              73.8347382082828,
              18.4650640222463
            ],
            [
              73.8349908608948,
              18.465316675337
            ],
            [
              73.8350891141868,
              18.4654851096826
            ],
            [
              73.836422557721,
              18.465513182011
            ],
            [
              73.8370541884774,
              18.4649868236515
            ],
            [
              73.8374050935886,
              18.4647271522562
            ],
            [
              73.8387244994418,
              18.4647131166815
            ],
            [
              73.8398776648887,
              18.4629493748732
            ],
            [
              73.8421914496709,
              18.4631248293196
            ],
            [
              73.842372193572,
              18.4629685252994
            ],
            [
              73.8422853567722,
              18.4621140900897
            ],
            [
              73.8420716043742,
              18.4615488309341
            ],
            [
              73.84150520559,
              18.4612016408443
            ],
            [
              73.8411791278614,
              18.4585248596161
            ],
            [
              73.8421591383578,
              18.4585304175735
            ],
            [
              73.8424312333339,
              18.4586967479659
            ],
            [
              73.8437321523947,
              18.4587595723235
            ],
            [
              73.8437816947205,
              18.4589688343991
            ],
            [
              73.8450660162065,
              18.4590665632302
            ],
            [
              73.8459656807035,
              18.4592086921962
            ],
            [
              73.8463279086299,
              18.4576813356055
            ],
            [
              73.8464541365153,
              18.4576252128376
            ],
            [
              73.8467156413322,
              18.4576457671951
            ],
            [
              73.8484920822555,
              18.4578995790786
            ],
            [
              73.8491650727433,
              18.4569266604765
            ],
            [
              73.8496196364791,
              18.4565698124788
            ],
            [
              73.8504825315325,
              18.4571396270537
            ],
            [
              73.8506334935594,
              18.4571045813668
            ],
            [
              73.8507172044787,
              18.4569828234116
            ],
            [
              73.8510372949563,
              18.456243830444
            ],
            [
              73.8511638835186,
              18.4517152818478
            ],
            [
              73.851280037218,
              18.4504370978476
            ],
            [
              73.8551776167837,
              18.4491998174901
            ],
            [
              73.8571691330599,
              18.4486521054876
            ],
            [
              73.8582273012219,
              18.4482755101993
            ],
            [
              73.8583633476394,
              18.4482409780755
            ],
            [
              73.8584858049703,
              18.4483569591935
            ],
            [
              73.8584283344347,
              18.4486832547308
            ],
            [
              73.8581261754555,
              18.4506157894616
            ],
            [
              73.8580909926616,
              18.4513779448592
            ],
            [
              73.8582654845301,
              18.4523427433171
            ],
            [
              73.8586219327566,
              18.4544208289582
            ],
            [
              73.8586774906854,
              18.4548888251215
            ],
            [
              73.8586725459134,
              18.4556370550699
            ],
            [
              73.8584029942351,
              18.456895909519
            ],
            [
              73.8580246870332,
              18.4586703776022
            ],
            [
              73.8580057852146,
              18.4600695665927
            ],
            [
              73.8580475612908,
              18.4614543909666
            ],
            [
              73.8580856401808,
              18.4635110680477
            ],
            [
              73.8576669414516,
              18.4679537894157
            ],
            [
              73.8607842726304,
              18.4679830672334
            ],
            [
              73.8611251506135,
              18.4678079112539
            ],
            [
              73.8614626000145,
              18.4664724362577
            ],
            [
              73.8619872653873,
              18.4652853156719
            ],
            [
              73.8606105356205,
              18.4646513098576
            ]
          ]
        ]
      }
    }
  ]
}