{
  "type": "FeatureCollection",
  "features": [
    {
      "type": "Feature",
      "properties": {
        "ward_number": 14,
        "ward_name_en": "14 Pashan - Bawdhan",
        "ward_name_mr": "प्रभाग १४ : पाषाण - बावधन",
        "entity_type": "ward",
        "parent_municipality": "Pune Municipal Corporation",
        "parent_municipality_mr": "पुणे महानगरपालिका",
        "district": "Pune",
        "district_mr": "पुणे",
        "state": "Maharashtra",
        "state_mr": "महाराष्ट्र",
        "country": "India",
        "country_mr": "भारत",
        "area_sq_km": 19.2225,
        "perimeter_km": 22.6771,
        "author": "Nikhil VJ",
        "added_by": "mahanvyakti",
        "source_url": "http://www.pmc.gov.in/sites/default/files/final_ward_maps/14_F_Ward.pdf",
        "created_date": "2025-11-02",
        "data_year": 2022
      },
      "geometry": {
        "type": "Polygon",
        "coordinates": [
          [
            [
              73.80252,
              18.54621
            ],
            [
              73.80247,
              18.54406
            ],
            [
              73.80473,
              18.54413
            ],
            [
              73.80479,
              18.53936
            ],
            [
              73.80612,
              18.53824
            ],
            [
              73.80577,
              18.53806
            ],
            [
              73.80479,
              18.53776
            ],
            [
              73.80407,
              18.53776
            ],
            [
              73.80384,
              18.53772
            ],
            [
              73.8047,
              18.53494
            ],
            [
              73.80692,
              18.535
            ],
            [
              73.80728,
              18.53451
            ],
            [
              73.80773,
              18.53425
            ],
            [
              73.80817,
              18.53399
            ],
            [
              73.81006,
              18.53029
            ],
            [
              73.81037,
              18.52976
            ],
            [
              73.81052,
              18.52946
            ],
            [
              73.81071,
              18.52901
            ],
            [
              73.81103,
              18.52711
            ],
            [
              73.81167,
              18.52574
            ],
            [
              73.81232,
              18.5246
            ],
            [
              73.81247,
              18.52435
            ],
            [
              73.81131,
              18.52422
            ],
            [
              73.81081,
              18.52429
            ],
            [
              73.81024,
              18.52447
            ],
            [
              73.80965,
              18.52481
            ],
            [
              73.80921,
              18.52476
            ],
            [
              73.80745,
              18.52474
            ],
            [
              73.80699,
              18.52465
            ],
            [
              73.80603,
              18.5246
            ],
            [
              73.80502,
              18.52454
            ],
            [
              73.80427,
              18.5244
            ],
            [
              73.80371,
              18.52417
            ],
            [
              73.80304,
              18.52416
            ],
            [
              73.80238,
              18.52408
            ],
            [
              73.80203,
              18.52384
            ],
            [
              73.80166,
              18.52377
            ],
            [
              73.8008,
              18.52363
            ],
            [
              73.79984,
              18.52348
            ],
            [
              73.79893,
              18.52316
            ],
            [
              73.79849,
              18.5227
            ],
            [
              73.79794,
              18.52237
            ],
            [
              73.79708,
              18.52159
            ],
            [
              73.79631,
              18.52071
            ],
            [
              73.79548,
              18.51961
            ],
            [
              73.79529,
              18.51946
            ],
            [
              73.79468,
              18.51884
            ],
            [
              73.7937,
              18.51792
            ],
            [
              73.79321,
              18.51732
            ],
            [
              73.79272,
              18.51703
            ],
            [
              73.79231,
              18.51636
            ],
            [
              73.79233,
              18.51606
            ],
            [
              73.79139,
              18.51592
            ],
            [
              73.79099,
              18.51594
            ],
            [
              73.79002,
              18.51631
            ],
            [
              73.78962,
              18.51638
            ],
            [
              73.78823,
              18.51674
            ],
            [
              73.78625,
              18.51298
            ],
            [
              73.78388,
              18.51268
            ],
            [
              73.78346,
              18.51257
            ],
            [
              73.78229,
              18.51224
            ],
            [
              73.78262,
              18.51362
            ],
            [
              73.78265,
              18.51408
            ],
            [
              73.78235,
              18.51482
            ],
            [
              73.78138,
              18.51687
            ],
            [
              73.78101,
              18.51727
            ],
            [
              73.77993,
              18.51816
            ],
            [
              73.77911,
              18.51893
            ],
            [
              73.77889,
              18.51922
            ],
            [
              73.77881,
              18.51968
            ],
            [
              73.77817,
              18.51963
            ],
            [
              73.77819,
              18.51934
            ],
            [
              73.77715,
              18.51926
            ],
            [
              73.77701,
              18.51932
            ],
            [
              73.77651,
              18.52014
            ],
            [
              73.776,
              18.51982
            ],
            [
              73.7765,
              18.51922
            ],
            [
              73.77655,
              18.51911
            ],
            [
              73.77678,
              18.51823
            ],
            [
              73.77681,
              18.51759
            ],
            [
              73.77669,
              18.5169
            ],
            [
              73.77645,
              18.51665
            ],
            [
              73.77606,
              18.51627
            ],
            [
              73.77557,
              18.51554
            ],
            [
              73.77541,
              18.51545
            ],
            [
              73.77506,
              18.51531
            ],
            [
              73.77496,
              18.51507
            ],
            [
              73.77503,
              18.51494
            ],
            [
              73.77529,
              18.5148
            ],
            [
              73.77535,
              18.51466
            ],
            [
              73.77519,
              18.51434
            ],
            [
              73.77458,
              18.51351
            ],
            [
              73.77458,
              18.51324
            ],
            [
              73.774,
              18.51319
            ],
            [
              73.77363,
              18.51297
            ],
            [
              73.77257,
              18.51247
            ],
            [
              73.77229,
              18.5124
            ],
            [
              73.77217,
              18.51257
            ],
            [
              73.77198,
              18.51272
            ],
            [
              73.77146,
              18.51295
            ],
            [
              73.77084,
              18.51311
            ],
            [
              73.77003,
              18.51315
            ],
            [
              73.76981,
              18.51316
            ],
            [
              73.76917,
              18.51282
            ],
            [
              73.76882,
              18.51259
            ],
            [
              73.76883,
              18.51242
            ],
            [
              73.76894,
              18.51232
            ],
            [
              73.76928,
              18.5123
            ],
            [
              73.76929,
              18.51169
            ],
            [
              73.76907,
              18.51017
            ],
            [
              73.76888,
              18.50982
            ],
            [
              73.76858,
              18.50969
            ],
            [
              73.7671,
              18.50964
            ],
            [
              73.76681,
              18.50971
            ],
            [
              73.76663,
              18.50971
            ],
            [
              73.76644,
              18.50961
            ],
            [
              73.76643,
              18.50933
            ],
            [
              73.76663,
              18.50917
            ],
            [
              73.76698,
              18.50908
            ],
            [
              73.76737,
              18.50895
            ],
            [
              73.76764,
              18.50885
            ],
            [
              73.76772,
              18.50865
            ],
            [
              73.76771,
              18.50844
            ],
            [
              73.76744,
              18.50815
            ],
            [
              73.76644,
              18.5072
            ],
            [
              73.76602,
              18.50639
            ],
            [
              73.76326,
              18.50571
            ],
            [
              73.76278,
              18.50574
            ],
            [
              73.7625,
              18.50579
            ],
            [
              73.76248,
              18.50608
            ],
            [
              73.76199,
              18.50773
            ],
            [
              73.76198,
              18.50833
            ],
            [
              73.76169,
              18.50876
            ],
            [
              73.76145,
              18.50924
            ],
            [
              73.76099,
              18.5099
            ],
            [
              73.76046,
              18.51087
            ],
            [
              73.76002,
              18.51149
            ],
            [
              73.75932,
              18.51264
            ],
            [
              73.75903,
              18.51312
            ],
            [
              73.75862,
              18.51328
            ],
            [
              73.75826,
              18.5138
            ],
            [
              73.75758,
              18.51458
            ],
            [
              73.75689,
              18.51518
            ],
            [
              73.7562,
              18.51561
            ],
            [
              73.75598,
              18.51569
            ],
            [
              73.75437,
              18.51577
            ],
            [
              73.75376,
              18.51583
            ],
            [
              73.75346,
              18.51603
            ],
            [
              73.753,
              18.51659
            ],
            [
              73.75266,
              18.51722
            ],
            [
              73.75261,
              18.51754
            ],
            [
              73.75239,
              18.51801
            ],
            [
              73.75171,
              18.51913
            ],
            [
              73.75137,
              18.52009
            ],
            [
              73.75097,
              18.52063
            ],
            [
              73.75027,
              18.52211
            ],
            [
              73.74998,
              18.52214
            ],
            [
              73.74941,
              18.52244
            ],
            [
              73.74899,
              18.52282
            ],
            [
              73.74862,
              18.52313
            ],
            [
              73.74788,
              18.52387
            ],
            [
              73.74744,
              18.52456
            ],
            [
              73.74749,
              18.5254
            ],
            [
              73.74776,
              18.5267
            ],
            [
              73.74761,
              18.52724
            ],
            [
              73.74765,
              18.52854
            ],
            [
              73.7476,
              18.52896
            ],
            [
              73.74729,
              18.52892
            ],
            [
              73.74734,
              18.52942
            ],
            [
              73.74768,
              18.52958
            ],
            [
              73.74826,
              18.52974
            ],
            [
              73.7487,
              18.52995
            ],
            [
              73.74909,
              18.53022
            ],
            [
              73.74959,
              18.53061
            ],
            [
              73.75024,
              18.533
            ],
            [
              73.75075,
              18.53311
            ],
            [
              73.75226,
              18.53352
            ],
            [
              73.75286,
              18.53376
            ],
            [
              73.75389,
              18.53424
            ],
            [
              73.75548,
              18.5353
            ],
            [
              73.75623,
              18.53588
            ],
            [
              73.75679,
              18.53638
            ],
            [
              73.75729,
              18.53681
            ],
            [
              73.75809,
              18.5373
            ],
            [
              73.7581,
              18.53791
            ],
            [
              73.75793,
              18.53839
            ],
            [
              73.75803,
              18.53893
            ],
            [
              73.75835,
              18.53947
            ],
            [
              73.75864,
              18.53962
            ],
            [
              73.75955,
              18.54013
            ],
            [
              73.76028,
              18.54044
            ],
            [
              73.76096,
              18.54055
            ],
            [
              73.76228,
              18.54083
            ],
            [
              73.76272,
              18.54119
            ],
            [
              73.76333,
              18.5418
            ],
            [
              73.76521,
              18.54229
            ],
            [
              73.7674,
              18.54351
            ],
            [
              73.76848,
              18.544
            ],
            [
              73.76948,
              18.54427
            ],
            [
              73.77107,
              18.54476
            ],
            [
              73.77207,
              18.54507
            ],
            [
              73.77413,
              18.54651
            ],
            [
              73.77452,
              18.54681
            ],
            [
              73.77563,
              18.54768
            ],
            [
              73.77679,
              18.54843
            ],
            [
              73.77787,
              18.54874
            ],
            [
              73.77844,
              18.54874
            ],
            [
              73.77983,
              18.54861
            ],
            [
              73.78022,
              18.54854
            ],
            [
              73.78084,
              18.54839
            ],
            [
              73.78195,
              18.54812
            ],
            [
              73.78285,
              18.54798
            ],
            [
              73.78345,
              18.54798
            ],
            [
              73.7837,
              18.54814
            ],
            [
              73.78414,
              18.54864
            ],
            [
              73.78468,
              18.54924
            ],
            [
              73.78811,
              18.54763
            ],
            [
              73.78823,
              18.54761
            ],
            [
              73.78964,
              18.54745
            ],
            [
              73.7918,
              18.5472
            ],
            [
              73.79174,
              18.54656
            ],
            [
              73.7935,
              18.54646
            ],
            [
              73.79355,
              18.5462
            ],
            [
              73.79756,
              18.5461
            ],
            [
              73.79818,
              18.54749
            ],
            [
              73.79819,
              18.54844
            ],
            [
              73.7983,
              18.54952
            ],
            [
              73.79938,
              18.54945
            ],
            [
              73.80047,
              18.54936
            ],
            [
              73.80263,
              18.54914
            ],
            [
              73.8027,
              18.54899
            ],
            [
              73.80219,
              18.5483
            ],
            [
              73.80217,
              18.548
            ],
            [
              73.80232,
              18.548
            ],
            [
              73.80225,
              18.54628
            ],
            [
              73.80252,
              18.54621
            ]
          ]
        ]
      }
    }
  ]
}