<?xml version="1.0" encoding="UTF-8"?>
<kml xmlns="http://www.opengis.net/kml/2.2">
  <Document>
    <name>2 Tingrenagar - Sanjay Park</name>
    <description>Part of OS-Bhugol open geographic data project</description>
    <Placemark>
      <name>2 Tingrenagar - Sanjay Park</name>
      <ExtendedData>
        <Data name="ward_number"><value>2</value></Data>
        <Data name="ward_name_en"><value>2 Tingrenagar - Sanjay Park</value></Data>
        <Data name="ward_name_mr"><value>प्रभाग ०२ : टिंगरेनगर - संजय पार्क</value></Data>
        <Data name="entity_type"><value>ward</value></Data>
        <Data name="parent_municipality"><value>Pune Municipal Corporation</value></Data>
        <Data name="parent_municipality_mr"><value>पुणे महानगरपालिका</value></Data>
        <Data name="district"><value>Pune</value></Data>
        <Data name="district_mr"><value>पुणे</value></Data>
        <Data name="state"><value>Maharashtra</value></Data>
        <Data name="state_mr"><value>महाराष्ट्र</value></Data>
        <Data name="country"><value>India</value></Data>
        <Data name="country_mr"><value>भारत</value></Data>
        <Data name="area_sq_km"><value>6.0701</value></Data>
        <Data name="perimeter_km"><value>19.512</value></Data>
        <Data name="author"><value>Nikhil VJ</value></Data>
        <Data name="source_url"><value>http://www.pmc.gov.in/sites/default/files/final_ward_maps/2_F_Ward.pdf</value></Data>
        <Data name="created_date"><value>2025-11-02</value></Data>
        <Data name="data_year"><value>2022</value></Data>
      </ExtendedData>
      <MultiGeometry>
      <Polygon>
        <outerBoundaryIs>
          <LinearRing>
            <tessellate>1</tessellate>
            <coordinates>
              73.91178,18.59201 73.91198,18.59201 73.91228,18.59201 73.91238,18.592 73.91243,18.592 73.91281,18.59194 73.91304,18.59188 73.91326,18.59173 73.91328,18.59165 73.91304,18.5903 73.91283,18.58904 73.91279,18.58879 73.91257,18.58766 73.91243,18.58714 73.91215,18.58686 73.91156,18.58662 73.91015,18.58611 73.90929,18.58598 73.90691,18.58562 73.90568,18.58543 73.90519,18.58536 73.90495,18.58521 73.90459,18.58486 73.90454,18.5848 73.90432,18.58458 73.90334,18.58399 73.9029,18.58371 73.90268,18.58358 73.90258,18.58342 73.90251,18.58323 73.90255,18.58288 73.90285,18.58196 73.90295,18.58162 73.90326,18.58061 73.90358,18.57956 73.90381,18.57869 73.90393,18.57856 73.90415,18.57852 73.9053,18.57841 73.90555,18.57839 73.90653,18.57829 73.90796,18.57813 73.90799,18.57807 73.90795,18.57782 73.90794,18.57737 73.9095,18.57721 73.91144,18.57714 73.91239,18.57717 73.9124,18.57675 73.91284,18.5766 73.91455,18.57636 73.91474,18.57632 73.91418,18.57354 73.91214,18.57394 73.91196,18.57364 73.91169,18.57263 73.91114,18.57061 73.91107,18.57015 73.91105,18.56999 73.91093,18.56874 73.91083,18.56511 73.91089,18.56511 73.91092,18.56446 73.91191,18.56455 73.91193,18.56425 73.91093,18.56419 73.91081,18.56198 73.91033,18.56204 73.91032,18.55961 73.90938,18.55967 73.90937,18.55881 73.90899,18.5588 73.90896,18.55861 73.90904,18.558 73.90915,18.55779 73.90929,18.55753 73.90783,18.55661 73.90685,18.55574 73.90648,18.5561 73.90646,18.55621 73.90644,18.55936 73.90668,18.56151 73.90688,18.56317 73.90696,18.56388 73.90701,18.565 73.90678,18.56617 73.90668,18.56669 73.90683,18.56807 73.90676,18.56809 73.9051,18.56813 73.90513,18.56939 73.90519,18.56964 73.9051,18.56965 73.90505,18.56951 73.90393,18.56945 73.90306,18.5695 73.90254,18.56953 73.90188,18.56959 73.90137,18.5696 73.90113,18.56993 73.90097,18.57004 73.90096,18.57038 73.90117,18.57044 73.90081,18.5716 73.90069,18.57172 73.9005,18.57174 73.90037,18.57177 73.89989,18.57269 73.89962,18.57236 73.89852,18.57092 73.89817,18.57025 73.8976,18.56915 73.89702,18.56817 73.89587,18.5667 73.89515,18.56598 73.89422,18.56504 73.89365,18.56424 73.89261,18.56235 73.89212,18.5613 73.89204,18.56106 73.88863,18.56277 73.88701,18.56362 73.88631,18.56404 73.88492,18.5647 73.8849,18.56493 73.88509,18.5653 73.88525,18.56552 73.88535,18.56615 73.88541,18.5669 73.88538,18.5677 73.88541,18.56909 73.88525,18.57006 73.88509,18.5706 73.88491,18.57142 73.8848,18.57205 73.88482,18.57218 73.88507,18.57221 73.88514,18.57341 73.88513,18.5735 73.88449,18.57348 73.88379,18.57337 73.8838,18.57317 73.88379,18.57307 73.88321,18.57249 73.8828,18.57218 73.88262,18.57203 73.88251,18.57154 73.88246,18.57122 73.88174,18.57136 73.88152,18.57135 73.88077,18.57073 73.88014,18.57041 73.8797,18.56974 73.87921,18.56893 73.87899,18.56979 73.87881,18.57086 73.87838,18.57207 73.87811,18.57265 73.87817,18.57276 73.87947,18.57286 73.88046,18.573 73.88117,18.5731 73.88184,18.57311 73.88183,18.57342 73.88192,18.57363 73.88201,18.57382 73.88216,18.57413 73.88239,18.57466 73.88241,18.57558 73.88217,18.57587 73.88222,18.57754 73.88265,18.57778 73.88328,18.57782 73.88333,18.57797 73.88396,18.5781 73.88397,18.5781 73.88398,18.5784 73.88533,18.57833 73.8853,18.578 73.88541,18.57791 73.88582,18.57804 73.88675,18.57845 73.88714,18.57877 73.88736,18.579 73.88758,18.57932 73.88773,18.57957 73.8878,18.57962 73.88799,18.57962 73.8882,18.57954 73.88859,18.57955 73.88933,18.57992 73.89018,18.58038 73.89067,18.58064 73.89099,18.58072 73.8916,18.5808 73.89211,18.58085 73.89266,18.58089 73.89294,18.58095 73.89319,18.58111 73.89338,18.58136 73.89344,18.58145 73.89364,18.5815 73.89395,18.5816 73.89418,18.58177 73.89462,18.58209 73.89474,18.58222 73.8948,18.58235 73.89481,18.58254 73.89485,18.58277 73.89503,18.58297 73.895,18.583 73.89481,18.5833 73.8946,18.5837 73.89447,18.58407 73.89447,18.58438 73.89476,18.58502 73.8952,18.58671 73.89548,18.588 73.89573,18.58858 73.89612,18.58857 73.8984,18.58843 73.89968,18.58833 73.90022,18.58832 73.90027,18.58832 73.90028,18.58866 73.90028,18.58876 73.90029,18.58884 73.90036,18.5889 73.90052,18.58894 73.90168,18.58878 73.90174,18.58884 73.90181,18.58856 73.90481,18.58829 73.90489,18.58823 73.90494,18.58818 73.90529,18.58818 73.90599,18.58823 73.90645,18.5883 73.9074,18.58844 73.90767,18.58848 73.9077,18.58852 73.90759,18.58983 73.90748,18.59072 73.90748,18.5909 73.90749,18.59089 73.90852,18.59132 73.90855,18.59133 73.90874,18.59141 73.90982,18.59184 73.91013,18.59192 73.91047,18.59198 73.91113,18.592 73.91178,18.59201
            </coordinates>
          </LinearRing>
        </outerBoundaryIs>
      </Polygon>

      </MultiGeometry>
    </Placemark>
  </Document>
</kml>
