<?xml version="1.0" encoding="UTF-8"?>
<kml xmlns="http://www.opengis.net/kml/2.2">
  <Document>
    <name>47 Kondhva Bk - Yewalewadi</name>
    <description>Part of OS-Bhugol open geographic data project</description>
    <Placemark>
      <name>47 Kondhva Bk - Yewalewadi</name>
      <ExtendedData>
        <Data name="ward_number"><value>47</value></Data>
        <Data name="ward_name_en"><value>47 Kondhva Bk - Yewalewadi</value></Data>
        <Data name="ward_name_mr"><value>प्रभाग ४७ : कोंढवा बु. - येवलेवाडी</value></Data>
        <Data name="entity_type"><value>ward</value></Data>
        <Data name="parent_municipality"><value>Pune Municipal Corporation</value></Data>
        <Data name="parent_municipality_mr"><value>पुणे महानगरपालिका</value></Data>
        <Data name="district"><value>Pune</value></Data>
        <Data name="district_mr"><value>पुणे</value></Data>
        <Data name="state"><value>Maharashtra</value></Data>
        <Data name="state_mr"><value>महाराष्ट्र</value></Data>
        <Data name="country"><value>India</value></Data>
        <Data name="country_mr"><value>भारत</value></Data>
        <Data name="area_sq_km"><value>17.2598</value></Data>
        <Data name="perimeter_km"><value>19.2467</value></Data>
        <Data name="author"><value>Nikhil VJ</value></Data>
        <Data name="source_url"><value>http://www.pmc.gov.in/sites/default/files/final_ward_maps/47_F_Ward.pdf</value></Data>
        <Data name="created_date"><value>2025-11-02</value></Data>
        <Data name="data_year"><value>2022</value></Data>
      </ExtendedData>
      <MultiGeometry>
      <Polygon>
        <outerBoundaryIs>
          <LinearRing>
            <tessellate>1</tessellate>
            <coordinates>
              73.88958,18.46468 73.88967,18.46458 73.8899,18.46463 73.8899,18.46424 73.8897,18.46359 73.88968,18.46335 73.88999,18.46296 73.89032,18.46235 73.89063,18.46133 73.89074,18.46102 73.89083,18.46051 73.89098,18.4599 73.891,18.45796 73.89097,18.45726 73.89165,18.45745 73.89259,18.45751 73.8937,18.45773 73.89463,18.45815 73.8958,18.45881 73.89703,18.45919 73.8975,18.45942 73.89799,18.45972 73.89865,18.45991 73.89925,18.4601 73.89997,18.46015 73.90063,18.46038 73.90158,18.46058 73.90203,18.46045 73.90239,18.46009 73.90295,18.45991 73.90369,18.45966 73.90453,18.45913 73.90464,18.45882 73.90565,18.45846 73.90682,18.45827 73.90774,18.45802 73.90834,18.45799 73.90859,18.4577 73.91136,18.45652 73.91124,18.45608 73.91121,18.45581 73.91135,18.4553 73.91184,18.45464 73.91201,18.45427 73.91195,18.45374 73.91159,18.45307 73.91125,18.45233 73.9111,18.45184 73.91096,18.45139 73.91091,18.44927 73.91099,18.44793 73.91112,18.4474 73.91102,18.4461 73.91109,18.44531 73.91076,18.44453 73.91047,18.44314 73.91047,18.44231 73.91025,18.44133 73.91012,18.44074 73.9101,18.44004 73.90982,18.43903 73.90954,18.43808 73.90945,18.43737 73.90946,18.43649 73.90936,18.43582 73.90839,18.43221 73.90869,18.43148 73.90954,18.43008 73.90964,18.42932 73.90966,18.42886 73.9094,18.42816 73.90912,18.42758 73.90878,18.42702 73.90866,18.42652 73.90863,18.42392 73.90892,18.42379 73.90882,18.42339 73.90921,18.42279 73.90949,18.42213 73.90931,18.42001 73.90744,18.41849 73.90645,18.41747 73.90606,18.41706 73.90438,18.41424 73.90404,18.41441 73.90359,18.41378 73.90373,18.41322 73.90436,18.41329 73.90443,18.41318 73.90412,18.41278 73.90376,18.41122 73.90354,18.41124 73.90314,18.41055 73.90288,18.40955 73.90258,18.40946 73.90062,18.40981 73.89993,18.40997 73.89899,18.40988 73.89818,18.40986 73.89718,18.40995 73.89491,18.41017 73.89444,18.41012 73.89312,18.40992 73.89261,18.4098 73.89172,18.40938 73.89085,18.41033 73.88941,18.41182 73.8891,18.4127 73.88832,18.41523 73.888,18.41559 73.88545,18.41857 73.88323,18.42123 73.88277,18.42208 73.88261,18.42258 73.88235,18.42339 73.88125,18.42525 73.88099,18.42612 73.88073,18.42702 73.87909,18.42851 73.87954,18.42881 73.87977,18.42945 73.88011,18.43035 73.88095,18.43193 73.88134,18.43279 73.88143,18.43319 73.88145,18.43349 73.88156,18.43381 73.88156,18.43441 73.88159,18.43468 73.88176,18.43524 73.88176,18.4355 73.88185,18.43703 73.88181,18.43721 73.8809,18.43789 73.88058,18.43819 73.88019,18.43821 73.87828,18.43839 73.87809,18.4393 73.87802,18.43963 73.87714,18.44218 73.87726,18.44301 73.87723,18.44321 73.87689,18.4441 73.87756,18.44434 73.87765,18.44438 73.87756,18.44462 73.8769,18.44596 73.8767,18.44659 73.87613,18.44656 73.87578,18.44773 73.87551,18.44873 73.87533,18.45 73.87522,18.44999 73.87438,18.44983 73.87425,18.45119 73.87388,18.45445 73.87378,18.45447 73.87372,18.45588 73.87358,18.45652 73.87486,18.45659 73.87511,18.45675 73.87527,18.45676 73.87553,18.45674 73.87549,18.45795 73.87602,18.45799 73.87808,18.45814 73.87784,18.45992 73.87779,18.46097 73.87781,18.46127 73.87783,18.46162 73.87778,18.46231 73.87763,18.46426 73.87752,18.46469 73.87831,18.46471 73.8789,18.46469 73.87895,18.46466 73.87896,18.46461 73.87982,18.46457 73.8798,18.46432 73.88049,18.4644 73.88129,18.46449 73.88216,18.46457 73.88266,18.46462 73.88299,18.46464 73.88335,18.46468 73.88369,18.46474 73.88376,18.46474 73.88415,18.46453 73.88482,18.4645 73.88525,18.46452 73.88555,18.46447 73.88584,18.46452 73.88669,18.46465 73.88762,18.46476 73.88797,18.46481 73.88834,18.46481 73.88868,18.4648 73.88895,18.46477 73.88927,18.46471 73.88952,18.46469 73.88958,18.46468
            </coordinates>
          </LinearRing>
        </outerBoundaryIs>
      </Polygon>

      </MultiGeometry>
    </Placemark>
  </Document>
</kml>
