{
  "type": "FeatureCollection",
  "features": [
    {
      "type": "Feature",
      "properties": {
        "ward_number": 4,
        "ward_name_en": "4 East Kharadi - Wagholi",
        "ward_name_mr": "प्रभाग ०४ : पूर्व खराडी - वाघोली",
        "entity_type": "ward",
        "parent_municipality": "Pune Municipal Corporation",
        "parent_municipality_mr": "पुणे महानगरपालिका",
        "district": "Pune",
        "district_mr": "पुणे",
        "state": "Maharashtra",
        "state_mr": "महाराष्ट्र",
        "country": "India",
        "country_mr": "भारत",
        "area_sq_km": 35.6942,
        "perimeter_km": 37.3852,
        "author": "Nikhil VJ",
        "added_by": "mahanvyakti",
        "source_url": "http://www.pmc.gov.in/sites/default/files/final_ward_maps/4_F_Ward.pdf",
        "created_date": "2025-11-02",
        "data_year": 2022
      },
      "geometry": {
        "type": "Polygon",
        "coordinates": [
          [
            [
              74.01045,
              18.60401
            ],
            [
              74.01084,
              18.6036
            ],
            [
              74.01117,
              18.60344
            ],
            [
              74.01164,
              18.60322
            ],
            [
              74.01212,
              18.6028
            ],
            [
              74.01304,
              18.6023
            ],
            [
              74.01324,
              18.60193
            ],
            [
              74.01341,
              18.60146
            ],
            [
              74.01404,
              18.60108
            ],
            [
              74.01492,
              18.60082
            ],
            [
              74.01574,
              18.59625
            ],
            [
              74.01611,
              18.59584
            ],
            [
              74.01748,
              18.59537
            ],
            [
              74.01816,
              18.5951
            ],
            [
              74.01838,
              18.59469
            ],
            [
              74.01661,
              18.59442
            ],
            [
              74.0167,
              18.59373
            ],
            [
              74.01713,
              18.59253
            ],
            [
              74.0167,
              18.59168
            ],
            [
              74.01579,
              18.59091
            ],
            [
              74.01108,
              18.58368
            ],
            [
              74.00956,
              18.58127
            ],
            [
              74.0078,
              18.5787
            ],
            [
              74.00703,
              18.57806
            ],
            [
              74.005,
              18.57644
            ],
            [
              74.00348,
              18.57144
            ],
            [
              74.00074,
              18.56381
            ],
            [
              73.99908,
              18.56399
            ],
            [
              73.99651,
              18.56449
            ],
            [
              73.99606,
              18.56446
            ],
            [
              73.99594,
              18.56403
            ],
            [
              73.99484,
              18.56411
            ],
            [
              73.99349,
              18.56413
            ],
            [
              73.99196,
              18.56493
            ],
            [
              73.99112,
              18.56573
            ],
            [
              73.98984,
              18.56718
            ],
            [
              73.98947,
              18.5675
            ],
            [
              73.9888,
              18.56769
            ],
            [
              73.98529,
              18.56859
            ],
            [
              73.98524,
              18.56914
            ],
            [
              73.98243,
              18.56935
            ],
            [
              73.98222,
              18.56842
            ],
            [
              73.98099,
              18.5684
            ],
            [
              73.98068,
              18.56782
            ],
            [
              73.9802,
              18.56671
            ],
            [
              73.97967,
              18.56595
            ],
            [
              73.979,
              18.56415
            ],
            [
              73.97853,
              18.56267
            ],
            [
              73.97769,
              18.56136
            ],
            [
              73.97726,
              18.56097
            ],
            [
              73.97615,
              18.56024
            ],
            [
              73.97591,
              18.55966
            ],
            [
              73.97524,
              18.55844
            ],
            [
              73.9753,
              18.55667
            ],
            [
              73.97517,
              18.55323
            ],
            [
              73.97543,
              18.55303
            ],
            [
              73.97507,
              18.5526
            ],
            [
              73.975,
              18.55073
            ],
            [
              73.97437,
              18.55064
            ],
            [
              73.97404,
              18.55034
            ],
            [
              73.97308,
              18.54811
            ],
            [
              73.97213,
              18.5461
            ],
            [
              73.97098,
              18.54418
            ],
            [
              73.97045,
              18.54315
            ],
            [
              73.97048,
              18.54296
            ],
            [
              73.97157,
              18.54225
            ],
            [
              73.97252,
              18.54114
            ],
            [
              73.97231,
              18.54102
            ],
            [
              73.96932,
              18.54303
            ],
            [
              73.96697,
              18.54331
            ],
            [
              73.96586,
              18.54361
            ],
            [
              73.9642,
              18.5442
            ],
            [
              73.96264,
              18.54501
            ],
            [
              73.96104,
              18.54589
            ],
            [
              73.96085,
              18.54628
            ],
            [
              73.95972,
              18.5467
            ],
            [
              73.95838,
              18.54688
            ],
            [
              73.95681,
              18.54677
            ],
            [
              73.95546,
              18.54631
            ],
            [
              73.95437,
              18.54593
            ],
            [
              73.95383,
              18.54585
            ],
            [
              73.95349,
              18.54579
            ],
            [
              73.95119,
              18.54578
            ],
            [
              73.94956,
              18.54566
            ],
            [
              73.94985,
              18.54669
            ],
            [
              73.9497,
              18.54706
            ],
            [
              73.94935,
              18.54741
            ],
            [
              73.94903,
              18.54773
            ],
            [
              73.94888,
              18.54837
            ],
            [
              73.9484,
              18.54841
            ],
            [
              73.94796,
              18.54853
            ],
            [
              73.94769,
              18.54859
            ],
            [
              73.94651,
              18.5486
            ],
            [
              73.94545,
              18.54856
            ],
            [
              73.9435,
              18.54904
            ],
            [
              73.94197,
              18.54952
            ],
            [
              73.93708,
              18.55081
            ],
            [
              73.93735,
              18.55169
            ],
            [
              73.93755,
              18.55414
            ],
            [
              73.93833,
              18.55919
            ],
            [
              73.93837,
              18.55949
            ],
            [
              73.93873,
              18.5624
            ],
            [
              73.93822,
              18.56234
            ],
            [
              73.93668,
              18.56293
            ],
            [
              73.93543,
              18.56343
            ],
            [
              73.93473,
              18.56348
            ],
            [
              73.93457,
              18.56346
            ],
            [
              73.93445,
              18.5636
            ],
            [
              73.93429,
              18.56575
            ],
            [
              73.93422,
              18.56677
            ],
            [
              73.93419,
              18.56775
            ],
            [
              73.9343,
              18.56856
            ],
            [
              73.9342,
              18.56866
            ],
            [
              73.93318,
              18.56843
            ],
            [
              73.93242,
              18.56831
            ],
            [
              73.93132,
              18.56825
            ],
            [
              73.93125,
              18.5684
            ],
            [
              73.93083,
              18.5684
            ],
            [
              73.93076,
              18.56822
            ],
            [
              73.93028,
              18.56814
            ],
            [
              73.93025,
              18.56843
            ],
            [
              73.92745,
              18.56847
            ],
            [
              73.92732,
              18.56988
            ],
            [
              73.92745,
              18.57035
            ],
            [
              73.92811,
              18.57168
            ],
            [
              73.92868,
              18.57135
            ],
            [
              73.93021,
              18.57274
            ],
            [
              73.93114,
              18.57187
            ],
            [
              73.93139,
              18.57211
            ],
            [
              73.93045,
              18.57296
            ],
            [
              73.93083,
              18.57329
            ],
            [
              73.93089,
              18.57413
            ],
            [
              73.93136,
              18.57498
            ],
            [
              73.93226,
              18.57484
            ],
            [
              73.93364,
              18.57341
            ],
            [
              73.9337,
              18.57307
            ],
            [
              73.93382,
              18.57277
            ],
            [
              73.93411,
              18.57255
            ],
            [
              73.93448,
              18.57274
            ],
            [
              73.93467,
              18.57295
            ],
            [
              73.93602,
              18.57347
            ],
            [
              73.93455,
              18.57546
            ],
            [
              73.93451,
              18.57595
            ],
            [
              73.93651,
              18.57597
            ],
            [
              73.93746,
              18.5759
            ],
            [
              73.93779,
              18.57379
            ],
            [
              73.94074,
              18.57409
            ],
            [
              73.94341,
              18.57445
            ],
            [
              73.94341,
              18.57594
            ],
            [
              73.94127,
              18.57649
            ],
            [
              73.94133,
              18.57688
            ],
            [
              73.94276,
              18.57672
            ],
            [
              73.94678,
              18.57662
            ],
            [
              73.94679,
              18.57398
            ],
            [
              73.94359,
              18.57398
            ],
            [
              73.94602,
              18.57063
            ],
            [
              73.94658,
              18.57006
            ],
            [
              73.94732,
              18.56892
            ],
            [
              73.94813,
              18.56774
            ],
            [
              73.94715,
              18.56736
            ],
            [
              73.94525,
              18.5667
            ],
            [
              73.94459,
              18.56632
            ],
            [
              73.94358,
              18.56515
            ],
            [
              73.94353,
              18.56496
            ],
            [
              73.94383,
              18.56488
            ],
            [
              73.9452,
              18.56562
            ],
            [
              73.94632,
              18.56614
            ],
            [
              73.94688,
              18.5664
            ],
            [
              73.94747,
              18.56691
            ],
            [
              73.94844,
              18.56755
            ],
            [
              73.95041,
              18.5685
            ],
            [
              73.95143,
              18.56902
            ],
            [
              73.95414,
              18.57016
            ],
            [
              73.95535,
              18.57355
            ],
            [
              73.95569,
              18.57425
            ],
            [
              73.95569,
              18.57502
            ],
            [
              73.95611,
              18.57605
            ],
            [
              73.9562,
              18.57698
            ],
            [
              73.95613,
              18.57775
            ],
            [
              73.95671,
              18.58319
            ],
            [
              73.95673,
              18.58596
            ],
            [
              73.95669,
              18.58921
            ],
            [
              73.95667,
              18.58982
            ],
            [
              73.95682,
              18.58996
            ],
            [
              73.9574,
              18.58993
            ],
            [
              73.95748,
              18.59018
            ],
            [
              73.95784,
              18.59238
            ],
            [
              73.95811,
              18.59246
            ],
            [
              73.95826,
              18.59334
            ],
            [
              73.95857,
              18.59418
            ],
            [
              73.95902,
              18.5965
            ],
            [
              73.95906,
              18.59734
            ],
            [
              73.95901,
              18.59779
            ],
            [
              73.95983,
              18.59793
            ],
            [
              73.96112,
              18.59819
            ],
            [
              73.96129,
              18.59824
            ],
            [
              73.96146,
              18.60007
            ],
            [
              73.96149,
              18.60099
            ],
            [
              73.9616,
              18.60125
            ],
            [
              73.96177,
              18.60429
            ],
            [
              73.96175,
              18.60569
            ],
            [
              73.96163,
              18.6063
            ],
            [
              73.96182,
              18.60668
            ],
            [
              73.96283,
              18.60682
            ],
            [
              73.96409,
              18.60717
            ],
            [
              73.96408,
              18.60703
            ],
            [
              73.96473,
              18.60724
            ],
            [
              73.96534,
              18.6073
            ],
            [
              73.96583,
              18.60732
            ],
            [
              73.96615,
              18.60684
            ],
            [
              73.96721,
              18.60528
            ],
            [
              73.96792,
              18.60427
            ],
            [
              73.96825,
              18.60396
            ],
            [
              73.97185,
              18.6034
            ],
            [
              73.9727,
              18.60342
            ],
            [
              73.97406,
              18.60335
            ],
            [
              73.97547,
              18.60323
            ],
            [
              73.97636,
              18.60295
            ],
            [
              73.97853,
              18.60305
            ],
            [
              73.98086,
              18.6031
            ],
            [
              73.98144,
              18.60319
            ],
            [
              73.98255,
              18.60389
            ],
            [
              73.98318,
              18.6038
            ],
            [
              73.98428,
              18.6042
            ],
            [
              73.98612,
              18.60569
            ],
            [
              73.98807,
              18.60612
            ],
            [
              73.98933,
              18.60628
            ],
            [
              73.99268,
              18.60705
            ],
            [
              73.99491,
              18.60796
            ],
            [
              73.99646,
              18.60868
            ],
            [
              73.9984,
              18.6099
            ],
            [
              73.99993,
              18.61112
            ],
            [
              74.0007,
              18.61145
            ],
            [
              74.00173,
              18.61246
            ],
            [
              74.00263,
              18.61327
            ],
            [
              74.00383,
              18.61376
            ],
            [
              74.00441,
              18.61399
            ],
            [
              74.00496,
              18.61334
            ],
            [
              74.00539,
              18.61271
            ],
            [
              74.00551,
              18.61173
            ],
            [
              74.00653,
              18.61023
            ],
            [
              74.00783,
              18.60858
            ],
            [
              74.00862,
              18.60808
            ],
            [
              74.00891,
              18.6072
            ],
            [
              74.00909,
              18.60617
            ],
            [
              74.00953,
              18.6056
            ],
            [
              74.01013,
              18.60453
            ],
            [
              74.01045,
              18.60401
            ]
          ]
        ]
      }
    }
  ]
}