<?xml version="1.0" encoding="UTF-8"?>
<kml xmlns="http://www.opengis.net/kml/2.2">
  <Document>
    <name>16 Fergusson College - Erandwane</name>
    <description>Part of OS-Bhugol open geographic data project</description>
    <Placemark>
      <name>16 Fergusson College - Erandwane</name>
      <ExtendedData>
        <Data name="ward_number"><value>16</value></Data>
        <Data name="ward_name_en"><value>16 Fergusson College - Erandwane</value></Data>
        <Data name="ward_name_mr"><value>प्रभाग १६ : फर्ग्युसन कॉलेज - एरंडवणे</value></Data>
        <Data name="entity_type"><value>ward</value></Data>
        <Data name="parent_municipality"><value>Pune Municipal Corporation</value></Data>
        <Data name="parent_municipality_mr"><value>पुणे महानगरपालिका</value></Data>
        <Data name="district"><value>Pune</value></Data>
        <Data name="district_mr"><value>पुणे</value></Data>
        <Data name="state"><value>Maharashtra</value></Data>
        <Data name="state_mr"><value>महाराष्ट्र</value></Data>
        <Data name="country"><value>India</value></Data>
        <Data name="country_mr"><value>भारत</value></Data>
        <Data name="area_sq_km"><value>5.8265</value></Data>
        <Data name="perimeter_km"><value>13.2895</value></Data>
        <Data name="author"><value>Nikhil VJ</value></Data>
        <Data name="source_url"><value>http://www.pmc.gov.in/sites/default/files/final_ward_maps/16_F_Ward.pdf</value></Data>
        <Data name="created_date"><value>2025-11-02</value></Data>
        <Data name="data_year"><value>2022</value></Data>
      </ExtendedData>
      <MultiGeometry>
      <Polygon>
        <outerBoundaryIs>
          <LinearRing>
            <tessellate>1</tessellate>
            <coordinates>
              73.83909,18.52707 73.84034,18.52702 73.84195,18.52708 73.84214,18.52709 73.8417,18.52626 73.84163,18.52602 73.84134,18.52476 73.84268,18.52456 73.84384,18.52433 73.84461,18.52419 73.84559,18.52391 73.84691,18.5234 73.84802,18.52293 73.84808,18.52282 73.84914,18.5225 73.84925,18.52196 73.84945,18.52102 73.84927,18.52092 73.84885,18.52068 73.84823,18.52018 73.8482,18.52015 73.84788,18.51984 73.84737,18.51934 73.84645,18.51848 73.84592,18.51785 73.84559,18.51723 73.84501,18.51612 73.84388,18.51473 73.84323,18.514 73.84228,18.51303 73.84118,18.512 73.84079,18.51136 73.8401,18.51025 73.83942,18.50962 73.83749,18.50781 73.83718,18.50742 73.83673,18.50649 73.83654,18.50585 73.83667,18.50384 73.8368,18.50282 73.83685,18.5024 73.83684,18.50118 73.83627,18.49942 73.83601,18.49878 73.83533,18.49805 73.83441,18.49717 73.8336,18.49661 73.83321,18.49623 73.83306,18.49606 73.83274,18.49572 73.83172,18.49425 73.83063,18.49268 73.82891,18.49019 73.82787,18.48849 73.82667,18.48906 73.82715,18.48978 73.82682,18.49 73.82599,18.48998 73.82523,18.49003 73.82467,18.49017 73.82501,18.49163 73.82579,18.49473 73.82637,18.49709 73.82654,18.49815 73.82612,18.49819 73.82609,18.49859 73.82587,18.49854 73.82542,18.49832 73.825,18.49827 73.82438,18.49817 73.82393,18.49812 73.82355,18.49792 73.82319,18.49851 73.8228,18.49905 73.82255,18.49958 73.82235,18.5002 73.82195,18.50181 73.82164,18.50297 73.8214,18.50392 73.82125,18.50425 73.82249,18.50483 73.82315,18.5051 73.82394,18.50534 73.82508,18.50563 73.82549,18.50585 73.82666,18.50632 73.82622,18.50777 73.8259,18.50889 73.8255,18.50972 73.82537,18.50985 73.82496,18.51029 73.82469,18.51067 73.82441,18.51129 73.8241,18.51191 73.82424,18.51198 73.82416,18.51213 73.82411,18.51241 73.82408,18.5134 73.82426,18.51341 73.8244,18.51467 73.82465,18.51471 73.82476,18.51559 73.82491,18.51604 73.82624,18.51705 73.82701,18.5192 73.8275,18.51948 73.82878,18.52197 73.82939,18.5228 73.82944,18.52275 73.82925,18.52211 73.83041,18.522 73.83048,18.52341 73.83245,18.52369 73.83088,18.52493 73.83155,18.52539 73.83322,18.52655 73.83417,18.52648 73.83478,18.52636 73.83479,18.52612 73.83514,18.52581 73.83545,18.52564 73.83555,18.5256 73.83582,18.52518 73.83602,18.52487 73.83606,18.52482 73.83619,18.52491 73.83685,18.52591 73.83776,18.52721 73.83811,18.52715 73.83909,18.52707
            </coordinates>
          </LinearRing>
        </outerBoundaryIs>
      </Polygon>

      </MultiGeometry>
    </Placemark>
  </Document>
</kml>
