<?xml version="1.0" encoding="UTF-8"?>
<kml xmlns="http://www.opengis.net/kml/2.2">
  <Document>
    <name>46 Mohammad wadi - Uruli Devachi</name>
    <description>Part of OS-Bhugol open geographic data project</description>
    <Placemark>
      <name>46 Mohammad wadi - Uruli Devachi</name>
      <ExtendedData>
        <Data name="ward_number"><value>46</value></Data>
        <Data name="ward_name_en"><value>46 Mohammad wadi - Uruli Devachi</value></Data>
        <Data name="ward_name_mr"><value>प्रभाग ४६ : महंमदवाडी - उरुळी देवाची</value></Data>
        <Data name="entity_type"><value>ward</value></Data>
        <Data name="parent_municipality"><value>Pune Municipal Corporation</value></Data>
        <Data name="parent_municipality_mr"><value>पुणे महानगरपालिका</value></Data>
        <Data name="district"><value>Pune</value></Data>
        <Data name="district_mr"><value>पुणे</value></Data>
        <Data name="state"><value>Maharashtra</value></Data>
        <Data name="state_mr"><value>महाराष्ट्र</value></Data>
        <Data name="country"><value>India</value></Data>
        <Data name="country_mr"><value>भारत</value></Data>
        <Data name="area_sq_km"><value>44.732</value></Data>
        <Data name="perimeter_km"><value>41.8945</value></Data>
        <Data name="author"><value>Nikhil VJ</value></Data>
        <Data name="source_url"><value>http://www.pmc.gov.in/sites/default/files/final_ward_maps/46_F_Ward.pdf</value></Data>
        <Data name="created_date"><value>2025-11-02</value></Data>
        <Data name="data_year"><value>2022</value></Data>
      </ExtendedData>
      <MultiGeometry>
      <Polygon>
        <outerBoundaryIs>
          <LinearRing>
            <tessellate>1</tessellate>
            <coordinates>
              73.93137,18.48078 73.93127,18.48032 73.93132,18.47904 73.9314,18.47787 73.93142,18.47755 73.93218,18.47753 73.93294,18.47751 73.93376,18.47751 73.93415,18.4775 73.93447,18.47754 73.9348,18.4776 73.93515,18.47767 73.93547,18.47774 73.93563,18.47772 73.93564,18.47766 73.9356,18.47711 73.93554,18.47699 73.93533,18.47687 73.93524,18.47673 73.93521,18.47666 73.93644,18.47668 73.93674,18.47667 73.93691,18.47664 73.93711,18.47669 73.93734,18.47671 73.93788,18.4767 73.93909,18.47676 73.93996,18.47684 73.9407,18.4769 73.94122,18.47695 73.94182,18.47702 73.94222,18.47702 73.94247,18.47697 73.94267,18.47693 73.94295,18.4769 73.94346,18.47689 73.94318,18.47606 73.94232,18.47343 73.94375,18.47294 73.94757,18.46947 73.94737,18.46917 73.94794,18.46932 73.94919,18.46902 73.94961,18.4695 73.95016,18.46967 73.95103,18.46962 73.95177,18.46931 73.95196,18.46893 73.95202,18.46846 73.95201,18.46821 73.9519,18.46775 73.95322,18.46745 73.95616,18.46672 73.95917,18.46639 73.96172,18.46532 73.96344,18.46548 73.96403,18.46507 73.9649,18.46579 73.96607,18.46661 73.9672,18.46718 73.96812,18.4675 73.96876,18.4677 73.9701,18.46796 73.97032,18.46861 73.97048,18.46886 73.97071,18.46893 73.97096,18.46888 73.97225,18.46846 73.97253,18.46844 73.97292,18.46856 73.97311,18.46874 73.97329,18.46887 73.97361,18.4689 73.97397,18.46881 73.97413,18.46888 73.97417,18.46913 73.97412,18.46928 73.97397,18.46939 73.97396,18.46957 73.97398,18.46972 73.97413,18.46994 73.9743,18.47042 73.97429,18.47218 73.97437,18.47246 73.97455,18.47273 73.97545,18.47333 73.97613,18.47436 73.97637,18.47449 73.97711,18.47484 73.97741,18.47593 73.97813,18.47671 73.9782,18.47683 73.97844,18.47678 73.97925,18.4766 73.9797,18.4765 73.9802,18.47617 73.98032,18.47592 73.98058,18.47498 73.98143,18.47355 73.98213,18.47241 73.98248,18.472 73.98283,18.47162 73.98443,18.47082 73.99015,18.46826 73.99083,18.46814 73.99157,18.46826 73.99239,18.46849 73.99305,18.4687 73.99352,18.4688 73.99418,18.46876 73.99474,18.46858 73.99548,18.46832 73.99656,18.46821 73.99978,18.46664 73.99965,18.46645 73.99914,18.46504 73.99863,18.46371 73.99799,18.46149 73.997,18.45776 73.99567,18.45791 73.99321,18.45804 73.99179,18.45786 73.99019,18.4577 73.98849,18.45783 73.98353,18.45791 73.97607,18.45802 73.97456,18.4581 73.97061,18.45819 73.96951,18.45696 73.96952,18.45473 73.9703,18.45294 73.97048,18.45225 73.97071,18.45085 73.97071,18.44942 73.96977,18.44777 73.96922,18.44707 73.96887,18.44704 73.96853,18.44689 73.96841,18.44662 73.9682,18.44428 73.96776,18.44271 73.96663,18.44264 73.96571,18.44249 73.96481,18.44224 73.96448,18.44192 73.96419,18.44122 73.96419,18.44044 73.96421,18.43961 73.96425,18.43861 73.96395,18.4383 73.96404,18.43779 73.96376,18.43757 73.96378,18.43727 73.96402,18.43706 73.96308,18.43625 73.96218,18.43558 73.96197,18.43511 73.96115,18.43446 73.95917,18.43334 73.95787,18.43184 73.95836,18.42586 73.95773,18.42329 73.9557,18.42233 73.95431,18.41961 73.95196,18.41332 73.95004,18.41369 73.94869,18.41386 73.94845,18.41414 73.94813,18.4142 73.94734,18.41377 73.94436,18.41243 73.9435,18.41227 73.94186,18.4126 73.9409,18.41238 73.93954,18.4118 73.93847,18.41122 73.93795,18.4114 73.93605,18.41184 73.93482,18.4118 73.9349,18.41295 73.93421,18.41286 73.93373,18.41316 73.93285,18.41367 73.93166,18.41375 73.93073,18.41362 73.92998,18.41325 73.928,18.41278 73.92647,18.41267 73.92614,18.41294 73.92485,18.41249 73.92371,18.4122 73.92332,18.41179 73.92262,18.41086 73.92205,18.41055 73.92121,18.40985 73.92039,18.40861 73.91965,18.40797 73.91885,18.40728 73.9188,18.40695 73.9171,18.40714 73.91516,18.40707 73.91339,18.40695 73.91105,18.40749 73.90992,18.40879 73.90422,18.40885 73.90365,18.4093 73.90288,18.40955 73.90314,18.41055 73.90354,18.41124 73.90376,18.41122 73.90412,18.41278 73.90443,18.41318 73.90436,18.41329 73.90373,18.41322 73.90359,18.41378 73.90404,18.41441 73.90438,18.41424 73.90606,18.41706 73.90645,18.41747 73.90744,18.41849 73.90931,18.42001 73.90949,18.42213 73.90921,18.42279 73.90882,18.42339 73.90892,18.42379 73.90863,18.42392 73.90866,18.42652 73.90878,18.42702 73.90912,18.42758 73.9094,18.42816 73.90966,18.42886 73.90964,18.42932 73.90954,18.43008 73.90869,18.43148 73.90839,18.43221 73.90936,18.43582 73.90946,18.43649 73.90945,18.43737 73.90954,18.43808 73.90982,18.43903 73.9101,18.44004 73.91012,18.44074 73.91025,18.44133 73.91047,18.44231 73.91047,18.44314 73.91076,18.44453 73.91109,18.44531 73.91102,18.4461 73.91112,18.4474 73.91099,18.44793 73.91091,18.44927 73.91096,18.45139 73.9111,18.45184 73.91125,18.45233 73.91159,18.45307 73.91195,18.45374 73.91201,18.45427 73.91184,18.45464 73.91135,18.4553 73.91121,18.45581 73.91124,18.45608 73.91136,18.45652 73.90859,18.4577 73.90834,18.45799 73.90774,18.45802 73.90682,18.45827 73.90565,18.45846 73.90464,18.45882 73.90453,18.45913 73.90369,18.45966 73.90295,18.45991 73.90239,18.46009 73.90203,18.46045 73.90158,18.46058 73.90063,18.46038 73.89997,18.46015 73.89925,18.4601 73.89865,18.45991 73.89799,18.45972 73.8975,18.45942 73.89703,18.45919 73.8958,18.45881 73.89463,18.45815 73.8937,18.45773 73.89259,18.45751 73.89165,18.45745 73.89097,18.45726 73.891,18.45796 73.89098,18.4599 73.89083,18.46051 73.89074,18.46102 73.89063,18.46133 73.89032,18.46235 73.88999,18.46296 73.88968,18.46335 73.8897,18.46359 73.8899,18.46424 73.8899,18.46463 73.8902,18.4647 73.89166,18.46462 73.89235,18.46467 73.89288,18.46476 73.89358,18.46476 73.8943,18.4647 73.89549,18.46474 73.89805,18.46494 73.89871,18.46503 73.89975,18.46499 73.90228,18.46599 73.90252,18.46555 73.90284,18.46512 73.90348,18.46507 73.90458,18.46498 73.90449,18.46422 73.90432,18.46344 73.90721,18.46335 73.90734,18.46405 73.90753,18.46466 73.90774,18.46519 73.90801,18.46551 73.90823,18.46562 73.90851,18.46568 73.9087,18.46564 73.9089,18.46561 73.90901,18.46574 73.9091,18.46584 73.90927,18.46601 73.90944,18.46608 73.90993,18.46615 73.91019,18.46626 73.9107,18.46643 73.91127,18.46647 73.91153,18.46654 73.91173,18.46669 73.91198,18.46678 73.91226,18.46676 73.91288,18.46661 73.91314,18.46654 73.9131,18.46705 73.91319,18.46738 73.9134,18.46768 73.91349,18.4679 73.91367,18.46821 73.91396,18.46841 73.91426,18.46846 73.91461,18.4686 73.91475,18.46873 73.91483,18.46897 73.91491,18.46968 73.91497,18.46991 73.91515,18.47003 73.91554,18.47016 73.91585,18.4703 73.91616,18.47052 73.91631,18.47088 73.91671,18.4716 73.91696,18.47187 73.91592,18.47244 73.91559,18.47259 73.91455,18.47298 73.91443,18.47308 73.91468,18.4734 73.91516,18.47388 73.91544,18.47402 73.91583,18.47418 73.91607,18.47437 73.91556,18.47461 73.91515,18.47483 73.91505,18.47491 73.91533,18.47495 73.91541,18.47497 73.91574,18.47524 73.91629,18.47524 73.91658,18.47517 73.91747,18.47515 73.91794,18.47507 73.9185,18.47497 73.91919,18.47492 73.91982,18.475 73.92034,18.47514 73.92122,18.47542 73.92221,18.47574 73.92256,18.47572 73.92267,18.47598 73.9227,18.47615 73.92271,18.47654 73.92262,18.477 73.92259,18.47745 73.92267,18.4777 73.92278,18.47791 73.92335,18.47857 73.92377,18.47901 73.92401,18.47899 73.92495,18.47857 73.92561,18.4793 73.92619,18.48002 73.92627,18.4803 73.92626,18.48055 73.92618,18.48104 73.92621,18.48152 73.92626,18.48163 73.92643,18.48201 73.92668,18.48224 73.92671,18.48244 73.92664,18.48272 73.92667,18.48286 73.92696,18.48338 73.927,18.48358 73.92755,18.48351 73.9281,18.48341 73.92862,18.48314 73.92896,18.48302 73.92962,18.48296 73.92959,18.48183 73.92948,18.48159 73.92942,18.48083 73.93137,18.48078
            </coordinates>
          </LinearRing>
        </outerBoundaryIs>
      </Polygon>

      </MultiGeometry>
    </Placemark>
  </Document>
</kml>
