{
  "type": "FeatureCollection",
  "features": [
    {
      "type": "Feature",
      "properties": {
        "ward_number": 9,
        "ward_name_en": "9 Yerwada",
        "ward_name_mr": "प्रभाग ०९ : येरवाडा",
        "entity_type": "ward",
        "parent_municipality": "Pune Municipal Corporation",
        "parent_municipality_mr": "पुणे महानगरपालिका",
        "district": "Pune",
        "district_mr": "पुणे",
        "state": "Maharashtra",
        "state_mr": "महाराष्ट्र",
        "country": "India",
        "country_mr": "भारत",
        "area_sq_km": 1.155,
        "perimeter_km": 4.4901,
        "author": "Nikhil VJ",
        "added_by": "mahanvyakti",
        "source_url": "http://www.pmc.gov.in/sites/default/files/final_ward_maps/9_F_Ward.pdf",
        "created_date": "2025-11-02",
        "data_year": 2022
      },
      "geometry": {
        "type": "Polygon",
        "coordinates": [
          [
            [
              73.88683,
              18.5517
            ],
            [
              73.88695,
              18.55159
            ],
            [
              73.88716,
              18.55165
            ],
            [
              73.88729,
              18.55145
            ],
            [
              73.88751,
              18.55157
            ],
            [
              73.88777,
              18.55156
            ],
            [
              73.8879,
              18.55078
            ],
            [
              73.88799,
              18.55079
            ],
            [
              73.88805,
              18.55012
            ],
            [
              73.88794,
              18.55004
            ],
            [
              73.88797,
              18.54957
            ],
            [
              73.88851,
              18.54954
            ],
            [
              73.8887,
              18.54973
            ],
            [
              73.88875,
              18.54978
            ],
            [
              73.88929,
              18.54974
            ],
            [
              73.88908,
              18.54834
            ],
            [
              73.88889,
              18.54648
            ],
            [
              73.88885,
              18.54546
            ],
            [
              73.88891,
              18.54416
            ],
            [
              73.88897,
              18.54376
            ],
            [
              73.88747,
              18.54369
            ],
            [
              73.887,
              18.54363
            ],
            [
              73.88584,
              18.54349
            ],
            [
              73.88521,
              18.54342
            ],
            [
              73.88509,
              18.54341
            ],
            [
              73.88509,
              18.54341
            ],
            [
              73.88468,
              18.54337
            ],
            [
              73.88417,
              18.54333
            ],
            [
              73.88402,
              18.54331
            ],
            [
              73.88362,
              18.54328
            ],
            [
              73.88216,
              18.54314
            ],
            [
              73.88201,
              18.54312
            ],
            [
              73.88036,
              18.54296
            ],
            [
              73.88013,
              18.54293
            ],
            [
              73.88009,
              18.54293
            ],
            [
              73.88009,
              18.54293
            ],
            [
              73.88005,
              18.54397
            ],
            [
              73.87944,
              18.54375
            ],
            [
              73.87921,
              18.54371
            ],
            [
              73.87895,
              18.5437
            ],
            [
              73.87877,
              18.54372
            ],
            [
              73.87861,
              18.54376
            ],
            [
              73.87835,
              18.54391
            ],
            [
              73.87773,
              18.54433
            ],
            [
              73.87698,
              18.54484
            ],
            [
              73.87713,
              18.54506
            ],
            [
              73.8772,
              18.54525
            ],
            [
              73.87744,
              18.54608
            ],
            [
              73.87811,
              18.54829
            ],
            [
              73.87823,
              18.54868
            ],
            [
              73.8785,
              18.54948
            ],
            [
              73.8787,
              18.55012
            ],
            [
              73.87877,
              18.5503
            ],
            [
              73.87898,
              18.55075
            ],
            [
              73.87913,
              18.55103
            ],
            [
              73.87929,
              18.55153
            ],
            [
              73.87949,
              18.55212
            ],
            [
              73.87965,
              18.55268
            ],
            [
              73.8797,
              18.55288
            ],
            [
              73.88131,
              18.55315
            ],
            [
              73.8825,
              18.55336
            ],
            [
              73.88326,
              18.55342
            ],
            [
              73.88412,
              18.55343
            ],
            [
              73.88514,
              18.55329
            ],
            [
              73.88626,
              18.55315
            ],
            [
              73.88664,
              18.55307
            ],
            [
              73.88671,
              18.55195
            ],
            [
              73.88641,
              18.55185
            ],
            [
              73.88665,
              18.55173
            ],
            [
              73.88683,
              18.5517
            ]
          ]
        ]
      }
    }
  ]
}