<?xml version="1.0" encoding="UTF-8"?>
<kml xmlns="http://www.opengis.net/kml/2.2">
  <Document>
    <name>Ward 31</name>
    <description>Part of OS-Bhugol open geographic data project</description>
    <Placemark>
      <name>Ward 31</name>
      <ExtendedData>
        <Data name="ward_number"><value>31</value></Data>
        <Data name="ward_name_en"><value>Ward 31</value></Data>
        <Data name="ward_name_mr"><value>प्रभाग ३१</value></Data>
        <Data name="entity_type"><value>ward</value></Data>
        <Data name="parent_municipality"><value>Pune Municipal Corporation</value></Data>
        <Data name="parent_municipality_mr"><value>पुणे महानगरपालिका</value></Data>
        <Data name="district"><value>Pune</value></Data>
        <Data name="district_mr"><value>पुणे</value></Data>
        <Data name="state"><value>Maharashtra</value></Data>
        <Data name="state_mr"><value>महाराष्ट्र</value></Data>
        <Data name="country"><value>India</value></Data>
        <Data name="country_mr"><value>भारत</value></Data>
        <Data name="area_sq_km"><value>3.3124</value></Data>
        <Data name="perimeter_km"><value>9.977</value></Data>
        <Data name="author"><value>Parisar</value></Data>
        <Data name="source_url"><value>https://data.opencity.in/dataset/pune-wards-info/resource/2badcc86-489c-4b7e-b7dd-a273ef01b798</value></Data>
        <Data name="created_date"><value>2025-11-02</value></Data>
        <Data name="data_year"><value>2025</value></Data>
      </ExtendedData>
      <MultiGeometry>
      <Polygon>
        <outerBoundaryIs>
          <LinearRing>
            <tessellate>1</tessellate>
            <coordinates>
              73.8150013837831,18.4931977275918 73.8132112118456,18.4925556754158 73.8087428411949,18.492202245103 73.8077318102784,18.4916984431967 73.8074494269084,18.4915577303846 73.8057873168741,18.4922077248791 73.8053538484123,18.4922242703428 73.8051553136061,18.492134928602 73.804966705265,18.4920819863779 73.8047317722048,18.4922209616498 73.8045067649138,18.4925088365036 73.8042916867589,18.4927239162348 73.8041294167085,18.4928337719749 73.8026064035334,18.4932919639808 73.8018698225225,18.4935135558429 73.8016795582129,18.493546567585 73.8019991926511,18.4959438179546 73.8020685584067,18.4975981215628 73.8020685584644,18.4997469753901 73.8023146588243,18.5023388135705 73.8019010481781,18.5024134650194 73.8019328420493,18.5028235582497 73.8024240090135,18.5054664913081 73.8027471449434,18.5069609975525 73.8013415020515,18.5073729953345 73.798942213945,18.5076153491887 73.7987160182089,18.508641306935 73.7986826956981,18.512006972323 73.8038200597848,18.5129662862585 73.8058088630794,18.5129713346019 73.8058579715946,18.5101549744936 73.806109589962,18.5086789208523 73.8061589991726,18.5073551111514 73.807862627778,18.5076598495084 73.8091297367691,18.508303952401 73.8103964310654,18.5084900781734 73.8111254265958,18.5091105007996 73.8115287019203,18.5093793507529 73.812025038329,18.5095344560802 73.8125058657035,18.5095964978677 73.8142999189841,18.5096637107096 73.815486800082,18.5099904012687 73.817857004959,18.5104805995798 73.8189324038328,18.5105633228908 73.8202811677271,18.5105272140455 73.8206176441662,18.5104245969641 73.8209198114426,18.5101314668208 73.8212465774365,18.5098144737069 73.8227066367197,18.5081695282179 73.8239322372626,18.506775444044 73.8236957234932,18.5066972489342 73.8224931469909,18.5067209113218 73.8220322333494,18.5072890192765 73.8216362077188,18.5071204506209 73.8217013404777,18.505553264706 73.8223146327479,18.5049194914595 73.8211415621042,18.5043490972727 73.8204953214354,18.5038753457994 73.8195483079951,18.5033184360903 73.8186210459488,18.5029632323677 73.8173135675333,18.5025922079286 73.8163359531383,18.5023912282873 73.8156286563355,18.5022393284287 73.8149340180697,18.5018616613514 73.8145635988361,18.5016602672422 73.8137095490461,18.5000539555876 73.8136610784095,18.4995692505311 73.8137580199884,18.4979858829359 73.8137733398248,18.4975867531501 73.8137059532591,18.4970860331435 73.8131964934731,18.4947795998554 73.8133240176432,18.4944173407529 73.8137127085944,18.4940204138635 73.8146354973051,18.4934245548242 73.8150013837831,18.4931977275918
            </coordinates>
          </LinearRing>
        </outerBoundaryIs>
      </Polygon>

      </MultiGeometry>
    </Placemark>
  </Document>
</kml>
