<?xml version="1.0" encoding="UTF-8"?>
<kml xmlns="http://www.opengis.net/kml/2.2">
  <Document>
    <name>10 Shivajinagar Gaothan - Sangamwadi</name>
    <description>Part of OS-Bhugol open geographic data project</description>
    <Placemark>
      <name>10 Shivajinagar Gaothan - Sangamwadi</name>
      <ExtendedData>
        <Data name="ward_number"><value>10</value></Data>
        <Data name="ward_name_en"><value>10 Shivajinagar Gaothan - Sangamwadi</value></Data>
        <Data name="ward_name_mr"><value>प्रभाग १० : शिवाजीनगर गावठाण - संगमवाडी</value></Data>
        <Data name="entity_type"><value>ward</value></Data>
        <Data name="parent_municipality"><value>Pune Municipal Corporation</value></Data>
        <Data name="parent_municipality_mr"><value>पुणे महानगरपालिका</value></Data>
        <Data name="district"><value>Pune</value></Data>
        <Data name="district_mr"><value>पुणे</value></Data>
        <Data name="state"><value>Maharashtra</value></Data>
        <Data name="state_mr"><value>महाराष्ट्र</value></Data>
        <Data name="country"><value>India</value></Data>
        <Data name="country_mr"><value>भारत</value></Data>
        <Data name="area_sq_km"><value>7.4277</value></Data>
        <Data name="perimeter_km"><value>19.2634</value></Data>
        <Data name="author"><value>Nikhil VJ</value></Data>
        <Data name="source_url"><value>http://www.pmc.gov.in/sites/default/files/final_ward_maps/10_F_Ward.pdf</value></Data>
        <Data name="created_date"><value>2025-11-02</value></Data>
        <Data name="data_year"><value>2022</value></Data>
      </ExtendedData>
      <MultiGeometry>
      <Polygon>
        <outerBoundaryIs>
          <LinearRing>
            <tessellate>1</tessellate>
            <coordinates>
              73.87811,18.54829 73.87744,18.54608 73.8772,18.54525 73.87713,18.54506 73.87698,18.54484 73.87773,18.54433 73.87835,18.54391 73.87861,18.54376 73.87877,18.54372 73.87895,18.5437 73.87921,18.54371 73.87944,18.54375 73.88005,18.54397 73.88009,18.54293 73.88009,18.54293 73.87886,18.54281 73.87816,18.54264 73.8772,18.54231 73.87718,18.5423 73.87605,18.54193 73.87407,18.54129 73.87222,18.5407 73.87175,18.54056 73.86997,18.54008 73.86788,18.53927 73.86696,18.5388 73.86555,18.53797 73.86433,18.53703 73.86379,18.53642 73.86275,18.53505 73.86234,18.53428 73.86177,18.53333 73.861,18.53224 73.8605,18.53186 73.8605,18.53069 73.86056,18.53007 73.86067,18.52931 73.86065,18.5287 73.86064,18.52868 73.86064,18.52865 73.86053,18.52828 73.86034,18.52796 73.85964,18.52706 73.85752,18.52488 73.85579,18.52315 73.85504,18.52256 73.85442,18.52228 73.85338,18.52182 73.85321,18.52177 73.85165,18.52131 73.85105,18.52122 73.84982,18.52111 73.84945,18.52102 73.84925,18.52196 73.84914,18.5225 73.84808,18.52282 73.84802,18.52293 73.84691,18.5234 73.84559,18.52391 73.84461,18.52419 73.84384,18.52433 73.84268,18.52456 73.84134,18.52476 73.84163,18.52602 73.8417,18.52626 73.84214,18.52709 73.84195,18.52708 73.84034,18.52702 73.83909,18.52707 73.83811,18.52715 73.83776,18.52721 73.83767,18.52727 73.83705,18.5276 73.83647,18.52794 73.83614,18.52828 73.83556,18.52936 73.83535,18.52986 73.83482,18.53109 73.83421,18.53295 73.83433,18.53297 73.8346,18.53321 73.83503,18.53377 73.83691,18.53624 73.83383,18.53863 73.83539,18.54018 73.83654,18.54115 73.83728,18.54086 73.83744,18.54022 73.83753,18.5401 73.83794,18.54045 73.83822,18.54071 73.83882,18.54122 73.8388,18.54223 73.83897,18.54247 73.83911,18.54281 73.83931,18.54291 73.83984,18.54286 73.8404,18.5429 73.84062,18.54306 73.84074,18.54338 73.84076,18.54393 73.84057,18.54434 73.84803,18.54447 73.84762,18.5459 73.84973,18.54671 73.85056,18.54814 73.85097,18.54883 73.85098,18.54916 73.85133,18.5493 73.85181,18.5498 73.85248,18.55061 73.85303,18.55161 73.85435,18.55137 73.85452,18.55213 73.85538,18.55138 73.85555,18.55126 73.85678,18.55059 73.85637,18.54996 73.85609,18.54918 73.85581,18.54818 73.85544,18.54732 73.85435,18.54414 73.85395,18.54236 73.85486,18.54238 73.85623,18.54247 73.85756,18.54268 73.85987,18.54316 73.8612,18.54293 73.86358,18.54252 73.86467,18.54234 73.86594,18.54208 73.86467,18.54053 73.86383,18.54094 73.86337,18.54015 73.86306,18.53918 73.86385,18.53909 73.86417,18.5395 73.86482,18.53891 73.86509,18.53925 73.86478,18.53953 73.8649,18.54059 73.86607,18.54211 73.86881,18.54214 73.87356,18.54292 73.87362,18.54643 73.87247,18.54636 73.87191,18.54627 73.86997,18.54737 73.87088,18.54861 73.87102,18.54912 73.87113,18.54931 73.87201,18.55077 73.87276,18.552 73.87294,18.55208 73.87443,18.55218 73.87613,18.55238 73.87754,18.55256 73.87887,18.55274 73.87931,18.55282 73.8797,18.55288 73.87965,18.55268 73.87949,18.55212 73.87929,18.55153 73.87913,18.55103 73.87898,18.55075 73.87877,18.5503 73.8787,18.55012 73.8785,18.54948 73.87823,18.54868 73.87811,18.54829
            </coordinates>
          </LinearRing>
        </outerBoundaryIs>
      </Polygon>

      </MultiGeometry>
    </Placemark>
  </Document>
</kml>
