{
  "type": "FeatureCollection",
  "features": [
    {
      "type": "Feature",
      "properties": {
        "ward_number": 28,
        "ward_name_en": "Ward 28",
        "ward_name_mr": "प्रभाग २८",
        "entity_type": "ward",
        "parent_municipality": "Pune Municipal Corporation",
        "parent_municipality_mr": "पुणे महानगरपालिका",
        "district": "Pune",
        "district_mr": "पुणे",
        "state": "Maharashtra",
        "state_mr": "महाराष्ट्र",
        "country": "India",
        "country_mr": "भारत",
        "area_sq_km": 2.7298,
        "perimeter_km": 10.4931,
        "author": "Parisar",
        "added_by": "mahanvyakti",
        "source_url": "https://data.opencity.in/dataset/pune-wards-info/resource/2badcc86-489c-4b7e-b7dd-a273ef01b798",
        "created_date": "2025-11-02",
        "data_year": 2025
      },
      "geometry": {
        "type": "Polygon",
        "coordinates": [
          [
            [
              73.8455870078342,
              18.501231813997
            ],
            [
              73.8457897823047,
              18.5012280502308
            ],
            [
              73.8470364621086,
              18.5012476795843
            ],
            [
              73.8475561824018,
              18.5011193538792
            ],
            [
              73.8483765803159,
              18.5008845695493
            ],
            [
              73.8488236470908,
              18.5007093892385
            ],
            [
              73.8494828861223,
              18.5003266580854
            ],
            [
              73.8499959411869,
              18.499981710221
            ],
            [
              73.8504527626783,
              18.4995590711486
            ],
            [
              73.850157255453,
              18.4988774842087
            ],
            [
              73.8498659767335,
              18.4983591779338
            ],
            [
              73.8494847433263,
              18.497956527172
            ],
            [
              73.8494206612347,
              18.4973600895966
            ],
            [
              73.849221306718,
              18.4965734858777
            ],
            [
              73.8490272096381,
              18.4961183614732
            ],
            [
              73.8475748288153,
              18.4969349081196
            ],
            [
              73.8471746412968,
              18.4969113009159
            ],
            [
              73.8461492199106,
              18.4956498515595
            ],
            [
              73.8460421313393,
              18.4955762285601
            ],
            [
              73.8452012229582,
              18.4955106374063
            ],
            [
              73.8449185111805,
              18.4951251205279
            ],
            [
              73.8442631320381,
              18.4946196655653
            ],
            [
              73.8439118838264,
              18.4944740257557
            ],
            [
              73.8437319762497,
              18.4944012058511
            ],
            [
              73.843209386504,
              18.4938614822217
            ],
            [
              73.8427981688006,
              18.4937372597669
            ],
            [
              73.8423877541916,
              18.4929191078306
            ],
            [
              73.8415712075453,
              18.4922698872456
            ],
            [
              73.8410357682862,
              18.4914801125173
            ],
            [
              73.840734582635,
              18.4912592435194
            ],
            [
              73.8406743460444,
              18.4904025394458
            ],
            [
              73.8406007230451,
              18.4896127656168
            ],
            [
              73.8402727654759,
              18.4887025177072
            ],
            [
              73.8402727654759,
              18.4877119540435
            ],
            [
              73.8390843572573,
              18.4876032592831
            ],
            [
              73.8381762506336,
              18.4878003016426
            ],
            [
              73.8377907337555,
              18.4875689915158
            ],
            [
              73.8369664241612,
              18.4878859719602
            ],
            [
              73.8363305890856,
              18.4882473942021
            ],
            [
              73.8347175758556,
              18.487912743878
            ],
            [
              73.8340348896984,
              18.4878725855514
            ],
            [
              73.8334242851027,
              18.4876060013161
            ],
            [
              73.8325490442031,
              18.4873237598837
            ],
            [
              73.8313242252123,
              18.4866678456896
            ],
            [
              73.8309240806276,
              18.4862129721053
            ],
            [
              73.8306683044183,
              18.485677693027
            ],
            [
              73.8306948780058,
              18.4848672522041
            ],
            [
              73.8308482805784,
              18.4844325765239
            ],
            [
              73.8311768613536,
              18.4841771913071
            ],
            [
              73.8315299819347,
              18.4841283208779
            ],
            [
              73.8317084194795,
              18.4841139522112
            ],
            [
              73.8337564768385,
              18.4833376276359
            ],
            [
              73.8352885116664,
              18.4833470559339
            ],
            [
              73.8359865682299,
              18.4832121214614
            ],
            [
              73.8366433632602,
              18.4831852180246
            ],
            [
              73.8371229996873,
              18.4825505071866
            ],
            [
              73.8372878276764,
              18.4819574867981
            ],
            [
              73.8373294825126,
              18.4811656992731
            ],
            [
              73.837272871959,
              18.4809439756576
            ],
            [
              73.8372337988608,
              18.4808296815563
            ],
            [
              73.8364870025365,
              18.4799279085754
            ],
            [
              73.8355923639363,
              18.4795016380744
            ],
            [
              73.8352809330455,
              18.4795244746836
            ],
            [
              73.832448394099,
              18.4802792774163
            ],
            [
              73.8324200157818,
              18.479873180831
            ],
            [
              73.8317246442953,
              18.4783689632728
            ],
            [
              73.830814483608,
              18.4787049158255
            ],
            [
              73.8296030968079,
              18.4790885054289
            ],
            [
              73.8289491770769,
              18.4791240658939
            ],
            [
              73.8286308142785,
              18.4793731745444
            ],
            [
              73.8282813605783,
              18.479494571624
            ],
            [
              73.8279836292023,
              18.4798222188065
            ],
            [
              73.82682983479,
              18.4802792120565
            ],
            [
              73.8268326652616,
              18.4806257475048
            ],
            [
              73.8258436568286,
              18.4811096942449
            ],
            [
              73.8255088799058,
              18.4807512002904
            ],
            [
              73.8237013301894,
              18.4827801192271
            ],
            [
              73.8240882373786,
              18.4828937336046
            ],
            [
              73.8243010038652,
              18.4829562115671
            ],
            [
              73.824927808355,
              18.483304614267
            ],
            [
              73.8256284826604,
              18.4840784923596
            ],
            [
              73.8262977820754,
              18.4853020564021
            ],
            [
              73.8268102144807,
              18.4865047044584
            ],
            [
              73.8277047984124,
              18.4884820845437
            ],
            [
              73.8279762469138,
              18.4889474251366
            ],
            [
              73.830624081057,
              18.4928519211769
            ],
            [
              73.8325762527227,
              18.4956940262593
            ],
            [
              73.8329288485343,
              18.4960709389313
            ],
            [
              73.8332900927637,
              18.4964570956185
            ],
            [
              73.8348503157895,
              18.4977143631274
            ],
            [
              73.8355687120129,
              18.4983716221761
            ],
            [
              73.8362791424488,
              18.497600477407
            ],
            [
              73.8384150724468,
              18.4976358788591
            ],
            [
              73.838420521701,
              18.4981793301548
            ],
            [
              73.8390937941255,
              18.4993566995205
            ],
            [
              73.8391324605483,
              18.5010143607971
            ],
            [
              73.8421654916713,
              18.5010125648079
            ],
            [
              73.843309769,
              18.50237131554
            ],
            [
              73.8436634201281,
              18.5027199056922
            ],
            [
              73.8439049372936,
              18.5028028942411
            ],
            [
              73.8450935381309,
              18.502864495045
            ],
            [
              73.845319176998,
              18.5028705938616
            ],
            [
              73.8454328370559,
              18.5021431455898
            ],
            [
              73.8455870078342,
              18.501231813997
            ]
          ]
        ]
      }
    }
  ]
}