{
  "type": "FeatureCollection",
  "features": [
    {
      "type": "Feature",
      "properties": {
        "ward_number": 3,
        "ward_name_en": "3 Lohegaon - Vimannagar",
        "ward_name_mr": "प्रभाग ०३ : लोहगाव - विमाननगर",
        "entity_type": "ward",
        "parent_municipality": "Pune Municipal Corporation",
        "parent_municipality_mr": "पुणे महानगरपालिका",
        "district": "Pune",
        "district_mr": "पुणे",
        "state": "Maharashtra",
        "state_mr": "महाराष्ट्र",
        "country": "India",
        "country_mr": "भारत",
        "area_sq_km": 31.8524,
        "perimeter_km": 36.2026,
        "author": "Nikhil VJ",
        "added_by": "mahanvyakti",
        "source_url": "http://www.pmc.gov.in/sites/default/files/final_ward_maps/3_F_Ward.pdf",
        "created_date": "2025-11-02",
        "data_year": 2022
      },
      "geometry": {
        "type": "Polygon",
        "coordinates": [
          [
            [
              73.93051,
              18.62044
            ],
            [
              73.93448,
              18.61977
            ],
            [
              73.93483,
              18.61981
            ],
            [
              73.93577,
              18.62003
            ],
            [
              73.93938,
              18.62017
            ],
            [
              73.9401,
              18.61971
            ],
            [
              73.94091,
              18.61931
            ],
            [
              73.94181,
              18.61928
            ],
            [
              73.94253,
              18.61948
            ],
            [
              73.94287,
              18.61984
            ],
            [
              73.94327,
              18.61998
            ],
            [
              73.94383,
              18.61996
            ],
            [
              73.94427,
              18.61983
            ],
            [
              73.94456,
              18.61987
            ],
            [
              73.94508,
              18.61999
            ],
            [
              73.94582,
              18.62024
            ],
            [
              73.94734,
              18.62038
            ],
            [
              73.94871,
              18.62035
            ],
            [
              73.94983,
              18.62015
            ],
            [
              73.9515,
              18.62002
            ],
            [
              73.95244,
              18.62001
            ],
            [
              73.95392,
              18.62055
            ],
            [
              73.95488,
              18.62056
            ],
            [
              73.95689,
              18.62015
            ],
            [
              73.95722,
              18.61975
            ],
            [
              73.9574,
              18.61969
            ],
            [
              73.95888,
              18.6198
            ],
            [
              73.95988,
              18.61994
            ],
            [
              73.96074,
              18.62023
            ],
            [
              73.96199,
              18.62031
            ],
            [
              73.96329,
              18.62036
            ],
            [
              73.96404,
              18.6194
            ],
            [
              73.96561,
              18.61878
            ],
            [
              73.96549,
              18.61836
            ],
            [
              73.96533,
              18.6183
            ],
            [
              73.96479,
              18.61816
            ],
            [
              73.96439,
              18.61786
            ],
            [
              73.96419,
              18.61749
            ],
            [
              73.96467,
              18.61503
            ],
            [
              73.96523,
              18.61245
            ],
            [
              73.96555,
              18.61109
            ],
            [
              73.96588,
              18.60974
            ],
            [
              73.96597,
              18.60775
            ],
            [
              73.96583,
              18.60732
            ],
            [
              73.96534,
              18.6073
            ],
            [
              73.96473,
              18.60724
            ],
            [
              73.96408,
              18.60703
            ],
            [
              73.96409,
              18.60717
            ],
            [
              73.96283,
              18.60682
            ],
            [
              73.96182,
              18.60668
            ],
            [
              73.96163,
              18.6063
            ],
            [
              73.96175,
              18.60569
            ],
            [
              73.96177,
              18.60429
            ],
            [
              73.9616,
              18.60125
            ],
            [
              73.96149,
              18.60099
            ],
            [
              73.96146,
              18.60007
            ],
            [
              73.96129,
              18.59824
            ],
            [
              73.96112,
              18.59819
            ],
            [
              73.95983,
              18.59793
            ],
            [
              73.95901,
              18.59779
            ],
            [
              73.95906,
              18.59734
            ],
            [
              73.95902,
              18.5965
            ],
            [
              73.95857,
              18.59418
            ],
            [
              73.95826,
              18.59334
            ],
            [
              73.95811,
              18.59246
            ],
            [
              73.95784,
              18.59238
            ],
            [
              73.95748,
              18.59018
            ],
            [
              73.9574,
              18.58993
            ],
            [
              73.95682,
              18.58996
            ],
            [
              73.95667,
              18.58982
            ],
            [
              73.95669,
              18.58921
            ],
            [
              73.95673,
              18.58596
            ],
            [
              73.95671,
              18.58319
            ],
            [
              73.95613,
              18.57775
            ],
            [
              73.9562,
              18.57698
            ],
            [
              73.95611,
              18.57605
            ],
            [
              73.95569,
              18.57502
            ],
            [
              73.95569,
              18.57425
            ],
            [
              73.95535,
              18.57355
            ],
            [
              73.95414,
              18.57016
            ],
            [
              73.95143,
              18.56902
            ],
            [
              73.95041,
              18.5685
            ],
            [
              73.94844,
              18.56755
            ],
            [
              73.94747,
              18.56691
            ],
            [
              73.94688,
              18.5664
            ],
            [
              73.94632,
              18.56614
            ],
            [
              73.9452,
              18.56562
            ],
            [
              73.94383,
              18.56488
            ],
            [
              73.94353,
              18.56496
            ],
            [
              73.94358,
              18.56515
            ],
            [
              73.94459,
              18.56632
            ],
            [
              73.94525,
              18.5667
            ],
            [
              73.94715,
              18.56736
            ],
            [
              73.94813,
              18.56774
            ],
            [
              73.94732,
              18.56892
            ],
            [
              73.94658,
              18.57006
            ],
            [
              73.94602,
              18.57063
            ],
            [
              73.94359,
              18.57398
            ],
            [
              73.94679,
              18.57398
            ],
            [
              73.94678,
              18.57662
            ],
            [
              73.94276,
              18.57672
            ],
            [
              73.94133,
              18.57688
            ],
            [
              73.94127,
              18.57649
            ],
            [
              73.94341,
              18.57594
            ],
            [
              73.94341,
              18.57445
            ],
            [
              73.94074,
              18.57409
            ],
            [
              73.93779,
              18.57379
            ],
            [
              73.93746,
              18.5759
            ],
            [
              73.93651,
              18.57597
            ],
            [
              73.93451,
              18.57595
            ],
            [
              73.93455,
              18.57546
            ],
            [
              73.93602,
              18.57347
            ],
            [
              73.93467,
              18.57295
            ],
            [
              73.93448,
              18.57274
            ],
            [
              73.93411,
              18.57255
            ],
            [
              73.93382,
              18.57277
            ],
            [
              73.9337,
              18.57307
            ],
            [
              73.93364,
              18.57341
            ],
            [
              73.93226,
              18.57484
            ],
            [
              73.93136,
              18.57498
            ],
            [
              73.93089,
              18.57413
            ],
            [
              73.93083,
              18.57329
            ],
            [
              73.93045,
              18.57296
            ],
            [
              73.93139,
              18.57211
            ],
            [
              73.93114,
              18.57187
            ],
            [
              73.93021,
              18.57274
            ],
            [
              73.92868,
              18.57135
            ],
            [
              73.92811,
              18.57168
            ],
            [
              73.92745,
              18.57035
            ],
            [
              73.92732,
              18.56988
            ],
            [
              73.92745,
              18.56847
            ],
            [
              73.93025,
              18.56843
            ],
            [
              73.93028,
              18.56814
            ],
            [
              73.93076,
              18.56822
            ],
            [
              73.93083,
              18.5684
            ],
            [
              73.93125,
              18.5684
            ],
            [
              73.93132,
              18.56825
            ],
            [
              73.93242,
              18.56831
            ],
            [
              73.93318,
              18.56843
            ],
            [
              73.9342,
              18.56866
            ],
            [
              73.9343,
              18.56856
            ],
            [
              73.93419,
              18.56775
            ],
            [
              73.93422,
              18.56677
            ],
            [
              73.93429,
              18.56575
            ],
            [
              73.93445,
              18.5636
            ],
            [
              73.93381,
              18.56359
            ],
            [
              73.93202,
              18.56341
            ],
            [
              73.92958,
              18.56316
            ],
            [
              73.92769,
              18.56301
            ],
            [
              73.92638,
              18.56302
            ],
            [
              73.92469,
              18.56291
            ],
            [
              73.92379,
              18.56265
            ],
            [
              73.92269,
              18.56237
            ],
            [
              73.92199,
              18.56221
            ],
            [
              73.92105,
              18.56193
            ],
            [
              73.92088,
              18.56188
            ],
            [
              73.92021,
              18.56169
            ],
            [
              73.91884,
              18.56134
            ],
            [
              73.91703,
              18.56082
            ],
            [
              73.91545,
              18.56031
            ],
            [
              73.91358,
              18.55961
            ],
            [
              73.91168,
              18.55901
            ],
            [
              73.91075,
              18.55864
            ],
            [
              73.90917,
              18.55783
            ],
            [
              73.90915,
              18.55779
            ],
            [
              73.90904,
              18.558
            ],
            [
              73.90896,
              18.55861
            ],
            [
              73.90899,
              18.5588
            ],
            [
              73.90937,
              18.55881
            ],
            [
              73.90938,
              18.55967
            ],
            [
              73.91032,
              18.55961
            ],
            [
              73.91033,
              18.56204
            ],
            [
              73.91081,
              18.56198
            ],
            [
              73.91093,
              18.56419
            ],
            [
              73.91193,
              18.56425
            ],
            [
              73.91191,
              18.56455
            ],
            [
              73.91092,
              18.56446
            ],
            [
              73.91089,
              18.56511
            ],
            [
              73.91083,
              18.56511
            ],
            [
              73.91093,
              18.56874
            ],
            [
              73.91105,
              18.56999
            ],
            [
              73.91107,
              18.57015
            ],
            [
              73.91114,
              18.57061
            ],
            [
              73.91169,
              18.57263
            ],
            [
              73.91196,
              18.57364
            ],
            [
              73.91214,
              18.57394
            ],
            [
              73.91418,
              18.57354
            ],
            [
              73.91474,
              18.57632
            ],
            [
              73.91455,
              18.57636
            ],
            [
              73.91284,
              18.5766
            ],
            [
              73.9124,
              18.57675
            ],
            [
              73.91239,
              18.57717
            ],
            [
              73.91144,
              18.57714
            ],
            [
              73.9095,
              18.57721
            ],
            [
              73.90794,
              18.57737
            ],
            [
              73.90795,
              18.57782
            ],
            [
              73.90799,
              18.57807
            ],
            [
              73.90796,
              18.57813
            ],
            [
              73.90653,
              18.57829
            ],
            [
              73.90555,
              18.57839
            ],
            [
              73.9053,
              18.57841
            ],
            [
              73.90415,
              18.57852
            ],
            [
              73.90393,
              18.57856
            ],
            [
              73.90381,
              18.57869
            ],
            [
              73.90358,
              18.57956
            ],
            [
              73.90326,
              18.58061
            ],
            [
              73.90295,
              18.58162
            ],
            [
              73.90285,
              18.58196
            ],
            [
              73.90255,
              18.58288
            ],
            [
              73.90251,
              18.58323
            ],
            [
              73.90258,
              18.58342
            ],
            [
              73.90268,
              18.58358
            ],
            [
              73.9029,
              18.58371
            ],
            [
              73.90334,
              18.58399
            ],
            [
              73.90432,
              18.58458
            ],
            [
              73.90454,
              18.5848
            ],
            [
              73.90459,
              18.58486
            ],
            [
              73.90495,
              18.58521
            ],
            [
              73.90519,
              18.58536
            ],
            [
              73.90568,
              18.58543
            ],
            [
              73.90691,
              18.58562
            ],
            [
              73.90929,
              18.58598
            ],
            [
              73.91015,
              18.58611
            ],
            [
              73.91156,
              18.58662
            ],
            [
              73.91215,
              18.58686
            ],
            [
              73.91243,
              18.58714
            ],
            [
              73.91257,
              18.58766
            ],
            [
              73.91279,
              18.58879
            ],
            [
              73.91283,
              18.58904
            ],
            [
              73.91304,
              18.5903
            ],
            [
              73.91328,
              18.59165
            ],
            [
              73.91326,
              18.59173
            ],
            [
              73.91304,
              18.59188
            ],
            [
              73.91281,
              18.59194
            ],
            [
              73.91243,
              18.592
            ],
            [
              73.91238,
              18.592
            ],
            [
              73.91228,
              18.59201
            ],
            [
              73.91198,
              18.59201
            ],
            [
              73.91178,
              18.59201
            ],
            [
              73.91113,
              18.592
            ],
            [
              73.91047,
              18.59198
            ],
            [
              73.91013,
              18.59192
            ],
            [
              73.90982,
              18.59184
            ],
            [
              73.90874,
              18.59141
            ],
            [
              73.90855,
              18.59133
            ],
            [
              73.90852,
              18.59132
            ],
            [
              73.90749,
              18.59089
            ],
            [
              73.90748,
              18.5909
            ],
            [
              73.90748,
              18.59072
            ],
            [
              73.90759,
              18.58983
            ],
            [
              73.9077,
              18.58852
            ],
            [
              73.90767,
              18.58848
            ],
            [
              73.9074,
              18.58844
            ],
            [
              73.90645,
              18.5883
            ],
            [
              73.90599,
              18.58823
            ],
            [
              73.90529,
              18.58818
            ],
            [
              73.90494,
              18.58818
            ],
            [
              73.90489,
              18.58823
            ],
            [
              73.90481,
              18.58829
            ],
            [
              73.90181,
              18.58856
            ],
            [
              73.90174,
              18.58884
            ],
            [
              73.90187,
              18.58901
            ],
            [
              73.90207,
              18.5893
            ],
            [
              73.90223,
              18.58942
            ],
            [
              73.90245,
              18.58948
            ],
            [
              73.90269,
              18.58956
            ],
            [
              73.90282,
              18.58974
            ],
            [
              73.90292,
              18.59
            ],
            [
              73.90292,
              18.59047
            ],
            [
              73.90301,
              18.59097
            ],
            [
              73.90314,
              18.5912
            ],
            [
              73.90322,
              18.5914
            ],
            [
              73.90324,
              18.59186
            ],
            [
              73.90311,
              18.59209
            ],
            [
              73.9029,
              18.59237
            ],
            [
              73.90285,
              18.5926
            ],
            [
              73.90292,
              18.59293
            ],
            [
              73.90303,
              18.59319
            ],
            [
              73.90323,
              18.59335
            ],
            [
              73.9036,
              18.59355
            ],
            [
              73.90389,
              18.59364
            ],
            [
              73.90433,
              18.59372
            ],
            [
              73.90473,
              18.59384
            ],
            [
              73.90502,
              18.59416
            ],
            [
              73.90519,
              18.59465
            ],
            [
              73.9054,
              18.59527
            ],
            [
              73.90577,
              18.59586
            ],
            [
              73.90629,
              18.59637
            ],
            [
              73.90679,
              18.59677
            ],
            [
              73.90705,
              18.59689
            ],
            [
              73.90746,
              18.59706
            ],
            [
              73.9078,
              18.59712
            ],
            [
              73.90786,
              18.5973
            ],
            [
              73.90783,
              18.59787
            ],
            [
              73.90786,
              18.59825
            ],
            [
              73.90799,
              18.59837
            ],
            [
              73.9082,
              18.59847
            ],
            [
              73.90829,
              18.5986
            ],
            [
              73.90827,
              18.59876
            ],
            [
              73.90815,
              18.59911
            ],
            [
              73.90798,
              18.59946
            ],
            [
              73.90774,
              18.59968
            ],
            [
              73.90776,
              18.5999
            ],
            [
              73.90787,
              18.60015
            ],
            [
              73.90813,
              18.60054
            ],
            [
              73.9082,
              18.60084
            ],
            [
              73.90818,
              18.60102
            ],
            [
              73.90791,
              18.60103
            ],
            [
              73.90774,
              18.60102
            ],
            [
              73.90771,
              18.60121
            ],
            [
              73.9078,
              18.6015
            ],
            [
              73.90806,
              18.60183
            ],
            [
              73.90828,
              18.60263
            ],
            [
              73.90832,
              18.60277
            ],
            [
              73.9083,
              18.60305
            ],
            [
              73.90806,
              18.60323
            ],
            [
              73.90787,
              18.60333
            ],
            [
              73.90758,
              18.60513
            ],
            [
              73.90751,
              18.60601
            ],
            [
              73.90747,
              18.60666
            ],
            [
              73.90726,
              18.60706
            ],
            [
              73.90622,
              18.61023
            ],
            [
              73.90642,
              18.61079
            ],
            [
              73.90668,
              18.61087
            ],
            [
              73.90677,
              18.61136
            ],
            [
              73.90643,
              18.61146
            ],
            [
              73.90655,
              18.61269
            ],
            [
              73.90645,
              18.61311
            ],
            [
              73.90613,
              18.6149
            ],
            [
              73.906,
              18.61558
            ],
            [
              73.90602,
              18.61654
            ],
            [
              73.90587,
              18.61705
            ],
            [
              73.90665,
              18.61705
            ],
            [
              73.90718,
              18.61725
            ],
            [
              73.90836,
              18.61739
            ],
            [
              73.90994,
              18.61768
            ],
            [
              73.91138,
              18.61827
            ],
            [
              73.91216,
              18.61838
            ],
            [
              73.91385,
              18.61841
            ],
            [
              73.91559,
              18.61831
            ],
            [
              73.91708,
              18.61853
            ],
            [
              73.9191,
              18.61892
            ],
            [
              73.921,
              18.61956
            ],
            [
              73.92228,
              18.62003
            ],
            [
              73.9236,
              18.62067
            ],
            [
              73.92525,
              18.62085
            ],
            [
              73.92685,
              18.6209
            ],
            [
              73.9292,
              18.62066
            ],
            [
              73.93051,
              18.62044
            ]
          ]
        ]
      }
    }
  ]
}