{
  "type": "FeatureCollection",
  "features": [
    {
      "type": "Feature",
      "properties": {
        "ward_number": 29,
        "ward_name_en": "29 Ghorpade peth Udyan - Mahatma Phule Mandai",
        "ward_name_mr": "प्रभाग २९ : घोरपडी पेठ उद्यान - महात्मा फुले मंडई",
        "entity_type": "ward",
        "parent_municipality": "Pune Municipal Corporation",
        "parent_municipality_mr": "पुणे महानगरपालिका",
        "district": "Pune",
        "district_mr": "पुणे",
        "state": "Maharashtra",
        "state_mr": "महाराष्ट्र",
        "country": "India",
        "country_mr": "भारत",
        "area_sq_km": 1.2518,
        "perimeter_km": 6.1502,
        "author": "Nikhil VJ",
        "added_by": "mahanvyakti",
        "source_url": "http://www.pmc.gov.in/sites/default/files/final_ward_maps/29_F_Ward.pdf",
        "created_date": "2025-11-02",
        "data_year": 2022
      },
      "geometry": {
        "type": "Polygon",
        "coordinates": [
          [
            [
              73.85914,
              18.50862
            ],
            [
              73.85944,
              18.50861
            ],
            [
              73.8597,
              18.50861
            ],
            [
              73.86001,
              18.50865
            ],
            [
              73.8603,
              18.50871
            ],
            [
              73.86064,
              18.50877
            ],
            [
              73.86085,
              18.50882
            ],
            [
              73.86103,
              18.50883
            ],
            [
              73.86136,
              18.50885
            ],
            [
              73.8618,
              18.50889
            ],
            [
              73.86198,
              18.50892
            ],
            [
              73.8621,
              18.50893
            ],
            [
              73.86234,
              18.50893
            ],
            [
              73.86271,
              18.50895
            ],
            [
              73.86305,
              18.50899
            ],
            [
              73.86327,
              18.50905
            ],
            [
              73.86334,
              18.50791
            ],
            [
              73.86338,
              18.507
            ],
            [
              73.86341,
              18.50608
            ],
            [
              73.86343,
              18.50494
            ],
            [
              73.86343,
              18.50469
            ],
            [
              73.86393,
              18.50473
            ],
            [
              73.86422,
              18.50475
            ],
            [
              73.86464,
              18.50474
            ],
            [
              73.86508,
              18.50471
            ],
            [
              73.8653,
              18.50469
            ],
            [
              73.86544,
              18.50469
            ],
            [
              73.86564,
              18.50474
            ],
            [
              73.86583,
              18.50476
            ],
            [
              73.86609,
              18.50478
            ],
            [
              73.86616,
              18.50425
            ],
            [
              73.86621,
              18.504
            ],
            [
              73.86622,
              18.50386
            ],
            [
              73.86621,
              18.50377
            ],
            [
              73.86607,
              18.50315
            ],
            [
              73.86607,
              18.50304
            ],
            [
              73.86604,
              18.503
            ],
            [
              73.86594,
              18.50297
            ],
            [
              73.86562,
              18.50296
            ],
            [
              73.86548,
              18.50292
            ],
            [
              73.8654,
              18.50284
            ],
            [
              73.86511,
              18.50257
            ],
            [
              73.865,
              18.50203
            ],
            [
              73.86495,
              18.50171
            ],
            [
              73.86498,
              18.50158
            ],
            [
              73.86505,
              18.50139
            ],
            [
              73.86523,
              18.50112
            ],
            [
              73.8653,
              18.50096
            ],
            [
              73.86531,
              18.50078
            ],
            [
              73.86527,
              18.5005
            ],
            [
              73.86527,
              18.5
            ],
            [
              73.86478,
              18.50001
            ],
            [
              73.86435,
              18.49999
            ],
            [
              73.86384,
              18.50001
            ],
            [
              73.86349,
              18.50003
            ],
            [
              73.86308,
              18.5001
            ],
            [
              73.86278,
              18.50011
            ],
            [
              73.86236,
              18.50014
            ],
            [
              73.86179,
              18.50016
            ],
            [
              73.86129,
              18.50029
            ],
            [
              73.8608,
              18.50041
            ],
            [
              73.86041,
              18.50048
            ],
            [
              73.85972,
              18.50057
            ],
            [
              73.85882,
              18.50065
            ],
            [
              73.85853,
              18.50065
            ],
            [
              73.85851,
              18.50118
            ],
            [
              73.85809,
              18.50157
            ],
            [
              73.85671,
              18.50289
            ],
            [
              73.85533,
              18.50414
            ],
            [
              73.85454,
              18.50474
            ],
            [
              73.85401,
              18.50518
            ],
            [
              73.85329,
              18.50581
            ],
            [
              73.85281,
              18.50616
            ],
            [
              73.8505,
              18.50784
            ],
            [
              73.85042,
              18.50791
            ],
            [
              73.85043,
              18.50832
            ],
            [
              73.85139,
              18.50846
            ],
            [
              73.85198,
              18.50853
            ],
            [
              73.8524,
              18.50858
            ],
            [
              73.85258,
              18.50861
            ],
            [
              73.85284,
              18.5086
            ],
            [
              73.8529,
              18.50835
            ],
            [
              73.85301,
              18.50819
            ],
            [
              73.85312,
              18.50805
            ],
            [
              73.85322,
              18.50796
            ],
            [
              73.85371,
              18.50788
            ],
            [
              73.85373,
              18.50956
            ],
            [
              73.85378,
              18.51076
            ],
            [
              73.85385,
              18.51295
            ],
            [
              73.85378,
              18.51422
            ],
            [
              73.85375,
              18.5146
            ],
            [
              73.85418,
              18.51466
            ],
            [
              73.8543,
              18.51468
            ],
            [
              73.85469,
              18.51487
            ],
            [
              73.85527,
              18.5152
            ],
            [
              73.85571,
              18.51543
            ],
            [
              73.85597,
              18.51562
            ],
            [
              73.85629,
              18.51573
            ],
            [
              73.85632,
              18.51551
            ],
            [
              73.85637,
              18.51527
            ],
            [
              73.85645,
              18.51506
            ],
            [
              73.85659,
              18.51485
            ],
            [
              73.85671,
              18.51475
            ],
            [
              73.85723,
              18.51389
            ],
            [
              73.85729,
              18.51371
            ],
            [
              73.85765,
              18.51269
            ],
            [
              73.85771,
              18.51244
            ],
            [
              73.85781,
              18.51217
            ],
            [
              73.85787,
              18.5119
            ],
            [
              73.85789,
              18.5114
            ],
            [
              73.85793,
              18.51035
            ],
            [
              73.85796,
              18.50942
            ],
            [
              73.85801,
              18.50877
            ],
            [
              73.85817,
              18.50876
            ],
            [
              73.85867,
              18.50869
            ],
            [
              73.85897,
              18.50863
            ],
            [
              73.85914,
              18.50862
            ]
          ]
        ]
      }
    }
  ]
}