<?xml version="1.0" encoding="UTF-8"?>
<kml xmlns="http://www.opengis.net/kml/2.2">
  <Document>
    <name>54 Dhayari - Ambegaon</name>
    <description>Part of OS-Bhugol open geographic data project</description>
    <Placemark>
      <name>54 Dhayari - Ambegaon</name>
      <ExtendedData>
        <Data name="ward_number"><value>54</value></Data>
        <Data name="ward_name_en"><value>54 Dhayari - Ambegaon</value></Data>
        <Data name="ward_name_mr"><value>प्रभाग ५४ : धायरी - आंबेगाव</value></Data>
        <Data name="entity_type"><value>ward</value></Data>
        <Data name="parent_municipality"><value>Pune Municipal Corporation</value></Data>
        <Data name="parent_municipality_mr"><value>पुणे महानगरपालिका</value></Data>
        <Data name="district"><value>Pune</value></Data>
        <Data name="district_mr"><value>पुणे</value></Data>
        <Data name="state"><value>Maharashtra</value></Data>
        <Data name="state_mr"><value>महाराष्ट्र</value></Data>
        <Data name="country"><value>India</value></Data>
        <Data name="country_mr"><value>भारत</value></Data>
        <Data name="area_sq_km"><value>26.3408</value></Data>
        <Data name="perimeter_km"><value>26.089</value></Data>
        <Data name="author"><value>Nikhil VJ</value></Data>
        <Data name="source_url"><value>http://www.pmc.gov.in/sites/default/files/final_ward_maps/54_F_Ward.pdf</value></Data>
        <Data name="created_date"><value>2025-11-02</value></Data>
        <Data name="data_year"><value>2022</value></Data>
      </ExtendedData>
      <MultiGeometry>
      <Polygon>
        <outerBoundaryIs>
          <LinearRing>
            <tessellate>1</tessellate>
            <coordinates>
              73.84725,18.4515 73.85071,18.45051 73.85205,18.4501 73.852,18.44977 73.85108,18.44988 73.84997,18.44992 73.84953,18.44988 73.84914,18.44815 73.84889,18.44724 73.84882,18.44658 73.84882,18.44608 73.84872,18.44568 73.84842,18.44483 73.8482,18.44441 73.84795,18.44396 73.84774,18.44372 73.84742,18.44243 73.84651,18.44246 73.84576,18.44269 73.8458,18.44361 73.84541,18.44365 73.84439,18.44305 73.84439,18.44259 73.84455,18.44222 73.84456,18.44195 73.84484,18.44159 73.84505,18.44129 73.84535,18.44111 73.84561,18.44101 73.8457,18.44082 73.84618,18.44074 73.84672,18.4406 73.84645,18.4404 73.84642,18.44021 73.84695,18.44018 73.84667,18.43948 73.84641,18.43833 73.84626,18.43754 73.84613,18.43654 73.84522,18.43588 73.84437,18.4351 73.84407,18.43456 73.84388,18.43378 73.84359,18.43285 73.84359,18.43262 73.84364,18.43213 73.84349,18.43164 73.84275,18.43016 73.84239,18.42954 73.84242,18.42931 73.84412,18.42776 73.846,18.42646 73.84656,18.42607 73.84661,18.42571 73.8472,18.42514 73.84749,18.42479 73.84754,18.42444 73.84823,18.42415 73.84862,18.42407 73.8488,18.42404 73.85013,18.42325 73.84955,18.42175 73.84915,18.42085 73.84871,18.41988 73.84839,18.41958 73.84799,18.4193 73.84778,18.41917 73.84782,18.41744 73.84792,18.41682 73.84783,18.41398 73.84767,18.41316 73.84881,18.40988 73.84901,18.40912 73.85001,18.40463 73.85048,18.40239 73.85102,18.40186 73.84709,18.3991 73.83837,18.39517 73.83692,18.3945 73.83216,18.39303 73.83175,18.39288 73.83067,18.39023 73.82886,18.39004 73.82366,18.39191 73.82458,18.39498 73.82278,18.39793 73.82134,18.40372 73.81883,18.40663 73.81829,18.40676 73.81809,18.40712 73.81716,18.40736 73.81615,18.40862 73.81258,18.40953 73.81199,18.41051 73.81193,18.41106 73.81157,18.41127 73.81156,18.41154 73.81122,18.41167 73.80952,18.41497 73.80891,18.4164 73.80904,18.41732 73.80937,18.41818 73.80853,18.41861 73.80491,18.42272 73.80437,18.42373 73.8041,18.42407 73.80352,18.42434 73.80308,18.42496 73.80253,18.42628 73.80242,18.42681 73.80176,18.42693 73.80199,18.42792 73.80177,18.42796 73.80179,18.43087 73.80159,18.43171 73.8017,18.43285 73.80178,18.43307 73.80185,18.43435 73.80162,18.4349 73.80144,18.43528 73.80116,18.43562 73.80107,18.43685 73.80051,18.43707 73.80026,18.43768 73.80014,18.43841 73.79965,18.43984 73.79917,18.44148 73.79891,18.44252 73.79855,18.44429 73.79814,18.44578 73.7972,18.44595 73.79697,18.44644 73.79687,18.44705 73.79803,18.44712 73.79957,18.44724 73.80046,18.44725 73.80114,18.44708 73.80182,18.44695 73.80264,18.44703 73.80332,18.44715 73.80419,18.4471 73.80515,18.44734 73.80551,18.44751 73.80673,18.44748 73.80717,18.44718 73.80763,18.44714 73.80942,18.44723 73.8118,18.44738 73.81228,18.44738 73.81302,18.44716 73.81388,18.4472 73.81451,18.44688 73.81501,18.44671 73.81569,18.44694 73.81623,18.44699 73.81689,18.44691 73.8178,18.44684 73.81856,18.44696 73.81932,18.44704 73.82062,18.44718 73.81996,18.44971 73.8196,18.45032 73.81921,18.45064 73.81907,18.45106 73.81906,18.45196 73.81874,18.45268 73.8185,18.4533 73.81883,18.45334 73.81974,18.4535 73.8197,18.45373 73.82033,18.45377 73.82055,18.45362 73.82161,18.45356 73.82267,18.45356 73.82376,18.45318 73.82467,18.45353 73.82518,18.45377 73.82575,18.45381 73.82666,18.45349 73.82735,18.45324 73.82792,18.45314 73.82857,18.45307 73.82891,18.4531 73.82897,18.45317 73.82878,18.45342 73.82852,18.45366 73.82806,18.45432 73.82833,18.45525 73.82867,18.45593 73.82871,18.45621 73.82867,18.45653 73.82839,18.4565 73.82809,18.45671 73.82737,18.45735 73.82678,18.45775 73.82586,18.45825 73.82596,18.45851 73.82738,18.45791 73.82893,18.45726 73.83089,18.45654 73.83666,18.45466 73.83964,18.4537 73.84237,18.45294 73.84632,18.45177 73.84725,18.4515
            </coordinates>
          </LinearRing>
        </outerBoundaryIs>
      </Polygon>

      </MultiGeometry>
    </Placemark>
  </Document>
</kml>
