<?xml version="1.0" encoding="UTF-8"?>
<kml xmlns="http://www.opengis.net/kml/2.2">
  <Document>
    <name>Ward 34</name>
    <description>Part of OS-Bhugol open geographic data project</description>
    <Placemark>
      <name>Ward 34</name>
      <ExtendedData>
        <Data name="ward_number"><value>34</value></Data>
        <Data name="ward_name_en"><value>Ward 34</value></Data>
        <Data name="ward_name_mr"><value>प्रभाग ३४</value></Data>
        <Data name="entity_type"><value>ward</value></Data>
        <Data name="parent_municipality"><value>Pune Municipal Corporation</value></Data>
        <Data name="parent_municipality_mr"><value>पुणे महानगरपालिका</value></Data>
        <Data name="district"><value>Pune</value></Data>
        <Data name="district_mr"><value>पुणे</value></Data>
        <Data name="state"><value>Maharashtra</value></Data>
        <Data name="state_mr"><value>महाराष्ट्र</value></Data>
        <Data name="country"><value>India</value></Data>
        <Data name="country_mr"><value>भारत</value></Data>
        <Data name="area_sq_km"><value>12.7518</value></Data>
        <Data name="perimeter_km"><value>21.0323</value></Data>
        <Data name="author"><value>Parisar</value></Data>
        <Data name="source_url"><value>https://data.opencity.in/dataset/pune-wards-info/resource/2badcc86-489c-4b7e-b7dd-a273ef01b798</value></Data>
        <Data name="created_date"><value>2025-11-02</value></Data>
        <Data name="data_year"><value>2025</value></Data>
      </ExtendedData>
      <MultiGeometry>
      <Polygon>
        <outerBoundaryIs>
          <LinearRing>
            <tessellate>1</tessellate>
            <coordinates>
              73.8360429363174,18.4375894891862 73.8361949254933,18.4369932597184 73.8360417895165,18.4367577859364 73.8360907292306,18.4362477558937 73.8357070140602,18.4357893622058 73.8356104801101,18.4349201227916 73.8355879772512,18.4331935477142 73.8350646497225,18.4315073329604 73.8349794952875,18.4306381629542 73.8347594216314,18.4298702310928 73.8346616566798,18.4295221714902 73.8342655093189,18.4288856268321 73.8338227501145,18.428413838357 73.8333716548823,18.4278290738732 73.8329553226003,18.4274877429017 73.8321032783323,18.4269803168846 73.8305993023275,18.4260671251681 73.8301750941424,18.4257143392874 73.829719186032,18.4250030394479 73.8294894427736,18.4249120451576 73.8289439805359,18.4248272459725 73.8287176973908,18.4244793591085 73.8285354116859,18.4232682885365 73.8281257066932,18.422744063836 73.8278792413882,18.4217373217753 73.8275436789725,18.4208954456983 73.8270693849865,18.4200679818043 73.8266562493405,18.4196582527907 73.8257486853063,18.4189343563999 73.8244672068005,18.4174750643044 73.8232036046392,18.4164532728004 73.8217743853044,18.4149075323346 73.8204533202187,18.4153902200278 73.8197126053065,18.4179627497978 73.8201486589284,18.4200056865175 73.8218584642711,18.4216319150937 73.8221551875129,18.4233714774248 73.8223971545207,18.4240896662454 73.8231306113875,18.4251348826008 73.8217039763584,18.4276086698395 73.8197299835527,18.4320941094962 73.8197033820529,18.4329775306621 73.8186490401053,18.4348608634239 73.8176193237144,18.4373702153462 73.8147582005507,18.4397454098591 73.8136405952438,18.4409963055255 73.8133626291728,18.4416848673117 73.8128617558586,18.4420652339503 73.8125864194898,18.4423703111462 73.8112951753654,18.4425953935002 73.8108146440131,18.4436624994565 73.8099006575459,18.4449330546372 73.8093837669084,18.4453028796229 73.8093343465805,18.4455480084641 73.8094454835958,18.4456618050274 73.8096562804771,18.4456442782354 73.80983147703,18.4460160888107 73.8102644261905,18.4473012206722 73.8078898062158,18.447119224528 73.8074017296978,18.447116156726 73.8070879498297,18.4472743112794 73.8067735671916,18.4475198033301 73.8057592312948,18.4475206983399 73.8050821602338,18.4472762435191 73.8044576695107,18.447148574671 73.8040764605652,18.4471316146767 73.8031575123874,18.4482257830807 73.8024112334801,18.4493014768075 73.8014727083441,18.450603405019 73.7999116157882,18.4506049065311 73.7961984610746,18.4499103895967 73.7961349185985,18.450478618574 73.7958536341844,18.4515117433144 73.7948030270606,18.4517893861143 73.7953454012618,18.4543289297557 73.7954743337586,18.4544872730262 73.7957028615597,18.4546144968267 73.7960005025884,18.4546303619258 73.7962105130811,18.454613061709 73.7972702146845,18.4552439894527 73.7970950830587,18.4563416206552 73.7974755717095,18.4564645841855 73.7978871035629,18.4565108648395 73.7984285402102,18.4565215747065 73.7993040278128,18.4567527538914 73.7999226424347,18.4566329354056 73.8016928204655,18.4571925298507 73.8012201237876,18.4590699718966 73.8006589316277,18.4604571502112 73.8006693011855,18.4606515933402 73.8008042662003,18.4608558061367 73.800938779578,18.4611250904459 73.8009539059173,18.4614017534467 73.8008414219098,18.4616423610584 73.8009569707201,18.461778664617 73.8010148138142,18.461960736855 73.8009826961977,18.4621220125437 73.8008444224772,18.4623012628706 73.8003847857045,18.4625694991161 73.7999615734142,18.4632748097558 73.7995913906223,18.4635722317902 73.8001184638429,18.4647758373146 73.7998886832156,18.4651310881475 73.7998739907143,18.4658201131085 73.800118534993,18.4660049111129 73.8000458496006,18.466138331873 73.7996585227301,18.4664202422545 73.7995309897568,18.466335089582 73.7991466873699,18.4668919346152 73.8010165703586,18.4676496539086 73.8030530482598,18.4687945628188 73.8070098609143,18.4718740026103 73.8079193307004,18.4715328922109 73.8092356182572,18.4713644176693 73.8100193949683,18.4714164746782 73.8104084397187,18.4714071337373 73.8111772668266,18.4709406217879 73.8115677308372,18.4707250777024 73.8117765925161,18.4708795719723 73.8125418965832,18.4718211529019 73.8128018145088,18.4717344060211 73.8130084358565,18.4713173883332 73.813071837693,18.4710762244777 73.8132571399602,18.4710656022214 73.813572136173,18.4710498990749 73.8137460216218,18.4709036950559 73.8139269719194,18.4706279171598 73.8138675799804,18.4702858258398 73.8134266218581,18.4686978238477 73.8135063904253,18.4683208854689 73.8139335681171,18.467927709407 73.8147646418865,18.4673279027984 73.8157465038847,18.4664031476939 73.8161542306455,18.4654500173812 73.8168069151802,18.4662851748379 73.8174245084054,18.4667132796448 73.8176344489196,18.4668500610745 73.8180716507609,18.4663809458835 73.8187287840767,18.4662470656222 73.8193850453096,18.4662405411351 73.8200638404564,18.466191700439 73.8207110829287,18.4658773202314 73.821688209119,18.4661168966346 73.8231743394201,18.466741719413 73.8235097329251,18.4664890751949 73.8240443779974,18.4663756439703 73.8243142668266,18.4659421602208 73.8259549165417,18.4663514022548 73.8261289785442,18.464830911341 73.8328031189975,18.4655700810375 73.8328629343504,18.464978205361 73.8322597349307,18.4649038068946 73.8317279074171,18.4645295594001 73.8315594185685,18.4636738441806 73.8315199798348,18.4616207514154 73.8305131551981,18.461914496434 73.8276914848959,18.4618835173014 73.8262124175429,18.4612750710401 73.8265424820262,18.4595111801574 73.8260355054909,18.4585710657544 73.8259403151482,18.4583620687877 73.8272471850018,18.4575468181139 73.8284120701503,18.4564630951237 73.8286426394313,18.4564128469017 73.8287753622587,18.4563827531307 73.8287531495774,18.455991355266 73.8283817503109,18.4552708654496 73.8281727316207,18.4547309266723 73.8281103649654,18.4542777660604 73.8291817729809,18.4530977992392 73.8300873531757,18.4522446748103 73.831048754833,18.4516026652011 73.834088614709,18.4514789572103 73.8342713175249,18.4500021065789 73.8344995308822,18.4497249677808 73.8346991418168,18.4478378692957 73.8348065198743,18.4457157170684 73.8352076475572,18.4455760671132 73.8350668199762,18.4442051449106 73.8350326454289,18.4428032344154 73.8353716192854,18.4399741577933 73.8359299879337,18.4385724130113 73.8360429363174,18.4375894891862
            </coordinates>
          </LinearRing>
        </outerBoundaryIs>
      </Polygon>

      </MultiGeometry>
    </Placemark>
  </Document>
</kml>
