<?xml version="1.0" encoding="UTF-8"?>
<kml xmlns="http://www.opengis.net/kml/2.2">
  <Document>
    <name>26 Wanwadi Gaothan - Vaiduwadi</name>
    <description>Part of OS-Bhugol open geographic data project</description>
    <Placemark>
      <name>26 Wanwadi Gaothan - Vaiduwadi</name>
      <ExtendedData>
        <Data name="ward_number"><value>26</value></Data>
        <Data name="ward_name_en"><value>26 Wanwadi Gaothan - Vaiduwadi</value></Data>
        <Data name="ward_name_mr"><value>प्रभाग २६ : वानवडी गावठाण - वैदुवाडी</value></Data>
        <Data name="entity_type"><value>ward</value></Data>
        <Data name="parent_municipality"><value>Pune Municipal Corporation</value></Data>
        <Data name="parent_municipality_mr"><value>पुणे महानगरपालिका</value></Data>
        <Data name="district"><value>Pune</value></Data>
        <Data name="district_mr"><value>पुणे</value></Data>
        <Data name="state"><value>Maharashtra</value></Data>
        <Data name="state_mr"><value>महाराष्ट्र</value></Data>
        <Data name="country"><value>India</value></Data>
        <Data name="country_mr"><value>भारत</value></Data>
        <Data name="area_sq_km"><value>4.5745</value></Data>
        <Data name="perimeter_km"><value>15.7604</value></Data>
        <Data name="author"><value>Nikhil VJ</value></Data>
        <Data name="source_url"><value>http://www.pmc.gov.in/sites/default/files/final_ward_maps/26_F_Ward.pdf</value></Data>
        <Data name="created_date"><value>2025-11-02</value></Data>
        <Data name="data_year"><value>2022</value></Data>
      </ExtendedData>
      <MultiGeometry>
      <Polygon>
        <outerBoundaryIs>
          <LinearRing>
            <tessellate>1</tessellate>
            <coordinates>
              73.90905,18.52566 73.90962,18.52562 73.90954,18.52438 73.90952,18.52222 73.90959,18.52101 73.90962,18.5202 73.90962,18.51991 73.90964,18.51979 73.90979,18.51977 73.91021,18.51975 73.91145,18.51974 73.91294,18.51971 73.9141,18.51969 73.91469,18.51973 73.91501,18.51979 73.91547,18.51982 73.91563,18.51976 73.9157,18.51963 73.91545,18.51854 73.91347,18.51892 73.91299,18.51897 73.91238,18.51887 73.91189,18.51866 73.91142,18.51829 73.91115,18.51793 73.91093,18.51754 73.91063,18.51616 73.91053,18.5157 73.91046,18.51541 73.91025,18.51515 73.91013,18.51503 73.91014,18.51428 73.91051,18.51461 73.91136,18.51508 73.91202,18.5153 73.91269,18.51556 73.9131,18.51573 73.91365,18.51592 73.91406,18.516 73.91488,18.51601 73.91533,18.51596 73.91526,18.5155 73.91552,18.5155 73.91609,18.51538 73.91655,18.51518 73.91714,18.51496 73.91775,18.51467 73.918,18.5145 73.91829,18.51418 73.91837,18.51407 73.91857,18.51435 73.9187,18.51417 73.91901,18.51349 73.91956,18.51242 73.91992,18.51176 73.92016,18.51126 73.92064,18.51013 73.92088,18.5095 73.92121,18.50861 73.92131,18.50826 73.92144,18.50803 73.9216,18.50781 73.92181,18.50762 73.92211,18.50744 73.92238,18.5072 73.9225,18.50702 73.92251,18.5068 73.92249,18.50649 73.92239,18.50602 73.92184,18.50394 73.92421,18.50332 73.92454,18.50323 73.9246,18.50277 73.92461,18.50255 73.92484,18.50202 73.92497,18.50185 73.92411,18.50173 73.92368,18.50133 73.92344,18.50155 73.92321,18.50067 73.92327,18.49977 73.92351,18.49978 73.92435,18.49929 73.92432,18.49878 73.92408,18.49887 73.92254,18.49855 73.92247,18.49852 73.92234,18.49865 73.92168,18.49931 73.91873,18.5023 73.91806,18.50298 73.91678,18.50427 73.91515,18.50593 73.91482,18.50601 73.91414,18.50619 73.91349,18.50629 73.91294,18.50635 73.91256,18.50638 73.91253,18.50495 73.91241,18.50277 73.91176,18.50255 73.91152,18.50129 73.91143,18.50087 73.91133,18.50066 73.91045,18.4988 73.91116,18.49885 73.91137,18.49794 73.91195,18.49643 73.91161,18.49495 73.91158,18.49465 73.91145,18.49358 73.91079,18.49365 73.90995,18.49375 73.90868,18.49391 73.90822,18.49394 73.908,18.49374 73.90708,18.49379 73.90709,18.49404 73.90668,18.49406 73.90668,18.49382 73.90561,18.49385 73.90443,18.49386 73.90382,18.49384 73.90389,18.49404 73.90318,18.49442 73.90198,18.49509 73.90178,18.49474 73.90102,18.4949 73.90043,18.49505 73.90019,18.49507 73.89971,18.49514 73.89941,18.4952 73.899,18.49531 73.89874,18.49543 73.89831,18.49561 73.8975,18.49595 73.89739,18.49603 73.89729,18.49614 73.89722,18.49629 73.89711,18.49645 73.89693,18.49661 73.89672,18.4968 73.89783,18.49774 73.89834,18.49804 73.89842,18.49814 73.89848,18.49824 73.89849,18.49836 73.89848,18.49847 73.89844,18.49858 73.89839,18.4989 73.89842,18.49894 73.89857,18.49906 73.8988,18.49917 73.89893,18.49929 73.89901,18.49946 73.89902,18.49967 73.89899,18.49982 73.89892,18.49994 73.89886,18.50015 73.89885,18.50031 73.89889,18.5005 73.89902,18.5009 73.89914,18.50128 73.89916,18.50159 73.89918,18.50199 73.89921,18.50227 73.89924,18.50252 73.89939,18.50279 73.89955,18.50305 73.8997,18.5033 73.89979,18.50353 73.89984,18.50385 73.89985,18.50417 73.89985,18.50441 73.90401,18.50423 73.90407,18.50424 73.90407,18.50427 73.90397,18.5045 73.90391,18.50463 73.90389,18.50495 73.9039,18.50505 73.90382,18.50524 73.90372,18.50545 73.90355,18.50565 73.90346,18.50568 73.90334,18.50568 73.9033,18.50573 73.90295,18.50616 73.90258,18.50658 73.90128,18.50661 73.89964,18.50664 73.89967,18.5069 73.89969,18.50713 73.89973,18.5073 73.89978,18.50738 73.90022,18.50762 73.90025,18.50766 73.90024,18.50774 73.90021,18.50785 73.90009,18.50813 73.90007,18.50835 73.90008,18.50848 73.90009,18.50868 73.90007,18.50913 73.90022,18.5093 73.90034,18.50954 73.90036,18.50963 73.90036,18.50976 73.90009,18.51037 73.90009,18.51051 73.90033,18.51098 73.9004,18.51102 73.90081,18.51101 73.90133,18.511 73.90197,18.51105 73.90236,18.51117 73.90279,18.51146 73.90375,18.51253 73.90554,18.51449 73.90628,18.51529 73.90682,18.51557 73.90715,18.51561 73.90717,18.51584 73.90705,18.51637 73.90681,18.51731 73.90662,18.51821 73.90652,18.51969 73.90649,18.52024 73.90635,18.52256 73.90622,18.52531 73.90701,18.52532 73.90703,18.52565 73.90763,18.52562 73.90763,18.52584 73.90907,18.52578 73.90905,18.52566
            </coordinates>
          </LinearRing>
        </outerBoundaryIs>
      </Polygon>

      </MultiGeometry>
    </Placemark>
  </Document>
</kml>
