<?xml version="1.0" encoding="UTF-8"?>
<kml xmlns="http://www.opengis.net/kml/2.2">
  <Document>
    <name>Ward 17</name>
    <description>Part of OS-Bhugol open geographic data project</description>
    <Placemark>
      <name>Ward 17</name>
      <ExtendedData>
        <Data name="ward_number"><value>17</value></Data>
        <Data name="ward_name_en"><value>Ward 17</value></Data>
        <Data name="ward_name_mr"><value>प्रभाग १७</value></Data>
        <Data name="entity_type"><value>ward</value></Data>
        <Data name="parent_municipality"><value>Pune Municipal Corporation</value></Data>
        <Data name="parent_municipality_mr"><value>पुणे महानगरपालिका</value></Data>
        <Data name="district"><value>Pune</value></Data>
        <Data name="district_mr"><value>पुणे</value></Data>
        <Data name="state"><value>Maharashtra</value></Data>
        <Data name="state_mr"><value>महाराष्ट्र</value></Data>
        <Data name="country"><value>India</value></Data>
        <Data name="country_mr"><value>भारत</value></Data>
        <Data name="area_sq_km"><value>5.8847</value></Data>
        <Data name="perimeter_km"><value>16.8862</value></Data>
        <Data name="author"><value>Parisar</value></Data>
        <Data name="source_url"><value>https://data.opencity.in/dataset/pune-wards-info/resource/2badcc86-489c-4b7e-b7dd-a273ef01b798</value></Data>
        <Data name="created_date"><value>2025-11-02</value></Data>
        <Data name="data_year"><value>2025</value></Data>
      </ExtendedData>
      <MultiGeometry>
      <Polygon>
        <outerBoundaryIs>
          <LinearRing>
            <tessellate>1</tessellate>
            <coordinates>
              73.9114934764184,18.4893576856269 73.9113750548855,18.4934533811076 73.9114097240482,18.4946147856439 73.9118507108224,18.4963093950245 73.9114291388944,18.4973855146595 73.9110514984508,18.4987296641216 73.9103840832276,18.4987438647211 73.9113923069032,18.5008810141126 73.9116843001908,18.5024000061536 73.9122722833863,18.5027439202504 73.9124786322217,18.5062274404137 73.9136217585538,18.5061280374662 73.9150846115721,18.5057781341187 73.9174431648778,18.5051756575233 73.9243826358065,18.5032089795597 73.9246945126951,18.5031231802948 73.9246945124976,18.5031232119225 73.9247110433596,18.5058860992194 73.924737757116,18.5076121139476 73.9244721334285,18.5081203147565 73.924263863015,18.5084499950847 73.9235015247728,18.5089464269784 73.925169226699,18.5089551584563 73.9259149474217,18.5089223502305 73.9260453904344,18.5091749876549 73.9261671929443,18.5117465086198 73.9287844992693,18.5116148343678 73.9287882441892,18.5117382190325 73.9288524749272,18.5131161441604 73.9288760017041,18.5145831039878 73.9325028299967,18.514514840175 73.9324069132475,18.5129353364297 73.9323778606917,18.5119337434575 73.9327608938901,18.5118970402061 73.9327425054537,18.5117016671804 73.9326005019678,18.5110910533336 73.9322531615229,18.5102756700467 73.9355697011435,18.5099217466951 73.9371544759307,18.5097629818677 73.9378909424622,18.5099903185125 73.9386514724475,18.5100246333367 73.9392227315684,18.5101083187851 73.9433825375383,18.5100430513688 73.944898605768,18.510044335179 73.944875666053,18.5099789750665 73.9447018537178,18.5092805028941 73.9450612925483,18.5081870856844 73.9450825934818,18.5075551706716 73.9449831910463,18.5072427636466 73.9447488853164,18.5070084576657 73.9443654766727,18.5067173510714 73.9441098712331,18.5065043457345 73.9439536669365,18.5062771412755 73.9438902087358,18.5054286713074 73.943890699492,18.5036959684111 73.9439038322332,18.5034910615374 73.9456172017678,18.5036271631156 73.9478762108679,18.5037701755013 73.9512115974139,18.5041262944474 73.9540502096953,18.5041803716154 73.954202868799,18.504204233499 73.9542498635932,18.5044116581882 73.9555618373018,18.5042347590268 73.9563586537438,18.5041317371843 73.9566478237932,18.5041365780777 73.9560262350424,18.5032475346603 73.9551175911456,18.501899783532 73.9546691689745,18.5011622877273 73.9543633818996,18.5003316616723 73.9540359305324,18.4985856161621 73.9374311653015,18.5008575481151 73.9332885829664,18.5014058595052 73.9314533617965,18.501503403072 73.9296926899722,18.5016364533484 73.9296718289574,18.5006450191305 73.9279497317715,18.5008194166912 73.9278662815865,18.5008182318006 73.9278337239388,18.5001282150124 73.9274405291302,18.4993203756923 73.9274028929798,18.4990588108425 73.9275237824962,18.4986886524673 73.92789300394,18.4982789384606 73.9280718890062,18.4980804341937 73.9281361796945,18.4978416160116 73.9280997892737,18.4973828885111 73.9282158092108,18.4968311090458 73.9283817009006,18.4960187399826 73.9282489063762,18.4953888254972 73.9278348982684,18.4947189539118 73.9277566936603,18.4937977844524 73.9275456883839,18.4934826209608 73.9273331269571,18.4933075619765 73.9280518981924,18.4925778876303 73.928692110269,18.4919279555612 73.9307984825958,18.4898726314304 73.9282734859073,18.4900171706371 73.9282751686056,18.4897465546396 73.9286447134838,18.4892321877655 73.9287107559213,18.4889699669816 73.9285808917793,18.4886661315451 73.9282491460126,18.4885165448439 73.9178411181302,18.489245154104 73.9163010117331,18.4891888699623 73.9139002172522,18.4893309649664 73.9114934764184,18.4893576856269
            </coordinates>
          </LinearRing>
        </outerBoundaryIs>
      </Polygon>

      </MultiGeometry>
    </Placemark>
  </Document>
</kml>
