{
  "type": "FeatureCollection",
  "features": [
    {
      "type": "Feature",
      "properties": {
        "ward_number": 32,
        "ward_name_en": "32 Bhusari colony - Bavdhan Khurd",
        "ward_name_mr": "प्रभाग ३२ : भुसारी कॉलनी - बावधन खुर्द",
        "entity_type": "ward",
        "parent_municipality": "Pune Municipal Corporation",
        "parent_municipality_mr": "पुणे महानगरपालिका",
        "district": "Pune",
        "district_mr": "पुणे",
        "state": "Maharashtra",
        "state_mr": "महाराष्ट्र",
        "country": "India",
        "country_mr": "भारत",
        "area_sq_km": 4.5701,
        "perimeter_km": 14.5193,
        "author": "Nikhil VJ",
        "added_by": "mahanvyakti",
        "source_url": "http://www.pmc.gov.in/sites/default/files/final_ward_maps/32_F_Ward.pdf",
        "created_date": "2025-11-02",
        "data_year": 2022
      },
      "geometry": {
        "type": "Polygon",
        "coordinates": [
          [
            [
              73.80589,
              18.51562
            ],
            [
              73.8059,
              18.51285
            ],
            [
              73.80504,
              18.51289
            ],
            [
              73.80426,
              18.51288
            ],
            [
              73.80372,
              18.51283
            ],
            [
              73.8021,
              18.51255
            ],
            [
              73.80024,
              18.5122
            ],
            [
              73.79927,
              18.51203
            ],
            [
              73.79875,
              18.51194
            ],
            [
              73.79879,
              18.51183
            ],
            [
              73.79879,
              18.51089
            ],
            [
              73.79876,
              18.50946
            ],
            [
              73.79878,
              18.50854
            ],
            [
              73.79902,
              18.50763
            ],
            [
              73.80018,
              18.50749
            ],
            [
              73.80152,
              18.50728
            ],
            [
              73.80173,
              18.50726
            ],
            [
              73.80247,
              18.50707
            ],
            [
              73.80285,
              18.50703
            ],
            [
              73.80277,
              18.50652
            ],
            [
              73.80254,
              18.50565
            ],
            [
              73.80247,
              18.50535
            ],
            [
              73.80237,
              18.50449
            ],
            [
              73.80215,
              18.50357
            ],
            [
              73.80202,
              18.50287
            ],
            [
              73.80195,
              18.50244
            ],
            [
              73.8019,
              18.50184
            ],
            [
              73.80188,
              18.5016
            ],
            [
              73.8018,
              18.50133
            ],
            [
              73.80081,
              18.50156
            ],
            [
              73.80059,
              18.50138
            ],
            [
              73.80051,
              18.50048
            ],
            [
              73.80042,
              18.50041
            ],
            [
              73.80046,
              18.50035
            ],
            [
              73.80041,
              18.49991
            ],
            [
              73.80035,
              18.49953
            ],
            [
              73.80028,
              18.49943
            ],
            [
              73.80011,
              18.49845
            ],
            [
              73.79932,
              18.49844
            ],
            [
              73.79876,
              18.49849
            ],
            [
              73.79856,
              18.49862
            ],
            [
              73.79841,
              18.49862
            ],
            [
              73.79756,
              18.49868
            ],
            [
              73.79645,
              18.49878
            ],
            [
              73.79579,
              18.49875
            ],
            [
              73.79587,
              18.49942
            ],
            [
              73.79587,
              18.49969
            ],
            [
              73.79585,
              18.50014
            ],
            [
              73.79567,
              18.50117
            ],
            [
              73.79445,
              18.50117
            ],
            [
              73.79445,
              18.5013
            ],
            [
              73.79167,
              18.50133
            ],
            [
              73.79228,
              18.50231
            ],
            [
              73.79249,
              18.50288
            ],
            [
              73.79255,
              18.50344
            ],
            [
              73.79252,
              18.50409
            ],
            [
              73.79246,
              18.5044
            ],
            [
              73.7923,
              18.50492
            ],
            [
              73.79204,
              18.5055
            ],
            [
              73.79173,
              18.50596
            ],
            [
              73.79131,
              18.50639
            ],
            [
              73.79092,
              18.50672
            ],
            [
              73.79044,
              18.50702
            ],
            [
              73.78966,
              18.50733
            ],
            [
              73.78947,
              18.50736
            ],
            [
              73.78939,
              18.50695
            ],
            [
              73.78932,
              18.50687
            ],
            [
              73.78927,
              18.50629
            ],
            [
              73.78881,
              18.50629
            ],
            [
              73.78887,
              18.50686
            ],
            [
              73.78872,
              18.50686
            ],
            [
              73.78845,
              18.5075
            ],
            [
              73.78796,
              18.50749
            ],
            [
              73.78695,
              18.50745
            ],
            [
              73.78634,
              18.50741
            ],
            [
              73.78566,
              18.50736
            ],
            [
              73.78475,
              18.50731
            ],
            [
              73.78338,
              18.50739
            ],
            [
              73.78287,
              18.50745
            ],
            [
              73.78191,
              18.50764
            ],
            [
              73.78106,
              18.50785
            ],
            [
              73.7795,
              18.50823
            ],
            [
              73.77826,
              18.50847
            ],
            [
              73.77674,
              18.50875
            ],
            [
              73.77516,
              18.50912
            ],
            [
              73.77463,
              18.50928
            ],
            [
              73.77408,
              18.50952
            ],
            [
              73.77329,
              18.51002
            ],
            [
              73.77272,
              18.51051
            ],
            [
              73.77203,
              18.51102
            ],
            [
              73.77098,
              18.51186
            ],
            [
              73.77016,
              18.51291
            ],
            [
              73.77003,
              18.51315
            ],
            [
              73.77084,
              18.51311
            ],
            [
              73.77146,
              18.51295
            ],
            [
              73.77198,
              18.51272
            ],
            [
              73.77217,
              18.51257
            ],
            [
              73.77229,
              18.5124
            ],
            [
              73.77257,
              18.51247
            ],
            [
              73.77363,
              18.51297
            ],
            [
              73.774,
              18.51319
            ],
            [
              73.77458,
              18.51324
            ],
            [
              73.77458,
              18.51351
            ],
            [
              73.77519,
              18.51434
            ],
            [
              73.77535,
              18.51466
            ],
            [
              73.77529,
              18.5148
            ],
            [
              73.77503,
              18.51494
            ],
            [
              73.77496,
              18.51507
            ],
            [
              73.77506,
              18.51531
            ],
            [
              73.77541,
              18.51545
            ],
            [
              73.77557,
              18.51554
            ],
            [
              73.77606,
              18.51627
            ],
            [
              73.77645,
              18.51665
            ],
            [
              73.77669,
              18.5169
            ],
            [
              73.77681,
              18.51759
            ],
            [
              73.77678,
              18.51823
            ],
            [
              73.77655,
              18.51911
            ],
            [
              73.7765,
              18.51922
            ],
            [
              73.776,
              18.51982
            ],
            [
              73.77651,
              18.52014
            ],
            [
              73.77701,
              18.51932
            ],
            [
              73.77715,
              18.51926
            ],
            [
              73.77819,
              18.51934
            ],
            [
              73.77817,
              18.51963
            ],
            [
              73.77881,
              18.51968
            ],
            [
              73.77889,
              18.51922
            ],
            [
              73.77911,
              18.51893
            ],
            [
              73.77993,
              18.51816
            ],
            [
              73.78101,
              18.51727
            ],
            [
              73.78138,
              18.51687
            ],
            [
              73.78235,
              18.51482
            ],
            [
              73.78265,
              18.51408
            ],
            [
              73.78262,
              18.51362
            ],
            [
              73.78229,
              18.51224
            ],
            [
              73.78346,
              18.51257
            ],
            [
              73.78388,
              18.51268
            ],
            [
              73.78625,
              18.51298
            ],
            [
              73.78823,
              18.51674
            ],
            [
              73.78962,
              18.51638
            ],
            [
              73.79002,
              18.51631
            ],
            [
              73.79099,
              18.51594
            ],
            [
              73.79139,
              18.51592
            ],
            [
              73.79233,
              18.51606
            ],
            [
              73.79231,
              18.51636
            ],
            [
              73.79272,
              18.51703
            ],
            [
              73.79321,
              18.51732
            ],
            [
              73.7937,
              18.51792
            ],
            [
              73.79468,
              18.51884
            ],
            [
              73.79529,
              18.51946
            ],
            [
              73.79548,
              18.51961
            ],
            [
              73.79631,
              18.52071
            ],
            [
              73.79708,
              18.52159
            ],
            [
              73.79794,
              18.52237
            ],
            [
              73.79849,
              18.5227
            ],
            [
              73.79893,
              18.52316
            ],
            [
              73.79984,
              18.52348
            ],
            [
              73.8008,
              18.52363
            ],
            [
              73.80166,
              18.52377
            ],
            [
              73.80203,
              18.52384
            ],
            [
              73.80238,
              18.52408
            ],
            [
              73.80304,
              18.52416
            ],
            [
              73.80371,
              18.52417
            ],
            [
              73.80427,
              18.5244
            ],
            [
              73.80502,
              18.52454
            ],
            [
              73.80603,
              18.5246
            ],
            [
              73.80603,
              18.52442
            ],
            [
              73.80597,
              18.52195
            ],
            [
              73.80593,
              18.52171
            ],
            [
              73.80588,
              18.52159
            ],
            [
              73.80589,
              18.5197
            ],
            [
              73.80589,
              18.51562
            ]
          ]
        ]
      }
    }
  ]
}
