<?xml version="1.0" encoding="UTF-8"?>
<kml xmlns="http://www.opengis.net/kml/2.2">
  <Document>
    <name>12 Aundh - Balewadi</name>
    <description>Part of OS-Bhugol open geographic data project</description>
    <Placemark>
      <name>12 Aundh - Balewadi</name>
      <ExtendedData>
        <Data name="ward_number"><value>12</value></Data>
        <Data name="ward_name_en"><value>12 Aundh - Balewadi</value></Data>
        <Data name="ward_name_mr"><value>प्रभाग १२ : औंध - बालेवाडी</value></Data>
        <Data name="entity_type"><value>ward</value></Data>
        <Data name="parent_municipality"><value>Pune Municipal Corporation</value></Data>
        <Data name="parent_municipality_mr"><value>पुणे महानगरपालिका</value></Data>
        <Data name="district"><value>Pune</value></Data>
        <Data name="district_mr"><value>पुणे</value></Data>
        <Data name="state"><value>Maharashtra</value></Data>
        <Data name="state_mr"><value>महाराष्ट्र</value></Data>
        <Data name="country"><value>India</value></Data>
        <Data name="country_mr"><value>भारत</value></Data>
        <Data name="area_sq_km"><value>12.2768</value></Data>
        <Data name="perimeter_km"><value>24.8958</value></Data>
        <Data name="author"><value>Nikhil VJ</value></Data>
        <Data name="source_url"><value>http://www.pmc.gov.in/sites/default/files/final_ward_maps/12_F_Ward.pdf</value></Data>
        <Data name="created_date"><value>2025-11-02</value></Data>
        <Data name="data_year"><value>2022</value></Data>
      </ExtendedData>
      <MultiGeometry>
      <Polygon>
        <outerBoundaryIs>
          <LinearRing>
            <tessellate>1</tessellate>
            <coordinates>
              73.76868,18.58726 73.76956,18.58721 73.77032,18.58729 73.77117,18.58745 73.77207,18.58772 73.77289,18.58798 73.77374,18.58826 73.77435,18.5884 73.77505,18.5884 73.77577,18.58831 73.77635,18.58798 73.77725,18.58724 73.77799,18.58646 73.77844,18.58565 73.77899,18.58432 73.77943,18.58297 73.77984,18.58154 73.78026,18.58025 73.78066,18.57895 73.78098,18.5782 73.78121,18.57788 73.78194,18.57725 73.7833,18.57619 73.78665,18.57356 73.78758,18.57303 73.78855,18.57244 73.78928,18.57199 73.7898,18.57093 73.78986,18.56965 73.78942,18.56847 73.78908,18.56834 73.78878,18.56824 73.78857,18.56804 73.78807,18.56679 73.78798,18.566 73.788,18.56513 73.78832,18.56461 73.78898,18.56406 73.79026,18.56373 73.79245,18.56328 73.79281,18.56336 73.79298,18.56353 73.79308,18.56383 73.79303,18.56409 73.79362,18.56446 73.79444,18.56501 73.79502,18.56574 73.79578,18.56662 73.79685,18.5674 73.79816,18.56826 73.79864,18.56852 73.80013,18.5692 73.80136,18.56944 73.8028,18.56939 73.80425,18.56919 73.80579,18.56878 73.80714,18.56844 73.80874,18.56801 73.81013,18.56786 73.81148,18.56786 73.81148,18.56724 73.81175,18.56656 73.81226,18.56518 73.81317,18.5633 73.81378,18.56185 73.81447,18.5608 73.81838,18.55579 73.82172,18.55109 73.82678,18.5442 73.82765,18.54309 73.82805,18.54273 73.8288,18.5422 73.82681,18.54186 73.82591,18.54176 73.82523,18.54172 73.82433,18.54167 73.82379,18.54153 73.82166,18.54101 73.81946,18.54026 73.81868,18.54017 73.81681,18.53999 73.81379,18.53976 73.81259,18.53967 73.81247,18.53966 73.81129,18.53952 73.81006,18.53926 73.80886,18.53902 73.80757,18.53865 73.80612,18.53824 73.80479,18.53936 73.80473,18.54413 73.80247,18.54406 73.80252,18.54621 73.80225,18.54628 73.80232,18.548 73.80459,18.54745 73.80497,18.55098 73.8049,18.55115 73.80485,18.55181 73.8047,18.55322 73.80463,18.55379 73.80443,18.55521 73.80475,18.55522 73.80446,18.55711 73.80431,18.55748 73.80395,18.55788 73.80367,18.55841 73.80353,18.55904 73.80329,18.55984 73.80316,18.56032 73.80303,18.56039 73.80297,18.56086 73.80054,18.5603 73.79986,18.56016 73.79925,18.56022 73.79898,18.56029 73.79878,18.56013 73.79858,18.56027 73.79829,18.56027 73.79811,18.56013 73.79786,18.55991 73.79756,18.55998 73.79751,18.56015 73.79737,18.56043 73.79703,18.56064 73.79649,18.56089 73.79598,18.56105 73.79585,18.56097 73.79562,18.56088 73.79538,18.56054 73.79536,18.56024 73.79555,18.5601 73.79584,18.5601 73.79605,18.5601 73.79622,18.55991 73.79643,18.55966 73.79688,18.55936 73.79709,18.55896 73.79757,18.55694 73.79768,18.55663 73.79781,18.55643 73.79808,18.5563 73.79836,18.55628 73.79879,18.55624 73.79901,18.55616 73.79911,18.55599 73.79915,18.55571 73.79894,18.55558 73.79813,18.55502 73.79731,18.55499 73.79724,18.55499 73.79664,18.55497 73.79612,18.55508 73.79552,18.55534 73.79498,18.55576 73.79435,18.55663 73.79377,18.55733 73.79331,18.55769 73.79242,18.55835 73.79155,18.5589 73.79107,18.5591 73.791,18.55912 73.79048,18.55927 73.78998,18.55945 73.78932,18.55976 73.78878,18.56007 73.78854,18.56038 73.78819,18.56067 73.78737,18.56131 73.78693,18.56149 73.78654,18.56155 73.78588,18.56159 73.78511,18.56168 73.78435,18.56184 73.78404,18.56214 73.78371,18.56283 73.78308,18.56339 73.78221,18.56389 73.78099,18.56424 73.78042,18.56422 73.77842,18.56422 73.7774,18.56421 73.77641,18.56434 73.77531,18.56454 73.772,18.56579 73.76985,18.56662 73.76861,18.56705 73.76826,18.56726 73.76792,18.56801 73.76713,18.56849 73.76525,18.56947 73.76358,18.56998 73.76265,18.57034 73.76259,18.57196 73.76244,18.57465 73.76235,18.5754 73.76228,18.5757 73.76251,18.57608 73.76253,18.57642 73.76239,18.57665 73.76235,18.57694 73.76205,18.57753 73.7619,18.57838 73.76177,18.58065 73.76163,18.58222 73.76136,18.58442 73.76102,18.58615 73.76097,18.58814 73.762,18.58852 73.76313,18.58852 73.76417,18.58837 73.76541,18.5881 73.76612,18.58793 73.76721,18.58756 73.76799,18.58735 73.76868,18.58726
            </coordinates>
          </LinearRing>
        </outerBoundaryIs>
      </Polygon>

      </MultiGeometry>
    </Placemark>
  </Document>
</kml>
