<?xml version="1.0" encoding="UTF-8"?>
<kml xmlns="http://www.opengis.net/kml/2.2">
  <Document>
    <name>25 Hadapsar Gaothan - Satavwadi</name>
    <description>Part of OS-Bhugol open geographic data project</description>
    <Placemark>
      <name>25 Hadapsar Gaothan - Satavwadi</name>
      <ExtendedData>
        <Data name="ward_number"><value>25</value></Data>
        <Data name="ward_name_en"><value>25 Hadapsar Gaothan - Satavwadi</value></Data>
        <Data name="ward_name_mr"><value>प्रभाग २५ : हडपसर गावठाण - सातववाडी</value></Data>
        <Data name="entity_type"><value>ward</value></Data>
        <Data name="parent_municipality"><value>Pune Municipal Corporation</value></Data>
        <Data name="parent_municipality_mr"><value>पुणे महानगरपालिका</value></Data>
        <Data name="district"><value>Pune</value></Data>
        <Data name="district_mr"><value>पुणे</value></Data>
        <Data name="state"><value>Maharashtra</value></Data>
        <Data name="state_mr"><value>महाराष्ट्र</value></Data>
        <Data name="country"><value>India</value></Data>
        <Data name="country_mr"><value>भारत</value></Data>
        <Data name="area_sq_km"><value>1.853</value></Data>
        <Data name="perimeter_km"><value>9.9114</value></Data>
        <Data name="author"><value>Nikhil VJ</value></Data>
        <Data name="source_url"><value>http://www.pmc.gov.in/sites/default/files/final_ward_maps/25_F_Ward.pdf</value></Data>
        <Data name="created_date"><value>2025-11-02</value></Data>
        <Data name="data_year"><value>2022</value></Data>
      </ExtendedData>
      <MultiGeometry>
      <Polygon>
        <outerBoundaryIs>
          <LinearRing>
            <tessellate>1</tessellate>
            <coordinates>
              73.93382,18.50147 73.93469,18.50135 73.93624,18.50111 73.9369,18.50106 73.93766,18.50101 73.93891,18.50084 73.94024,18.50063 73.94037,18.50061 73.94049,18.50059 73.94149,18.50044 73.94236,18.50033 73.94357,18.50019 73.94406,18.50011 73.94406,18.5001 73.94411,18.49839 73.94398,18.4982 73.94702,18.49781 73.94836,18.49769 73.94869,18.49765 73.95048,18.49747 73.95129,18.49735 73.95194,18.49723 73.95296,18.49687 73.95434,18.49629 73.95686,18.49522 73.95724,18.49503 73.95688,18.49336 73.95687,18.49327 73.95566,18.49343 73.95486,18.49353 73.95388,18.49362 73.95322,18.49369 73.95275,18.49372 73.9523,18.49372 73.95182,18.49371 73.95123,18.49375 73.9507,18.49381 73.95006,18.49387 73.95001,18.49358 73.94988,18.49322 73.94963,18.49252 73.9494,18.49182 73.94922,18.49126 73.94874,18.49189 73.94792,18.49302 73.94739,18.49368 73.94714,18.49394 73.94689,18.49414 73.94647,18.49445 73.94596,18.49478 73.94549,18.4951 73.94496,18.4955 73.94402,18.49619 73.94268,18.49714 73.94187,18.49774 73.94142,18.49813 73.94092,18.49856 73.94041,18.49836 73.94001,18.49817 73.93961,18.49794 73.9393,18.49768 73.93913,18.49742 73.93889,18.49714 73.9387,18.49697 73.93848,18.49684 73.93827,18.49684 73.93735,18.49698 73.93632,18.49721 73.93599,18.4973 73.93568,18.49738 73.93536,18.49733 73.93421,18.49707 73.9335,18.49693 73.93312,18.49689 73.93311,18.49663 73.9329,18.49604 73.9323,18.49315 73.93143,18.49325 73.92906,18.49332 73.9289,18.49216 73.9283,18.49275 73.92733,18.49374 73.92254,18.49855 73.92408,18.49887 73.92432,18.49878 73.92435,18.49929 73.92351,18.49978 73.92327,18.49977 73.92321,18.50067 73.92344,18.50155 73.92368,18.50133 73.92411,18.50173 73.92497,18.50185 73.92484,18.50202 73.92461,18.50255 73.9246,18.50277 73.92454,18.50323 73.92508,18.50309 73.92787,18.50235 73.92892,18.50204 73.92945,18.50187 73.92987,18.50178 73.93104,18.50165 73.93211,18.50156 73.93293,18.50154 73.93329,18.50151 73.93382,18.50147
            </coordinates>
          </LinearRing>
        </outerBoundaryIs>
      </Polygon>

      </MultiGeometry>
    </Placemark>
  </Document>
</kml>
