<?xml version="1.0" encoding="UTF-8"?>
<kml xmlns="http://www.opengis.net/kml/2.2">
  <Document>
    <name>Ward 18</name>
    <description>Part of OS-Bhugol open geographic data project</description>
    <Placemark>
      <name>Ward 18</name>
      <ExtendedData>
        <Data name="ward_number"><value>18</value></Data>
        <Data name="ward_name_en"><value>Ward 18</value></Data>
        <Data name="ward_name_mr"><value>प्रभाग १८</value></Data>
        <Data name="entity_type"><value>ward</value></Data>
        <Data name="parent_municipality"><value>Pune Municipal Corporation</value></Data>
        <Data name="parent_municipality_mr"><value>पुणे महानगरपालिका</value></Data>
        <Data name="district"><value>Pune</value></Data>
        <Data name="district_mr"><value>पुणे</value></Data>
        <Data name="state"><value>Maharashtra</value></Data>
        <Data name="state_mr"><value>महाराष्ट्र</value></Data>
        <Data name="country"><value>India</value></Data>
        <Data name="country_mr"><value>भारत</value></Data>
        <Data name="area_sq_km"><value>7.7863</value></Data>
        <Data name="perimeter_km"><value>17.4406</value></Data>
        <Data name="author"><value>Parisar</value></Data>
        <Data name="source_url"><value>https://data.opencity.in/dataset/pune-wards-info/resource/2badcc86-489c-4b7e-b7dd-a273ef01b798</value></Data>
        <Data name="created_date"><value>2025-11-02</value></Data>
        <Data name="data_year"><value>2025</value></Data>
      </ExtendedData>
      <MultiGeometry>
      <Polygon>
        <outerBoundaryIs>
          <LinearRing>
            <tessellate>1</tessellate>
            <coordinates>
              73.9009397528753,18.5230258525369 73.9062521442871,18.5151741709957 73.9067563636154,18.5154572235721 73.9069483068189,18.5155124797172 73.9070995335541,18.5155851844004 73.9072248981098,18.515590184723 73.907435003641,18.5155685066436 73.9077413824409,18.5155016002116 73.9080780448512,18.5153890839183 73.9083615220054,18.5152086563312 73.9087099753401,18.514951342826 73.9090859237856,18.5147925514045 73.9095638439948,18.5148131916674 73.910095880177,18.5150070149064 73.9101145953586,18.5143032629786 73.9108300622576,18.5148031088764 73.9133151201968,18.5157461002025 73.9143579569543,18.5159679800382 73.9151567258024,18.5159014158178 73.915164022645,18.5153995752608 73.9161009140765,18.5152898675828 73.9168896236854,18.5149741638875 73.9176579813858,18.5145582706618 73.9182819116254,18.5140895118641 73.9186699324354,18.5140846311721 73.9194376181406,18.5125851879019 73.9202516897586,18.5109437130495 73.9206191673383,18.5100737812109 73.9214458767299,18.5104613286065 73.9219025155153,18.5092735353119 73.9220262399438,18.5091350554929 73.9222694331214,18.5090778370893 73.923501526889,18.5089464261053 73.9242638630363,18.5084499949314 73.9244721335548,18.5081203145388 73.9247377573316,18.5076121138619 73.9247110434251,18.5058860994277 73.9246945125267,18.5031232119223 73.9246945128733,18.5031231799789 73.9243826358652,18.5032089797277 73.9174431648778,18.5051756575233 73.9150846113287,18.5057781341405 73.9136217584374,18.5061280370793 73.9124786319833,18.5062274400445 73.9122722834392,18.5027439205955 73.9116843003903,18.5024000063552 73.9113923067097,18.5008810145473 73.9103840830592,18.4987438647377 73.9110514987277,18.4987296644425 73.911429138444,18.49738551433 73.9118507109416,18.4963093954624 73.9114097238798,18.4946147858437 73.9113750550148,18.4934533811188 73.9115702393751,18.4867025558783 73.9116162334025,18.4852738685943 73.911442720905,18.484927650291 73.9115950327845,18.4839646589419 73.9108075998909,18.4835988740888 73.9100229737814,18.4830573563121 73.9090450359724,18.4804896012768 73.9081919360996,18.4782495618356 73.9056530831488,18.4781759706405 73.9053184622175,18.4780673868943 73.9042142762515,18.4778951014633 73.9031213799243,18.4779006264251 73.902797898292,18.4779935542242 73.9017926860778,18.4778810781704 73.9018477625815,18.4775227500261 73.9018027867444,18.4773962905338 73.9015487988618,18.4773414264188 73.9000049858943,18.4772393372985 73.8984250796066,18.4769647157312 73.8964388283135,18.4768469798667 73.8947476691019,18.4773649669474 73.8933161377901,18.477701227252 73.8937343995119,18.4783152443567 73.8936614245167,18.4793826455983 73.8941260002085,18.4799144180686 73.8945249649871,18.4821759073286 73.892887535431,18.4825003980788 73.8927710343559,18.4874026951783 73.8928018352367,18.4877287956476 73.8929056277926,18.4879757189045 73.8931180440626,18.4881398667616 73.89348312025,18.488185860789 73.8948111958801,18.4882059831197 73.8949664251605,18.4884072064277 73.8950497896162,18.4886314271988 73.8951219907874,18.489012753236 73.8957425733612,18.4896749150653 73.8958047803664,18.4897606933016 73.8958231777976,18.490719206926 73.8962427573974,18.4910806048861 73.8964123596427,18.4913910634469 73.8964236911004,18.4917484081626 73.8966784420566,18.4922651280334 73.8971455679137,18.4926154733255 73.89734319843,18.492898444108 73.8971186188293,18.4934733681015 73.8968491225891,18.4939719351567 73.8964927599331,18.4939264978097 73.8962741985955,18.4940123596827 73.8962247907415,18.4941426156892 73.8962450030045,18.4950945534709 73.8959712961384,18.4961683251083 73.8965813602417,18.4967203177389 73.8981052335698,18.4978736510483 73.8983936776262,18.498195377215 73.8983271134057,18.4985947616393 73.8985268060674,18.4990052400999 73.8987902885411,18.4993470742085 73.8987556196762,18.5000231152746 73.8987729541086,18.5007164907735 73.898998300831,18.5014445351373 73.8990503041284,18.5024499295207 73.8996916763299,18.5032819804791 73.8996743418975,18.5043047092949 73.9039406825166,18.5041750477404 73.9038093293373,18.5049707103302 73.9035821237162,18.50537541964 73.9031987148489,18.5056381259987 73.902454085188,18.5065713542846 73.899514172641,18.5065269781376 73.899535029718,18.5070652592544 73.8996557322264,18.5072995650229 73.8999255387328,18.5074344678266 73.9001030424215,18.5075977721197 73.9001101425692,18.5078107765462 73.8999610394704,18.5081657848232 73.8999900075328,18.5090260412189 73.900162683661,18.5092532468402 73.9002353893519,18.5095213491311 73.9001953443398,18.5097278217816 73.9000462412412,18.5100615296162 73.9000249407986,18.5103952374503 73.9002592461589,18.5109277493436 73.9003302482444,18.5128873956633 73.899885493736,18.5136655737244 73.8995628620698,18.5142290428071 73.899272039266,18.5142926601137 73.8981996300466,18.5153559806171 73.8980678506475,18.5156286270333 73.898004233497,18.5159285385009 73.8980133217427,18.516246625857 73.898149644931,18.5164738317843 73.8982950559774,18.5166783157192 73.8983723062852,18.5169464180117 73.8983495859013,18.5182823815215 73.8983915967552,18.5186229153218 73.8987902876741,18.5187789241961 73.8993796585624,18.5187442564644 73.9004197204875,18.520148340836 73.9006103984416,18.5212404085624 73.9004370551298,18.5215870962822 73.9004370550624,18.5222978052757 73.9009397528753,18.5230258525369
            </coordinates>
          </LinearRing>
        </outerBoundaryIs>
      </Polygon>

      </MultiGeometry>
    </Placemark>
  </Document>
</kml>
