{
  "type": "FeatureCollection",
  "features": [
    {
      "type": "Feature",
      "properties": {
        "ward_number": 42,
        "ward_name_en": "42 Ramtekadi - Sayyadnagar",
        "ward_name_mr": "प्रभाग ४२ : रामटेकडी - सय्यदनगर",
        "entity_type": "ward",
        "parent_municipality": "Pune Municipal Corporation",
        "parent_municipality_mr": "पुणे महानगरपालिका",
        "district": "Pune",
        "district_mr": "पुणे",
        "state": "Maharashtra",
        "state_mr": "महाराष्ट्र",
        "country": "India",
        "country_mr": "भारत",
        "area_sq_km": 8.103,
        "perimeter_km": 18.0026,
        "author": "Nikhil VJ",
        "added_by": "mahanvyakti",
        "source_url": "http://www.pmc.gov.in/sites/default/files/final_ward_maps/42_F_Ward.pdf",
        "created_date": "2025-11-02",
        "data_year": 2022
      },
      "geometry": {
        "type": "Polygon",
        "coordinates": [
          [
            [
              73.92168,
              18.49931
            ],
            [
              73.92234,
              18.49865
            ],
            [
              73.92247,
              18.49852
            ],
            [
              73.92254,
              18.49855
            ],
            [
              73.92733,
              18.49374
            ],
            [
              73.9283,
              18.49275
            ],
            [
              73.9289,
              18.49216
            ],
            [
              73.93045,
              18.49056
            ],
            [
              73.93165,
              18.48936
            ],
            [
              73.93211,
              18.48893
            ],
            [
              73.93203,
              18.4888
            ],
            [
              73.93176,
              18.48464
            ],
            [
              73.93166,
              18.48317
            ],
            [
              73.93153,
              18.48248
            ],
            [
              73.93136,
              18.48135
            ],
            [
              73.93137,
              18.48078
            ],
            [
              73.92942,
              18.48083
            ],
            [
              73.92948,
              18.48159
            ],
            [
              73.92959,
              18.48183
            ],
            [
              73.92962,
              18.48296
            ],
            [
              73.92896,
              18.48302
            ],
            [
              73.92862,
              18.48314
            ],
            [
              73.9281,
              18.48341
            ],
            [
              73.92755,
              18.48351
            ],
            [
              73.927,
              18.48358
            ],
            [
              73.92696,
              18.48338
            ],
            [
              73.92667,
              18.48286
            ],
            [
              73.92664,
              18.48272
            ],
            [
              73.92671,
              18.48244
            ],
            [
              73.92668,
              18.48224
            ],
            [
              73.92643,
              18.48201
            ],
            [
              73.92626,
              18.48163
            ],
            [
              73.92621,
              18.48152
            ],
            [
              73.92618,
              18.48104
            ],
            [
              73.92626,
              18.48055
            ],
            [
              73.92627,
              18.4803
            ],
            [
              73.92619,
              18.48002
            ],
            [
              73.92561,
              18.4793
            ],
            [
              73.92495,
              18.47857
            ],
            [
              73.92401,
              18.47899
            ],
            [
              73.92377,
              18.47901
            ],
            [
              73.92335,
              18.47857
            ],
            [
              73.92278,
              18.47791
            ],
            [
              73.92267,
              18.4777
            ],
            [
              73.92259,
              18.47745
            ],
            [
              73.92262,
              18.477
            ],
            [
              73.92271,
              18.47654
            ],
            [
              73.9227,
              18.47615
            ],
            [
              73.92267,
              18.47598
            ],
            [
              73.92256,
              18.47572
            ],
            [
              73.92221,
              18.47574
            ],
            [
              73.92122,
              18.47542
            ],
            [
              73.92034,
              18.47514
            ],
            [
              73.91982,
              18.475
            ],
            [
              73.91919,
              18.47492
            ],
            [
              73.9185,
              18.47497
            ],
            [
              73.91794,
              18.47507
            ],
            [
              73.91747,
              18.47515
            ],
            [
              73.91658,
              18.47517
            ],
            [
              73.91629,
              18.47524
            ],
            [
              73.91574,
              18.47524
            ],
            [
              73.91541,
              18.47497
            ],
            [
              73.91533,
              18.47495
            ],
            [
              73.91505,
              18.47491
            ],
            [
              73.91515,
              18.47483
            ],
            [
              73.91556,
              18.47461
            ],
            [
              73.91607,
              18.47437
            ],
            [
              73.91583,
              18.47418
            ],
            [
              73.91544,
              18.47402
            ],
            [
              73.91516,
              18.47388
            ],
            [
              73.91468,
              18.4734
            ],
            [
              73.91443,
              18.47308
            ],
            [
              73.91455,
              18.47298
            ],
            [
              73.91559,
              18.47259
            ],
            [
              73.91592,
              18.47244
            ],
            [
              73.91696,
              18.47187
            ],
            [
              73.91671,
              18.4716
            ],
            [
              73.91631,
              18.47088
            ],
            [
              73.91616,
              18.47052
            ],
            [
              73.91585,
              18.4703
            ],
            [
              73.91554,
              18.47016
            ],
            [
              73.91515,
              18.47003
            ],
            [
              73.91497,
              18.46991
            ],
            [
              73.91491,
              18.46968
            ],
            [
              73.91483,
              18.46897
            ],
            [
              73.91475,
              18.46873
            ],
            [
              73.91461,
              18.4686
            ],
            [
              73.91426,
              18.46846
            ],
            [
              73.91396,
              18.46841
            ],
            [
              73.91367,
              18.46821
            ],
            [
              73.91349,
              18.4679
            ],
            [
              73.9134,
              18.46768
            ],
            [
              73.91319,
              18.46738
            ],
            [
              73.9131,
              18.46705
            ],
            [
              73.91314,
              18.46654
            ],
            [
              73.91288,
              18.46661
            ],
            [
              73.91226,
              18.46676
            ],
            [
              73.91198,
              18.46678
            ],
            [
              73.91173,
              18.46669
            ],
            [
              73.91153,
              18.46654
            ],
            [
              73.91127,
              18.46647
            ],
            [
              73.9107,
              18.46643
            ],
            [
              73.91019,
              18.46626
            ],
            [
              73.90993,
              18.46615
            ],
            [
              73.90944,
              18.46608
            ],
            [
              73.90927,
              18.46601
            ],
            [
              73.9091,
              18.46584
            ],
            [
              73.90901,
              18.46574
            ],
            [
              73.9089,
              18.46561
            ],
            [
              73.9087,
              18.46564
            ],
            [
              73.90851,
              18.46568
            ],
            [
              73.90823,
              18.46562
            ],
            [
              73.90801,
              18.46551
            ],
            [
              73.90774,
              18.46519
            ],
            [
              73.90753,
              18.46466
            ],
            [
              73.90734,
              18.46405
            ],
            [
              73.90721,
              18.46335
            ],
            [
              73.90432,
              18.46344
            ],
            [
              73.90449,
              18.46422
            ],
            [
              73.90458,
              18.46498
            ],
            [
              73.90348,
              18.46507
            ],
            [
              73.90284,
              18.46512
            ],
            [
              73.90252,
              18.46555
            ],
            [
              73.90228,
              18.46599
            ],
            [
              73.89975,
              18.46499
            ],
            [
              73.89871,
              18.46503
            ],
            [
              73.89805,
              18.46494
            ],
            [
              73.89549,
              18.46474
            ],
            [
              73.8943,
              18.4647
            ],
            [
              73.89358,
              18.46476
            ],
            [
              73.89288,
              18.46476
            ],
            [
              73.89235,
              18.46467
            ],
            [
              73.89166,
              18.46462
            ],
            [
              73.8902,
              18.4647
            ],
            [
              73.8899,
              18.46463
            ],
            [
              73.88967,
              18.46458
            ],
            [
              73.88958,
              18.46468
            ],
            [
              73.88965,
              18.46468
            ],
            [
              73.88949,
              18.4655
            ],
            [
              73.88941,
              18.46598
            ],
            [
              73.88928,
              18.46672
            ],
            [
              73.88904,
              18.46771
            ],
            [
              73.88897,
              18.46831
            ],
            [
              73.88896,
              18.46893
            ],
            [
              73.8889,
              18.47009
            ],
            [
              73.88893,
              18.47113
            ],
            [
              73.88901,
              18.47215
            ],
            [
              73.88912,
              18.47339
            ],
            [
              73.88945,
              18.47341
            ],
            [
              73.89092,
              18.47342
            ],
            [
              73.8916,
              18.47343
            ],
            [
              73.8916,
              18.47318
            ],
            [
              73.89164,
              18.47309
            ],
            [
              73.89168,
              18.47301
            ],
            [
              73.89205,
              18.47304
            ],
            [
              73.89279,
              18.47308
            ],
            [
              73.89276,
              18.47284
            ],
            [
              73.89388,
              18.4729
            ],
            [
              73.89511,
              18.47293
            ],
            [
              73.89607,
              18.47293
            ],
            [
              73.89604,
              18.47473
            ],
            [
              73.89791,
              18.47456
            ],
            [
              73.89841,
              18.47452
            ],
            [
              73.89853,
              18.47419
            ],
            [
              73.90066,
              18.47442
            ],
            [
              73.90067,
              18.47414
            ],
            [
              73.90118,
              18.47423
            ],
            [
              73.90502,
              18.47472
            ],
            [
              73.90636,
              18.47491
            ],
            [
              73.90702,
              18.47499
            ],
            [
              73.90739,
              18.4763
            ],
            [
              73.90757,
              18.47674
            ],
            [
              73.90785,
              18.47715
            ],
            [
              73.90831,
              18.47831
            ],
            [
              73.90851,
              18.47882
            ],
            [
              73.90921,
              18.48089
            ],
            [
              73.91005,
              18.48288
            ],
            [
              73.91024,
              18.48319
            ],
            [
              73.91048,
              18.48332
            ],
            [
              73.91114,
              18.48369
            ],
            [
              73.9118,
              18.48394
            ],
            [
              73.9116,
              18.48492
            ],
            [
              73.91174,
              18.48528
            ],
            [
              73.9116,
              18.49162
            ],
            [
              73.91144,
              18.49307
            ],
            [
              73.91145,
              18.49358
            ],
            [
              73.91158,
              18.49465
            ],
            [
              73.91161,
              18.49495
            ],
            [
              73.91195,
              18.49643
            ],
            [
              73.91137,
              18.49794
            ],
            [
              73.91116,
              18.49885
            ],
            [
              73.91045,
              18.4988
            ],
            [
              73.91133,
              18.50066
            ],
            [
              73.91143,
              18.50087
            ],
            [
              73.91152,
              18.50129
            ],
            [
              73.91176,
              18.50255
            ],
            [
              73.91241,
              18.50277
            ],
            [
              73.91253,
              18.50495
            ],
            [
              73.91256,
              18.50638
            ],
            [
              73.91294,
              18.50635
            ],
            [
              73.91349,
              18.50629
            ],
            [
              73.91414,
              18.50619
            ],
            [
              73.91482,
              18.50601
            ],
            [
              73.91515,
              18.50593
            ],
            [
              73.91678,
              18.50427
            ],
            [
              73.91806,
              18.50298
            ],
            [
              73.91873,
              18.5023
            ],
            [
              73.92168,
              18.49931
            ]
          ]
        ]
      }
    }
  ]
}
