{
  "type": "FeatureCollection",
  "features": [
    {
      "type": "Feature",
      "properties": {
        "ward_number": 20,
        "ward_name_en": "Ward 20",
        "ward_name_mr": "प्रभाग २०",
        "entity_type": "ward",
        "parent_municipality": "Pune Municipal Corporation",
        "parent_municipality_mr": "पुणे महानगरपालिका",
        "district": "Pune",
        "district_mr": "पुणे",
        "state": "Maharashtra",
        "state_mr": "महाराष्ट्र",
        "country": "India",
        "country_mr": "भारत",
        "area_sq_km": 3.8123,
        "perimeter_km": 10.6822,
        "author": "Parisar",
        "added_by": "mahanvyakti",
        "source_url": "https://data.opencity.in/dataset/pune-wards-info/resource/2badcc86-489c-4b7e-b7dd-a273ef01b798",
        "created_date": "2025-11-02",
        "data_year": 2025
      },
      "geometry": {
        "type": "Polygon",
        "coordinates": [
          [
            [
              73.8624646198816,
              18.4844956381556
            ],
            [
              73.8624598928459,
              18.4822826512438
            ],
            [
              73.8640058751836,
              18.4823103717966
            ],
            [
              73.8651547590229,
              18.48247401014
            ],
            [
              73.8653562902571,
              18.4826872931935
            ],
            [
              73.8670035083189,
              18.4827805097234
            ],
            [
              73.8669961464139,
              18.4837126240345
            ],
            [
              73.8681666351468,
              18.4836608470592
            ],
            [
              73.8682037115549,
              18.483062683835
            ],
            [
              73.8683155532157,
              18.4829085035754
            ],
            [
              73.8683097279946,
              18.4807051837695
            ],
            [
              73.8705989910145,
              18.4804411218098
            ],
            [
              73.8721500440442,
              18.4808894412465
            ],
            [
              73.8738441790219,
              18.4810352007894
            ],
            [
              73.8751312042361,
              18.4812559488294
            ],
            [
              73.8764518131719,
              18.481701791461
            ],
            [
              73.8771962995595,
              18.4821887972002
            ],
            [
              73.8773496081474,
              18.4822841260044
            ],
            [
              73.8779983566141,
              18.4822774787067
            ],
            [
              73.8780941618159,
              18.4810715694549
            ],
            [
              73.8778839219685,
              18.4795873004833
            ],
            [
              73.8766882564113,
              18.4794996415058
            ],
            [
              73.876874056634,
              18.4776442365138
            ],
            [
              73.8769831840922,
              18.4743926387722
            ],
            [
              73.8772929293682,
              18.4741007234758
            ],
            [
              73.8774081941803,
              18.4732830991356
            ],
            [
              73.8777177868823,
              18.4718283939719
            ],
            [
              73.8762731908552,
              18.4718865111537
            ],
            [
              73.8748537764807,
              18.4721803952091
            ],
            [
              73.8737028124348,
              18.4721014248412
            ],
            [
              73.8736677146172,
              18.4711276767761
            ],
            [
              73.8737760731028,
              18.4696458889251
            ],
            [
              73.8720806608575,
              18.4695955196584
            ],
            [
              73.8720824162784,
              18.4693269578068
            ],
            [
              73.8705924530714,
              18.469493730119
            ],
            [
              73.8699530789755,
              18.4694813242131
            ],
            [
              73.8699439587759,
              18.4681233689935
            ],
            [
              73.8697800777106,
              18.4677055677222
            ],
            [
              73.8703906524844,
              18.4673009781515
            ],
            [
              73.8703867755943,
              18.466087277051
            ],
            [
              73.8705648621345,
              18.464678333783
            ],
            [
              73.8694751504044,
              18.4645442657037
            ],
            [
              73.8691576604952,
              18.4646766579422
            ],
            [
              73.867824042921,
              18.4645268908048
            ],
            [
              73.867514508188,
              18.4645744383597
            ],
            [
              73.8662723717726,
              18.4648245290289
            ],
            [
              73.86448494436,
              18.4648354943108
            ],
            [
              73.8644599418076,
              18.4665518632022
            ],
            [
              73.8644014581637,
              18.466865936418
            ],
            [
              73.8632674994386,
              18.4667783316025
            ],
            [
              73.8614626000145,
              18.4664724362577
            ],
            [
              73.8611251506135,
              18.4678079112539
            ],
            [
              73.8607842726304,
              18.4679830672334
            ],
            [
              73.8590803031784,
              18.4679676049183
            ],
            [
              73.8576669414516,
              18.4679537894157
            ],
            [
              73.8575984151349,
              18.4686296649272
            ],
            [
              73.8562908521412,
              18.473457693318
            ],
            [
              73.8562422635696,
              18.4745602090865
            ],
            [
              73.856289114651,
              18.4762468453157
            ],
            [
              73.8570751239179,
              18.4774796125942
            ],
            [
              73.8571587860492,
              18.4827398920325
            ],
            [
              73.8575248092228,
              18.4847896232427
            ],
            [
              73.8574753786507,
              18.4871079737011
            ],
            [
              73.8574274316155,
              18.4893565926791
            ],
            [
              73.8632436846999,
              18.4894518100425
            ],
            [
              73.8631024409806,
              18.4888885021243
            ],
            [
              73.8631914362023,
              18.4881242980391
            ],
            [
              73.8628414491859,
              18.4855586459828
            ],
            [
              73.8625958197746,
              18.4852916159504
            ],
            [
              73.8624646198816,
              18.4844956381556
            ]
          ]
        ]
      }
    }
  ]
}