<?xml version="1.0" encoding="UTF-8"?>
<kml xmlns="http://www.opengis.net/kml/2.2">
  <Document>
    <name>36 Karvenagar</name>
    <description>Part of OS-Bhugol open geographic data project</description>
    <Placemark>
      <name>36 Karvenagar</name>
      <ExtendedData>
        <Data name="ward_number"><value>36</value></Data>
        <Data name="ward_name_en"><value>36 Karvenagar</value></Data>
        <Data name="ward_name_mr"><value>प्रभाग ३६ : कर्वेनगर</value></Data>
        <Data name="entity_type"><value>ward</value></Data>
        <Data name="parent_municipality"><value>Pune Municipal Corporation</value></Data>
        <Data name="parent_municipality_mr"><value>पुणे महानगरपालिका</value></Data>
        <Data name="district"><value>Pune</value></Data>
        <Data name="district_mr"><value>पुणे</value></Data>
        <Data name="state"><value>Maharashtra</value></Data>
        <Data name="state_mr"><value>महाराष्ट्र</value></Data>
        <Data name="country"><value>India</value></Data>
        <Data name="country_mr"><value>भारत</value></Data>
        <Data name="area_sq_km"><value>2.6364</value></Data>
        <Data name="perimeter_km"><value>7.9377</value></Data>
        <Data name="author"><value>Nikhil VJ</value></Data>
        <Data name="source_url"><value>http://www.pmc.gov.in/sites/default/files/final_ward_maps/36_F_Ward.pdf</value></Data>
        <Data name="created_date"><value>2025-11-02</value></Data>
        <Data name="data_year"><value>2022</value></Data>
      </ExtendedData>
      <MultiGeometry>
      <Polygon>
        <outerBoundaryIs>
          <LinearRing>
            <tessellate>1</tessellate>
            <coordinates>
              73.82467,18.49017 73.82523,18.49003 73.82599,18.48998 73.82682,18.49 73.82715,18.48978 73.82667,18.48906 73.82787,18.48849 73.82738,18.48745 73.82648,18.48522 73.82618,18.48469 73.82602,18.48436 73.82512,18.48332 73.82459,18.48294 73.82418,18.48275 73.82357,18.48268 73.82319,18.48266 73.82232,18.48275 73.82175,18.48276 73.82081,18.48272 73.82005,18.48266 73.81949,18.4825 73.81886,18.48225 73.81791,18.48186 73.8173,18.48149 73.81645,18.48098 73.81559,18.48059 73.81427,18.48006 73.81292,18.47951 73.81231,18.47922 73.81171,18.47875 73.8112,18.478 73.8105,18.47668 73.80979,18.47528 73.80947,18.4746 73.80936,18.47458 73.80913,18.4748 73.80867,18.47534 73.80654,18.47774 73.80462,18.47989 73.80427,18.48031 73.80515,18.48034 73.80556,18.48041 73.80572,18.48049 73.80591,18.48067 73.80605,18.48083 73.80693,18.4815 73.80753,18.48199 73.80944,18.48335 73.8098,18.48378 73.81013,18.48428 73.80983,18.48444 73.80974,18.48458 73.80953,18.48494 73.80932,18.4853 73.80896,18.48577 73.80787,18.48711 73.80763,18.48719 73.80758,18.48727 73.80733,18.48778 73.80708,18.48845 73.80686,18.48891 73.80685,18.48907 73.80683,18.48927 73.80676,18.48937 73.80693,18.49018 73.80748,18.49116 73.80783,18.49168 73.80786,18.49174 73.80823,18.49185 73.80852,18.49202 73.80868,18.49225 73.80915,18.49229 73.81049,18.49232 73.81233,18.49245 73.8134,18.49254 73.81518,18.49329 73.81609,18.49355 73.81742,18.49388 73.81777,18.49404 73.81794,18.49436 73.81821,18.49461 73.81846,18.49422 73.81852,18.49386 73.81844,18.49279 73.8204,18.49219 73.82145,18.49173 73.82315,18.49088 73.82434,18.49033 73.82467,18.49017
            </coordinates>
          </LinearRing>
        </outerBoundaryIs>
      </Polygon>

      </MultiGeometry>
    </Placemark>
  </Document>
</kml>
