{
  "type": "FeatureCollection",
  "features": [
    {
      "type": "Feature",
      "properties": {
        "ward_number": 6,
        "ward_name_en": "6 Vadgaon Sheri - Ramwadi",
        "ward_name_mr": "प्रभाग ०६ : वडगाव शेरी - रामवाडी",
        "entity_type": "ward",
        "parent_municipality": "Pune Municipal Corporation",
        "parent_municipality_mr": "पुणे महानगरपालिका",
        "district": "Pune",
        "district_mr": "पुणे",
        "state": "Maharashtra",
        "state_mr": "महाराष्ट्र",
        "country": "India",
        "country_mr": "भारत",
        "area_sq_km": 3.3712,
        "perimeter_km": 10.2228,
        "author": "Nikhil VJ",
        "added_by": "mahanvyakti",
        "source_url": "http://www.pmc.gov.in/sites/default/files/final_ward_maps/6_F_Ward.pdf",
        "created_date": "2025-11-02",
        "data_year": 2022
      },
      "geometry": {
        "type": "Polygon",
        "coordinates": [
          [
            [
              73.9226,
              18.55611
            ],
            [
              73.92308,
              18.556
            ],
            [
              73.92309,
              18.55614
            ],
            [
              73.92562,
              18.55586
            ],
            [
              73.92572,
              18.55584
            ],
            [
              73.92563,
              18.55545
            ],
            [
              73.9263,
              18.55535
            ],
            [
              73.92596,
              18.55339
            ],
            [
              73.92687,
              18.55335
            ],
            [
              73.92691,
              18.5533
            ],
            [
              73.92691,
              18.55323
            ],
            [
              73.92734,
              18.55327
            ],
            [
              73.92731,
              18.55282
            ],
            [
              73.92866,
              18.55281
            ],
            [
              73.92893,
              18.55089
            ],
            [
              73.92902,
              18.5503
            ],
            [
              73.92913,
              18.54991
            ],
            [
              73.92949,
              18.54897
            ],
            [
              73.92978,
              18.54823
            ],
            [
              73.92994,
              18.5477
            ],
            [
              73.92998,
              18.54737
            ],
            [
              73.93065,
              18.54546
            ],
            [
              73.93134,
              18.54276
            ],
            [
              73.9316,
              18.54153
            ],
            [
              73.93182,
              18.53993
            ],
            [
              73.9335,
              18.53997
            ],
            [
              73.93419,
              18.53996
            ],
            [
              73.93462,
              18.5399
            ],
            [
              73.93377,
              18.53603
            ],
            [
              73.93235,
              18.53614
            ],
            [
              73.93192,
              18.53614
            ],
            [
              73.93131,
              18.53631
            ],
            [
              73.93049,
              18.53653
            ],
            [
              73.92838,
              18.53728
            ],
            [
              73.92705,
              18.53771
            ],
            [
              73.92633,
              18.53798
            ],
            [
              73.9256,
              18.53824
            ],
            [
              73.92425,
              18.53864
            ],
            [
              73.92345,
              18.53883
            ],
            [
              73.92259,
              18.53899
            ],
            [
              73.92282,
              18.54024
            ],
            [
              73.92329,
              18.5411
            ],
            [
              73.92343,
              18.5421
            ],
            [
              73.92345,
              18.54223
            ],
            [
              73.92367,
              18.54235
            ],
            [
              73.92355,
              18.54288
            ],
            [
              73.92338,
              18.54319
            ],
            [
              73.92336,
              18.54322
            ],
            [
              73.92315,
              18.54362
            ],
            [
              73.92288,
              18.54408
            ],
            [
              73.92253,
              18.54455
            ],
            [
              73.92221,
              18.54531
            ],
            [
              73.92193,
              18.5459
            ],
            [
              73.9217,
              18.5462
            ],
            [
              73.921,
              18.54744
            ],
            [
              73.92056,
              18.54793
            ],
            [
              73.91993,
              18.54859
            ],
            [
              73.91947,
              18.54888
            ],
            [
              73.91901,
              18.54919
            ],
            [
              73.91882,
              18.54917
            ],
            [
              73.91767,
              18.5493
            ],
            [
              73.91463,
              18.5495
            ],
            [
              73.91349,
              18.54961
            ],
            [
              73.9132,
              18.54964
            ],
            [
              73.9131,
              18.54979
            ],
            [
              73.91303,
              18.55003
            ],
            [
              73.91305,
              18.55084
            ],
            [
              73.91302,
              18.55104
            ],
            [
              73.91291,
              18.55115
            ],
            [
              73.91275,
              18.55115
            ],
            [
              73.91255,
              18.5512
            ],
            [
              73.91214,
              18.5514
            ],
            [
              73.91175,
              18.55161
            ],
            [
              73.91141,
              18.55173
            ],
            [
              73.91088,
              18.55177
            ],
            [
              73.91002,
              18.55177
            ],
            [
              73.90952,
              18.55177
            ],
            [
              73.9094,
              18.55181
            ],
            [
              73.90921,
              18.55204
            ],
            [
              73.90903,
              18.55222
            ],
            [
              73.90874,
              18.55235
            ],
            [
              73.90814,
              18.55235
            ],
            [
              73.90781,
              18.55241
            ],
            [
              73.906,
              18.55244
            ],
            [
              73.90613,
              18.55412
            ],
            [
              73.90611,
              18.55465
            ],
            [
              73.90613,
              18.5549
            ],
            [
              73.90622,
              18.55532
            ],
            [
              73.90685,
              18.55574
            ],
            [
              73.90783,
              18.55661
            ],
            [
              73.90929,
              18.55753
            ],
            [
              73.90915,
              18.55779
            ],
            [
              73.90917,
              18.55783
            ],
            [
              73.91075,
              18.55864
            ],
            [
              73.91168,
              18.55901
            ],
            [
              73.91358,
              18.55961
            ],
            [
              73.91545,
              18.56031
            ],
            [
              73.91703,
              18.56082
            ],
            [
              73.91884,
              18.56134
            ],
            [
              73.92021,
              18.56169
            ],
            [
              73.92088,
              18.56188
            ],
            [
              73.92093,
              18.56189
            ],
            [
              73.92097,
              18.56171
            ],
            [
              73.9213,
              18.56073
            ],
            [
              73.92128,
              18.56019
            ],
            [
              73.92116,
              18.55955
            ],
            [
              73.92097,
              18.55885
            ],
            [
              73.92101,
              18.55867
            ],
            [
              73.92119,
              18.55845
            ],
            [
              73.92132,
              18.55825
            ],
            [
              73.92134,
              18.55697
            ],
            [
              73.92118,
              18.55658
            ],
            [
              73.92197,
              18.55632
            ],
            [
              73.9226,
              18.55611
            ]
          ]
        ]
      }
    }
  ]
}