<?xml version="1.0" encoding="UTF-8"?>
<kml xmlns="http://www.opengis.net/kml/2.2">
  <Document>
    <name>52 Nanded City - Sun City</name>
    <description>Part of OS-Bhugol open geographic data project</description>
    <Placemark>
      <name>52 Nanded City - Sun City</name>
      <ExtendedData>
        <Data name="ward_number"><value>52</value></Data>
        <Data name="ward_name_en"><value>52 Nanded City - Sun City</value></Data>
        <Data name="ward_name_mr"><value>प्रभाग ५२ : नांदेड सिटी - सन सिटी</value></Data>
        <Data name="entity_type"><value>ward</value></Data>
        <Data name="parent_municipality"><value>Pune Municipal Corporation</value></Data>
        <Data name="parent_municipality_mr"><value>पुणे महानगरपालिका</value></Data>
        <Data name="district"><value>Pune</value></Data>
        <Data name="district_mr"><value>पुणे</value></Data>
        <Data name="state"><value>Maharashtra</value></Data>
        <Data name="state_mr"><value>महाराष्ट्र</value></Data>
        <Data name="country"><value>India</value></Data>
        <Data name="country_mr"><value>भारत</value></Data>
        <Data name="area_sq_km"><value>6.2484</value></Data>
        <Data name="perimeter_km"><value>17.3286</value></Data>
        <Data name="author"><value>Nikhil VJ</value></Data>
        <Data name="source_url"><value>http://www.pmc.gov.in/sites/default/files/final_ward_maps/52_F_Ward.pdf</value></Data>
        <Data name="created_date"><value>2025-11-02</value></Data>
        <Data name="data_year"><value>2022</value></Data>
      </ExtendedData>
      <MultiGeometry>
      <Polygon>
        <outerBoundaryIs>
          <LinearRing>
            <tessellate>1</tessellate>
            <coordinates>
              73.83027,18.48729 73.83019,18.48722 73.82988,18.48697 73.82968,18.48673 73.82953,18.48648 73.82941,18.48612 73.82935,18.48575 73.82931,18.48551 73.82929,18.48496 73.82931,18.4848 73.82953,18.48402 73.8297,18.48368 73.83013,18.48316 73.83086,18.48238 73.83114,18.48214 73.83136,18.48196 73.83158,18.48181 73.83182,18.48168 73.83201,18.4815 73.83218,18.48118 73.83239,18.48065 73.83248,18.48025 73.83247,18.47988 73.83211,18.47894 73.83176,18.47827 73.83095,18.47862 73.83017,18.47887 73.8295,18.47907 73.82907,18.47908 73.82893,18.47909 73.82865,18.47931 73.82855,18.47936 73.82831,18.47943 73.8282,18.47953 73.82814,18.47963 73.82799,18.4791 73.82777,18.47864 73.82772,18.47843 73.82771,18.47825 73.82767,18.47819 73.82735,18.47835 73.82708,18.47841 73.82684,18.47848 73.82667,18.47854 73.8265,18.4788 73.82635,18.47883 73.82625,18.47885 73.82627,18.47892 73.82643,18.47918 73.82558,18.47973 73.82504,18.48008 73.82489,18.4799 73.82475,18.47972 73.82417,18.47855 73.82371,18.47768 73.82339,18.47708 73.82281,18.4758 73.82254,18.47512 73.8223,18.47456 73.82183,18.47362 73.82165,18.47327 73.82115,18.47194 73.82009,18.46935 73.81877,18.4677 73.81786,18.46685 73.81752,18.4666 73.81686,18.46617 73.81651,18.4657 73.81596,18.46486 73.81539,18.46375 73.81491,18.46283 73.8147,18.46239 73.81441,18.46204 73.81377,18.46151 73.81315,18.46118 73.8128,18.46096 73.81234,18.4607 73.81143,18.46001 73.81059,18.45973 73.80987,18.45951 73.80968,18.45932 73.80915,18.45875 73.80884,18.45848 73.80797,18.45811 73.80689,18.45789 73.80562,18.45766 73.80481,18.45751 73.80398,18.45731 73.80312,18.45727 73.80204,18.45722 73.80125,18.45699 73.80035,18.45673 73.79978,18.45658 73.79924,18.45672 73.79849,18.4565 73.7982,18.45647 73.79775,18.45647 73.79748,18.45642 73.79704,18.45629 73.79726,18.45519 73.79668,18.45485 73.79621,18.45457 73.79583,18.45457 73.79538,18.45447 73.79526,18.45417 73.79514,18.45355 73.79496,18.4536 73.79424,18.45352 73.79376,18.45335 73.79268,18.45309 73.79156,18.45286 73.7907,18.45274 73.79016,18.45288 73.78878,18.45375 73.78837,18.45377 73.78834,18.454 73.78787,18.45581 73.78747,18.45597 73.78653,18.45944 73.78673,18.45944 73.78657,18.46079 73.78652,18.46111 73.78653,18.46246 73.78662,18.46264 73.78664,18.46267 73.78739,18.46259 73.78938,18.46238 73.79024,18.46232 73.79092,18.46204 73.79171,18.46205 73.79262,18.46221 73.79379,18.46242 73.7939,18.46246 73.79569,18.46336 73.79601,18.46359 73.79972,18.46619 73.79959,18.46627 73.79947,18.46626 73.79922,18.46659 73.79916,18.46678 73.80017,18.46717 73.80111,18.46762 73.8021,18.46814 73.80327,18.46886 73.80402,18.46943 73.80471,18.47 73.80645,18.47132 73.80735,18.47205 73.80783,18.47232 73.80824,18.4726 73.80868,18.47294 73.80886,18.47328 73.80936,18.47458 73.80947,18.4746 73.80979,18.47528 73.8105,18.47668 73.8112,18.478 73.81171,18.47875 73.81231,18.47922 73.81292,18.47951 73.81427,18.48006 73.81559,18.48059 73.81645,18.48098 73.8173,18.48149 73.81791,18.48186 73.81886,18.48225 73.81949,18.4825 73.82005,18.48266 73.82081,18.48272 73.82175,18.48276 73.82232,18.48275 73.82319,18.48266 73.82357,18.48268 73.82418,18.48275 73.82459,18.48294 73.82512,18.48332 73.82602,18.48436 73.82618,18.48469 73.82648,18.48522 73.82738,18.48745 73.82787,18.48849 73.82891,18.49019 73.83063,18.49268 73.83172,18.49425 73.83274,18.49572 73.83306,18.49606 73.83314,18.49598 73.83365,18.49554 73.83384,18.49533 73.83403,18.49519 73.83419,18.49502 73.83442,18.49464 73.8349,18.49421 73.83556,18.49355 73.83534,18.49333 73.83582,18.49289 73.83588,18.4928 73.83593,18.49266 73.83597,18.49253 73.83606,18.49188 73.83656,18.49149 73.83805,18.48981 73.83787,18.48972 73.8376,18.48965 73.83728,18.48961 73.83672,18.48961 73.83612,18.48961 73.83582,18.48962 73.83557,18.48958 73.83542,18.48954 73.83499,18.48945 73.83447,18.48931 73.83418,18.48921 73.83403,18.48919 73.83318,18.48888 73.83284,18.48876 73.83239,18.48863 73.83179,18.48845 73.83102,18.4881 73.83081,18.48788 73.83054,18.48754 73.83027,18.48729
            </coordinates>
          </LinearRing>
        </outerBoundaryIs>
      </Polygon>

      </MultiGeometry>
    </Placemark>
  </Document>
</kml>
