{
  "type": "FeatureCollection",
  "features": [
    {
      "type": "Feature",
      "properties": {
        "ward_number": 44,
        "ward_name_en": "44 Kale Boratenagar - Sasanenagar",
        "ward_name_mr": "प्रभाग ४४ : काळे बोराटेनगर - ससाणेनगर",
        "entity_type": "ward",
        "parent_municipality": "Pune Municipal Corporation",
        "parent_municipality_mr": "पुणे महानगरपालिका",
        "district": "Pune",
        "district_mr": "पुणे",
        "state": "Maharashtra",
        "state_mr": "महाराष्ट्र",
        "country": "India",
        "country_mr": "भारत",
        "area_sq_km": 3.5174,
        "perimeter_km": 7.9864,
        "author": "Nikhil VJ",
        "added_by": "mahanvyakti",
        "source_url": "http://www.pmc.gov.in/sites/default/files/final_ward_maps/44_F_Ward.pdf",
        "created_date": "2025-11-02",
        "data_year": 2022
      },
      "geometry": {
        "type": "Polygon",
        "coordinates": [
          [
            [
              73.94922,
              18.49126
            ],
            [
              73.94932,
              18.49117
            ],
            [
              73.94865,
              18.48917
            ],
            [
              73.94823,
              18.48795
            ],
            [
              73.94812,
              18.48766
            ],
            [
              73.94809,
              18.48728
            ],
            [
              73.94785,
              18.48693
            ],
            [
              73.94669,
              18.4854
            ],
            [
              73.94638,
              18.48497
            ],
            [
              73.94613,
              18.48472
            ],
            [
              73.94596,
              18.48456
            ],
            [
              73.9457,
              18.48409
            ],
            [
              73.94546,
              18.48389
            ],
            [
              73.94545,
              18.48354
            ],
            [
              73.94535,
              18.48326
            ],
            [
              73.94503,
              18.48206
            ],
            [
              73.94464,
              18.48057
            ],
            [
              73.94457,
              18.48037
            ],
            [
              73.94447,
              18.4801
            ],
            [
              73.94414,
              18.47885
            ],
            [
              73.9436,
              18.47689
            ],
            [
              73.94346,
              18.47689
            ],
            [
              73.94295,
              18.4769
            ],
            [
              73.94267,
              18.47693
            ],
            [
              73.94247,
              18.47697
            ],
            [
              73.94222,
              18.47702
            ],
            [
              73.94182,
              18.47702
            ],
            [
              73.94122,
              18.47695
            ],
            [
              73.9407,
              18.4769
            ],
            [
              73.93996,
              18.47684
            ],
            [
              73.93909,
              18.47676
            ],
            [
              73.93788,
              18.4767
            ],
            [
              73.93734,
              18.47671
            ],
            [
              73.93711,
              18.47669
            ],
            [
              73.93691,
              18.47664
            ],
            [
              73.93674,
              18.47667
            ],
            [
              73.93644,
              18.47668
            ],
            [
              73.93521,
              18.47666
            ],
            [
              73.93524,
              18.47673
            ],
            [
              73.93533,
              18.47687
            ],
            [
              73.93554,
              18.47699
            ],
            [
              73.9356,
              18.47711
            ],
            [
              73.93564,
              18.47766
            ],
            [
              73.93563,
              18.47772
            ],
            [
              73.93547,
              18.47774
            ],
            [
              73.93515,
              18.47767
            ],
            [
              73.9348,
              18.4776
            ],
            [
              73.93447,
              18.47754
            ],
            [
              73.93415,
              18.4775
            ],
            [
              73.93376,
              18.47751
            ],
            [
              73.93294,
              18.47751
            ],
            [
              73.93218,
              18.47753
            ],
            [
              73.93142,
              18.47755
            ],
            [
              73.9314,
              18.47787
            ],
            [
              73.93132,
              18.47904
            ],
            [
              73.93127,
              18.48032
            ],
            [
              73.93137,
              18.48078
            ],
            [
              73.93136,
              18.48135
            ],
            [
              73.93153,
              18.48248
            ],
            [
              73.93166,
              18.48317
            ],
            [
              73.93176,
              18.48464
            ],
            [
              73.93203,
              18.4888
            ],
            [
              73.93211,
              18.48893
            ],
            [
              73.93165,
              18.48936
            ],
            [
              73.93045,
              18.49056
            ],
            [
              73.9289,
              18.49216
            ],
            [
              73.92906,
              18.49332
            ],
            [
              73.93143,
              18.49325
            ],
            [
              73.9323,
              18.49315
            ],
            [
              73.9329,
              18.49604
            ],
            [
              73.93311,
              18.49663
            ],
            [
              73.93312,
              18.49689
            ],
            [
              73.9335,
              18.49693
            ],
            [
              73.93421,
              18.49707
            ],
            [
              73.93536,
              18.49733
            ],
            [
              73.93568,
              18.49738
            ],
            [
              73.93599,
              18.4973
            ],
            [
              73.93632,
              18.49721
            ],
            [
              73.93735,
              18.49698
            ],
            [
              73.93827,
              18.49684
            ],
            [
              73.93848,
              18.49684
            ],
            [
              73.9387,
              18.49697
            ],
            [
              73.93889,
              18.49714
            ],
            [
              73.93913,
              18.49742
            ],
            [
              73.9393,
              18.49768
            ],
            [
              73.93961,
              18.49794
            ],
            [
              73.94001,
              18.49817
            ],
            [
              73.94041,
              18.49836
            ],
            [
              73.94092,
              18.49856
            ],
            [
              73.94142,
              18.49813
            ],
            [
              73.94187,
              18.49774
            ],
            [
              73.94268,
              18.49714
            ],
            [
              73.94402,
              18.49619
            ],
            [
              73.94496,
              18.4955
            ],
            [
              73.94549,
              18.4951
            ],
            [
              73.94596,
              18.49478
            ],
            [
              73.94647,
              18.49445
            ],
            [
              73.94689,
              18.49414
            ],
            [
              73.94714,
              18.49394
            ],
            [
              73.94739,
              18.49368
            ],
            [
              73.94792,
              18.49302
            ],
            [
              73.94874,
              18.49189
            ],
            [
              73.94922,
              18.49126
            ]
          ]
        ]
      }
    }
  ]
}
