<?xml version="1.0" encoding="UTF-8"?>
<kml xmlns="http://www.opengis.net/kml/2.2">
  <Document>
    <name>24 Magarpatta - Sadhana Vidyalaya</name>
    <description>Part of OS-Bhugol open geographic data project</description>
    <Placemark>
      <name>24 Magarpatta - Sadhana Vidyalaya</name>
      <ExtendedData>
        <Data name="ward_number"><value>24</value></Data>
        <Data name="ward_name_en"><value>24 Magarpatta - Sadhana Vidyalaya</value></Data>
        <Data name="ward_name_mr"><value>प्रभाग २४ : मगरपट्टा - साधना विद्यालय</value></Data>
        <Data name="entity_type"><value>ward</value></Data>
        <Data name="parent_municipality"><value>Pune Municipal Corporation</value></Data>
        <Data name="parent_municipality_mr"><value>पुणे महानगरपालिका</value></Data>
        <Data name="district"><value>Pune</value></Data>
        <Data name="district_mr"><value>पुणे</value></Data>
        <Data name="state"><value>Maharashtra</value></Data>
        <Data name="state_mr"><value>महाराष्ट्र</value></Data>
        <Data name="country"><value>India</value></Data>
        <Data name="country_mr"><value>भारत</value></Data>
        <Data name="area_sq_km"><value>5.3147</value></Data>
        <Data name="perimeter_km"><value>14.1786</value></Data>
        <Data name="author"><value>Nikhil VJ</value></Data>
        <Data name="source_url"><value>http://www.pmc.gov.in/sites/default/files/final_ward_maps/24_F_Ward.pdf</value></Data>
        <Data name="created_date"><value>2025-11-02</value></Data>
        <Data name="data_year"><value>2022</value></Data>
      </ExtendedData>
      <MultiGeometry>
      <Polygon>
        <outerBoundaryIs>
          <LinearRing>
            <tessellate>1</tessellate>
            <coordinates>
              73.93339,18.52063 73.93333,18.51846 73.93326,18.51732 73.93349,18.51664 73.93391,18.51579 73.93395,18.51559 73.93386,18.51531 73.93369,18.51524 73.93363,18.51508 73.93362,18.51506 73.9336,18.515 73.93355,18.51465 73.93349,18.51446 73.93333,18.51431 73.933,18.51397 73.9329,18.51364 73.9329,18.51316 73.93288,18.51218 73.93276,18.5114 73.93238,18.51042 73.93573,18.51009 73.93556,18.50866 73.93567,18.50865 73.93577,18.50776 73.93632,18.50775 73.93659,18.50772 73.93682,18.50764 73.93682,18.50764 73.93688,18.50762 73.93697,18.50761 73.93706,18.50762 73.93718,18.50769 73.93725,18.5077 73.9374,18.50766 73.93845,18.50768 73.93915,18.5068 73.93907,18.50596 73.9397,18.50612 73.93978,18.50621 73.93978,18.50636 73.94151,18.50639 73.94123,18.5073 73.9412,18.50756 73.94119,18.50883 73.94227,18.50884 73.94509,18.50847 73.94519,18.50828 73.94524,18.50798 73.94517,18.50757 73.94498,18.50723 73.94461,18.5069 73.94418,18.50658 73.94406,18.50628 73.94387,18.50369 73.9441,18.50369 73.94402,18.50225 73.9461,18.50228 73.94589,18.50083 73.94411,18.50089 73.94419,18.50074 73.94413,18.5001 73.94406,18.50011 73.94357,18.50019 73.94236,18.50033 73.94149,18.50044 73.94049,18.50059 73.94037,18.50061 73.94024,18.50063 73.93891,18.50084 73.93766,18.50101 73.9369,18.50106 73.93624,18.50111 73.93469,18.50135 73.93382,18.50147 73.93329,18.50151 73.93293,18.50154 73.93211,18.50156 73.93104,18.50165 73.92987,18.50178 73.92945,18.50187 73.92892,18.50204 73.92787,18.50235 73.92508,18.50309 73.92454,18.50323 73.92421,18.50332 73.92184,18.50394 73.92239,18.50602 73.92249,18.50649 73.92251,18.5068 73.9225,18.50702 73.92238,18.5072 73.92211,18.50744 73.92181,18.50762 73.9216,18.50781 73.92144,18.50803 73.92131,18.50826 73.92121,18.50861 73.92088,18.5095 73.92064,18.51013 73.92016,18.51126 73.91992,18.51176 73.91956,18.51242 73.91901,18.51349 73.9187,18.51417 73.91857,18.51435 73.91837,18.51407 73.91829,18.51418 73.918,18.5145 73.91775,18.51467 73.91714,18.51496 73.91655,18.51518 73.91609,18.51538 73.91552,18.5155 73.91526,18.5155 73.91533,18.51596 73.91488,18.51601 73.91406,18.516 73.91365,18.51592 73.9131,18.51573 73.91269,18.51556 73.91202,18.5153 73.91136,18.51508 73.91051,18.51461 73.91014,18.51428 73.91013,18.51503 73.91025,18.51515 73.91046,18.51541 73.91053,18.5157 73.91063,18.51616 73.91093,18.51754 73.91115,18.51793 73.91142,18.51829 73.91189,18.51866 73.91238,18.51887 73.91299,18.51897 73.91347,18.51892 73.91545,18.51854 73.9157,18.51963 73.91595,18.51962 73.91742,18.51967 73.91748,18.52214 73.91749,18.52388 73.91744,18.52623 73.91732,18.52808 73.92133,18.52758 73.92767,18.5268 73.93229,18.52628 73.93225,18.52528 73.93223,18.52369 73.93329,18.52364 73.93433,18.52361 73.93494,18.52354 73.93494,18.52341 73.93483,18.52324 73.93441,18.52267 73.93364,18.52185 73.93347,18.52178 73.93338,18.52156 73.93339,18.52063
            </coordinates>
          </LinearRing>
        </outerBoundaryIs>
      </Polygon>

      </MultiGeometry>
    </Placemark>
  </Document>
</kml>
