{
  "type": "FeatureCollection",
  "features": [
    {
      "type": "Feature",
      "properties": {
        "ward_number": 19,
        "ward_name_en": "19 Chhatrapati Shivaji Maharaj Stadium - Rasta peth",
        "ward_name_mr": "प्रभाग १९ : छत्रपती शिवाजी महाराज स्टेडियम - रास्ता पेठ",
        "entity_type": "ward",
        "parent_municipality": "Pune Municipal Corporation",
        "parent_municipality_mr": "पुणे महानगरपालिका",
        "district": "Pune",
        "district_mr": "पुणे",
        "state": "Maharashtra",
        "state_mr": "महाराष्ट्र",
        "country": "India",
        "country_mr": "भारत",
        "area_sq_km": 1.0362,
        "perimeter_km": 4.7115,
        "author": "Nikhil VJ",
        "added_by": "mahanvyakti",
        "source_url": "http://www.pmc.gov.in/sites/default/files/final_ward_maps/19_F_Ward.pdf",
        "created_date": "2025-11-02",
        "data_year": 2022
      },
      "geometry": {
        "type": "Polygon",
        "coordinates": [
          [
            [
              73.87192,
              18.52014
            ],
            [
              73.87058,
              18.52006
            ],
            [
              73.86961,
              18.52012
            ],
            [
              73.8691,
              18.52011
            ],
            [
              73.86859,
              18.5199
            ],
            [
              73.86827,
              18.51957
            ],
            [
              73.86835,
              18.51948
            ],
            [
              73.86842,
              18.51766
            ],
            [
              73.86848,
              18.51735
            ],
            [
              73.86857,
              18.51678
            ],
            [
              73.86864,
              18.51539
            ],
            [
              73.86832,
              18.51543
            ],
            [
              73.86717,
              18.5154
            ],
            [
              73.86542,
              18.51545
            ],
            [
              73.86487,
              18.51545
            ],
            [
              73.86477,
              18.51547
            ],
            [
              73.86462,
              18.51555
            ],
            [
              73.8645,
              18.51565
            ],
            [
              73.86427,
              18.5158
            ],
            [
              73.86384,
              18.51607
            ],
            [
              73.86363,
              18.51618
            ],
            [
              73.86281,
              18.5162
            ],
            [
              73.8628,
              18.51658
            ],
            [
              73.86284,
              18.51687
            ],
            [
              73.86295,
              18.51718
            ],
            [
              73.863,
              18.51743
            ],
            [
              73.86303,
              18.51783
            ],
            [
              73.86231,
              18.51814
            ],
            [
              73.86223,
              18.51828
            ],
            [
              73.86213,
              18.51849
            ],
            [
              73.86209,
              18.51865
            ],
            [
              73.86211,
              18.5188
            ],
            [
              73.86236,
              18.5193
            ],
            [
              73.86242,
              18.51937
            ],
            [
              73.86235,
              18.51951
            ],
            [
              73.86224,
              18.51944
            ],
            [
              73.86201,
              18.51935
            ],
            [
              73.86155,
              18.51924
            ],
            [
              73.8613,
              18.51921
            ],
            [
              73.86125,
              18.52015
            ],
            [
              73.86132,
              18.52016
            ],
            [
              73.8613,
              18.52042
            ],
            [
              73.8613,
              18.52106
            ],
            [
              73.86127,
              18.52116
            ],
            [
              73.86115,
              18.5214
            ],
            [
              73.86104,
              18.52166
            ],
            [
              73.86094,
              18.52214
            ],
            [
              73.86105,
              18.52215
            ],
            [
              73.86123,
              18.52221
            ],
            [
              73.8615,
              18.52237
            ],
            [
              73.8613,
              18.52275
            ],
            [
              73.86086,
              18.52355
            ],
            [
              73.86085,
              18.5237
            ],
            [
              73.86092,
              18.52394
            ],
            [
              73.86107,
              18.52415
            ],
            [
              73.86114,
              18.52435
            ],
            [
              73.86113,
              18.52458
            ],
            [
              73.86105,
              18.52464
            ],
            [
              73.86089,
              18.5248
            ],
            [
              73.86036,
              18.5257
            ],
            [
              73.86078,
              18.52597
            ],
            [
              73.86106,
              18.5262
            ],
            [
              73.86121,
              18.5264
            ],
            [
              73.86162,
              18.52685
            ],
            [
              73.86178,
              18.52694
            ],
            [
              73.86199,
              18.52715
            ],
            [
              73.86277,
              18.52763
            ],
            [
              73.86337,
              18.52795
            ],
            [
              73.86357,
              18.5278
            ],
            [
              73.86385,
              18.52758
            ],
            [
              73.86489,
              18.527
            ],
            [
              73.86592,
              18.52647
            ],
            [
              73.86672,
              18.52604
            ],
            [
              73.86726,
              18.52576
            ],
            [
              73.86741,
              18.52568
            ],
            [
              73.86752,
              18.52561
            ],
            [
              73.86774,
              18.5255
            ],
            [
              73.86817,
              18.52526
            ],
            [
              73.86865,
              18.52505
            ],
            [
              73.86906,
              18.52484
            ],
            [
              73.86994,
              18.52434
            ],
            [
              73.87013,
              18.52419
            ],
            [
              73.87023,
              18.52405
            ],
            [
              73.87052,
              18.52346
            ],
            [
              73.87083,
              18.52288
            ],
            [
              73.87144,
              18.52151
            ],
            [
              73.87164,
              18.52099
            ],
            [
              73.87173,
              18.52085
            ],
            [
              73.8718,
              18.5208
            ],
            [
              73.87229,
              18.5206
            ],
            [
              73.87253,
              18.52053
            ],
            [
              73.87239,
              18.52028
            ],
            [
              73.87231,
              18.52021
            ],
            [
              73.87215,
              18.52017
            ],
            [
              73.87192,
              18.52014
            ]
          ]
        ]
      }
    }
  ]
}