{
  "type": "FeatureCollection",
  "features": [
    {
      "type": "Feature",
      "properties": {
        "ward_number": 35,
        "ward_name_en": "35 Ramnagar - Uttamnagar Shivane",
        "ward_name_mr": "प्रभाग ३५ : रामनगर - उत्तमनगर शिवणे",
        "entity_type": "ward",
        "parent_municipality": "Pune Municipal Corporation",
        "parent_municipality_mr": "पुणे महानगरपालिका",
        "district": "Pune",
        "district_mr": "पुणे",
        "state": "Maharashtra",
        "state_mr": "महाराष्ट्र",
        "country": "India",
        "country_mr": "भारत",
        "area_sq_km": 4.6969,
        "perimeter_km": 15.8469,
        "author": "Nikhil VJ",
        "added_by": "mahanvyakti",
        "source_url": "http://www.pmc.gov.in/sites/default/files/final_ward_maps/35_F_Ward.pdf",
        "created_date": "2025-11-02",
        "data_year": 2022
      },
      "geometry": {
        "type": "Polygon",
        "coordinates": [
          [
            [
              73.80786,
              18.49174
            ],
            [
              73.80783,
              18.49168
            ],
            [
              73.80748,
              18.49116
            ],
            [
              73.80693,
              18.49018
            ],
            [
              73.80676,
              18.48937
            ],
            [
              73.80683,
              18.48927
            ],
            [
              73.80685,
              18.48907
            ],
            [
              73.80686,
              18.48891
            ],
            [
              73.80708,
              18.48845
            ],
            [
              73.80733,
              18.48778
            ],
            [
              73.80758,
              18.48727
            ],
            [
              73.80763,
              18.48719
            ],
            [
              73.80787,
              18.48711
            ],
            [
              73.80896,
              18.48577
            ],
            [
              73.80932,
              18.4853
            ],
            [
              73.80953,
              18.48494
            ],
            [
              73.80974,
              18.48458
            ],
            [
              73.80983,
              18.48444
            ],
            [
              73.81013,
              18.48428
            ],
            [
              73.8098,
              18.48378
            ],
            [
              73.80944,
              18.48335
            ],
            [
              73.80753,
              18.48199
            ],
            [
              73.80693,
              18.4815
            ],
            [
              73.80605,
              18.48083
            ],
            [
              73.80591,
              18.48067
            ],
            [
              73.80572,
              18.48049
            ],
            [
              73.80556,
              18.48041
            ],
            [
              73.80515,
              18.48034
            ],
            [
              73.80427,
              18.48031
            ],
            [
              73.80462,
              18.47989
            ],
            [
              73.80654,
              18.47774
            ],
            [
              73.80867,
              18.47534
            ],
            [
              73.80913,
              18.4748
            ],
            [
              73.80936,
              18.47458
            ],
            [
              73.80886,
              18.47328
            ],
            [
              73.80868,
              18.47294
            ],
            [
              73.80824,
              18.4726
            ],
            [
              73.80783,
              18.47232
            ],
            [
              73.80735,
              18.47205
            ],
            [
              73.80645,
              18.47132
            ],
            [
              73.80471,
              18.47
            ],
            [
              73.80402,
              18.46943
            ],
            [
              73.80327,
              18.46886
            ],
            [
              73.8021,
              18.46814
            ],
            [
              73.80111,
              18.46762
            ],
            [
              73.80017,
              18.46717
            ],
            [
              73.79916,
              18.46678
            ],
            [
              73.79922,
              18.46659
            ],
            [
              73.79947,
              18.46626
            ],
            [
              73.79959,
              18.46627
            ],
            [
              73.79972,
              18.46619
            ],
            [
              73.79601,
              18.46359
            ],
            [
              73.79569,
              18.46336
            ],
            [
              73.7939,
              18.46246
            ],
            [
              73.79379,
              18.46242
            ],
            [
              73.79262,
              18.46221
            ],
            [
              73.79171,
              18.46205
            ],
            [
              73.79092,
              18.46204
            ],
            [
              73.79024,
              18.46232
            ],
            [
              73.78938,
              18.46238
            ],
            [
              73.78739,
              18.46259
            ],
            [
              73.78664,
              18.46267
            ],
            [
              73.78589,
              18.46275
            ],
            [
              73.78416,
              18.4625
            ],
            [
              73.78293,
              18.46181
            ],
            [
              73.78099,
              18.46116
            ],
            [
              73.77619,
              18.46033
            ],
            [
              73.77459,
              18.45961
            ],
            [
              73.77347,
              18.45853
            ],
            [
              73.77282,
              18.4581
            ],
            [
              73.77244,
              18.45918
            ],
            [
              73.77184,
              18.45948
            ],
            [
              73.7714,
              18.45946
            ],
            [
              73.77034,
              18.45991
            ],
            [
              73.76981,
              18.46025
            ],
            [
              73.76992,
              18.46032
            ],
            [
              73.77028,
              18.46029
            ],
            [
              73.77049,
              18.46057
            ],
            [
              73.77049,
              18.46073
            ],
            [
              73.77026,
              18.46094
            ],
            [
              73.76972,
              18.4613
            ],
            [
              73.76927,
              18.46173
            ],
            [
              73.76903,
              18.46208
            ],
            [
              73.76882,
              18.4623
            ],
            [
              73.76885,
              18.46291
            ],
            [
              73.76906,
              18.46318
            ],
            [
              73.7697,
              18.4632
            ],
            [
              73.77243,
              18.46316
            ],
            [
              73.77245,
              18.46352
            ],
            [
              73.77319,
              18.46358
            ],
            [
              73.77341,
              18.46407
            ],
            [
              73.7735,
              18.46448
            ],
            [
              73.77344,
              18.46499
            ],
            [
              73.77357,
              18.46513
            ],
            [
              73.77395,
              18.46517
            ],
            [
              73.77427,
              18.46507
            ],
            [
              73.7746,
              18.46506
            ],
            [
              73.77488,
              18.46522
            ],
            [
              73.77515,
              18.46553
            ],
            [
              73.77533,
              18.46587
            ],
            [
              73.77578,
              18.46605
            ],
            [
              73.77613,
              18.46636
            ],
            [
              73.77631,
              18.46689
            ],
            [
              73.77629,
              18.46773
            ],
            [
              73.77604,
              18.46827
            ],
            [
              73.77572,
              18.46878
            ],
            [
              73.77558,
              18.46916
            ],
            [
              73.77563,
              18.46949
            ],
            [
              73.77594,
              18.46965
            ],
            [
              73.77619,
              18.46961
            ],
            [
              73.77641,
              18.46936
            ],
            [
              73.77669,
              18.46918
            ],
            [
              73.77686,
              18.46923
            ],
            [
              73.77719,
              18.46945
            ],
            [
              73.77737,
              18.4695
            ],
            [
              73.77776,
              18.46946
            ],
            [
              73.77791,
              18.4693
            ],
            [
              73.77806,
              18.46893
            ],
            [
              73.77859,
              18.46816
            ],
            [
              73.7789,
              18.46777
            ],
            [
              73.77931,
              18.46753
            ],
            [
              73.77947,
              18.46749
            ],
            [
              73.78017,
              18.46749
            ],
            [
              73.78058,
              18.46731
            ],
            [
              73.78147,
              18.4668
            ],
            [
              73.78226,
              18.46647
            ],
            [
              73.78239,
              18.46647
            ],
            [
              73.78254,
              18.46666
            ],
            [
              73.78283,
              18.46676
            ],
            [
              73.78324,
              18.467
            ],
            [
              73.78346,
              18.46722
            ],
            [
              73.78347,
              18.46754
            ],
            [
              73.78337,
              18.46904
            ],
            [
              73.78337,
              18.46968
            ],
            [
              73.78349,
              18.46994
            ],
            [
              73.78378,
              18.47015
            ],
            [
              73.7842,
              18.47019
            ],
            [
              73.78457,
              18.47007
            ],
            [
              73.78473,
              18.46978
            ],
            [
              73.78483,
              18.46953
            ],
            [
              73.785,
              18.46931
            ],
            [
              73.78533,
              18.4692
            ],
            [
              73.78576,
              18.46941
            ],
            [
              73.78607,
              18.46953
            ],
            [
              73.78634,
              18.46956
            ],
            [
              73.7866,
              18.46948
            ],
            [
              73.78674,
              18.46929
            ],
            [
              73.78779,
              18.47011
            ],
            [
              73.78814,
              18.47032
            ],
            [
              73.79021,
              18.47128
            ],
            [
              73.79066,
              18.47163
            ],
            [
              73.793,
              18.47355
            ],
            [
              73.79437,
              18.47479
            ],
            [
              73.79482,
              18.47516
            ],
            [
              73.79592,
              18.47599
            ],
            [
              73.79694,
              18.47697
            ],
            [
              73.79809,
              18.47803
            ],
            [
              73.79889,
              18.47877
            ],
            [
              73.79938,
              18.4793
            ],
            [
              73.80103,
              18.48036
            ],
            [
              73.801,
              18.48218
            ],
            [
              73.80113,
              18.4834
            ],
            [
              73.80123,
              18.48346
            ],
            [
              73.8018,
              18.48293
            ],
            [
              73.80211,
              18.48328
            ],
            [
              73.80296,
              18.4837
            ],
            [
              73.80334,
              18.48544
            ],
            [
              73.80328,
              18.4855
            ],
            [
              73.80208,
              18.48579
            ],
            [
              73.80236,
              18.48717
            ],
            [
              73.80169,
              18.48732
            ],
            [
              73.80217,
              18.49107
            ],
            [
              73.80243,
              18.49318
            ],
            [
              73.80156,
              18.49354
            ],
            [
              73.8021,
              18.49346
            ],
            [
              73.80325,
              18.49312
            ],
            [
              73.80414,
              18.49286
            ],
            [
              73.80436,
              18.49274
            ],
            [
              73.80466,
              18.49236
            ],
            [
              73.80491,
              18.49211
            ],
            [
              73.80506,
              18.49204
            ],
            [
              73.80532,
              18.49221
            ],
            [
              73.80563,
              18.49226
            ],
            [
              73.80591,
              18.49223
            ],
            [
              73.80621,
              18.49209
            ],
            [
              73.80652,
              18.49199
            ],
            [
              73.80672,
              18.49194
            ],
            [
              73.80714,
              18.49169
            ],
            [
              73.8074,
              18.49163
            ],
            [
              73.80776,
              18.49172
            ],
            [
              73.80786,
              18.49174
            ]
          ]
        ]
      }
    }
  ]
}
