{
  "type": "FeatureCollection",
  "features": [
    {
      "type": "Feature",
      "properties": {
        "ward_number": 23,
        "ward_name_en": "23 Sadesataranali - Aakashwani",
        "ward_name_mr": "प्रभाग २३ : साडेसतरनाली - आकाशवाणी",
        "entity_type": "ward",
        "parent_municipality": "Pune Municipal Corporation",
        "parent_municipality_mr": "पुणे महानगरपालिका",
        "district": "Pune",
        "district_mr": "पुणे",
        "state": "Maharashtra",
        "state_mr": "महाराष्ट्र",
        "country": "India",
        "country_mr": "भारत",
        "area_sq_km": 7.1878,
        "perimeter_km": 16.3894,
        "author": "Nikhil VJ",
        "added_by": "mahanvyakti",
        "source_url": "http://www.pmc.gov.in/sites/default/files/final_ward_maps/23_F_Ward.pdf",
        "created_date": "2025-11-02",
        "data_year": 2022
      },
      "geometry": {
        "type": "Polygon",
        "coordinates": [
          [
            [
              73.94182,
              18.53237
            ],
            [
              73.94186,
              18.53184
            ],
            [
              73.94166,
              18.53081
            ],
            [
              73.94323,
              18.53024
            ],
            [
              73.94262,
              18.52812
            ],
            [
              73.94192,
              18.52574
            ],
            [
              73.94161,
              18.52426
            ],
            [
              73.94549,
              18.52417
            ],
            [
              73.94823,
              18.5241
            ],
            [
              73.95103,
              18.52399
            ],
            [
              73.95116,
              18.52384
            ],
            [
              73.95113,
              18.52099
            ],
            [
              73.95359,
              18.52023
            ],
            [
              73.95419,
              18.51997
            ],
            [
              73.95917,
              18.51778
            ],
            [
              73.95826,
              18.50906
            ],
            [
              73.95912,
              18.50894
            ],
            [
              73.95995,
              18.50853
            ],
            [
              73.96058,
              18.50783
            ],
            [
              73.96065,
              18.50658
            ],
            [
              73.96021,
              18.50566
            ],
            [
              73.95959,
              18.50531
            ],
            [
              73.95864,
              18.50524
            ],
            [
              73.95821,
              18.50519
            ],
            [
              73.9575,
              18.50483
            ],
            [
              73.95669,
              18.50507
            ],
            [
              73.95666,
              18.50535
            ],
            [
              73.9543,
              18.50538
            ],
            [
              73.95427,
              18.50457
            ],
            [
              73.95487,
              18.50456
            ],
            [
              73.9559,
              18.50435
            ],
            [
              73.95698,
              18.50438
            ],
            [
              73.95864,
              18.50419
            ],
            [
              73.95843,
              18.50115
            ],
            [
              73.95825,
              18.50041
            ],
            [
              73.95788,
              18.49786
            ],
            [
              73.95724,
              18.49503
            ],
            [
              73.95686,
              18.49522
            ],
            [
              73.95434,
              18.49629
            ],
            [
              73.95296,
              18.49687
            ],
            [
              73.95194,
              18.49723
            ],
            [
              73.95129,
              18.49735
            ],
            [
              73.95048,
              18.49747
            ],
            [
              73.94869,
              18.49765
            ],
            [
              73.94836,
              18.49769
            ],
            [
              73.94702,
              18.49781
            ],
            [
              73.94398,
              18.4982
            ],
            [
              73.94411,
              18.49839
            ],
            [
              73.94406,
              18.5001
            ],
            [
              73.94406,
              18.50011
            ],
            [
              73.94413,
              18.5001
            ],
            [
              73.94419,
              18.50074
            ],
            [
              73.94411,
              18.50089
            ],
            [
              73.94589,
              18.50083
            ],
            [
              73.9461,
              18.50228
            ],
            [
              73.94402,
              18.50225
            ],
            [
              73.9441,
              18.50369
            ],
            [
              73.94387,
              18.50369
            ],
            [
              73.94406,
              18.50628
            ],
            [
              73.94418,
              18.50658
            ],
            [
              73.94461,
              18.5069
            ],
            [
              73.94498,
              18.50723
            ],
            [
              73.94517,
              18.50757
            ],
            [
              73.94524,
              18.50798
            ],
            [
              73.94519,
              18.50828
            ],
            [
              73.94509,
              18.50847
            ],
            [
              73.94227,
              18.50884
            ],
            [
              73.94119,
              18.50883
            ],
            [
              73.9412,
              18.50756
            ],
            [
              73.94123,
              18.5073
            ],
            [
              73.94151,
              18.50639
            ],
            [
              73.93978,
              18.50636
            ],
            [
              73.93978,
              18.50621
            ],
            [
              73.9397,
              18.50612
            ],
            [
              73.93907,
              18.50596
            ],
            [
              73.93915,
              18.5068
            ],
            [
              73.93845,
              18.50768
            ],
            [
              73.9374,
              18.50766
            ],
            [
              73.93725,
              18.5077
            ],
            [
              73.93718,
              18.50769
            ],
            [
              73.93706,
              18.50762
            ],
            [
              73.93697,
              18.50761
            ],
            [
              73.93688,
              18.50762
            ],
            [
              73.93682,
              18.50764
            ],
            [
              73.93682,
              18.50764
            ],
            [
              73.93659,
              18.50772
            ],
            [
              73.93632,
              18.50775
            ],
            [
              73.93577,
              18.50776
            ],
            [
              73.93567,
              18.50865
            ],
            [
              73.93556,
              18.50866
            ],
            [
              73.93573,
              18.51009
            ],
            [
              73.93238,
              18.51042
            ],
            [
              73.93276,
              18.5114
            ],
            [
              73.93288,
              18.51218
            ],
            [
              73.9329,
              18.51316
            ],
            [
              73.9329,
              18.51364
            ],
            [
              73.933,
              18.51397
            ],
            [
              73.93333,
              18.51431
            ],
            [
              73.93349,
              18.51446
            ],
            [
              73.93355,
              18.51465
            ],
            [
              73.9336,
              18.515
            ],
            [
              73.93362,
              18.51506
            ],
            [
              73.93363,
              18.51508
            ],
            [
              73.93369,
              18.51524
            ],
            [
              73.93386,
              18.51531
            ],
            [
              73.93395,
              18.51559
            ],
            [
              73.93391,
              18.51579
            ],
            [
              73.93349,
              18.51664
            ],
            [
              73.93326,
              18.51732
            ],
            [
              73.93333,
              18.51846
            ],
            [
              73.93339,
              18.52063
            ],
            [
              73.93338,
              18.52156
            ],
            [
              73.93347,
              18.52178
            ],
            [
              73.93364,
              18.52185
            ],
            [
              73.93441,
              18.52267
            ],
            [
              73.93483,
              18.52324
            ],
            [
              73.93494,
              18.52341
            ],
            [
              73.93494,
              18.52354
            ],
            [
              73.93433,
              18.52361
            ],
            [
              73.93329,
              18.52364
            ],
            [
              73.93223,
              18.52369
            ],
            [
              73.93225,
              18.52528
            ],
            [
              73.93229,
              18.52628
            ],
            [
              73.93233,
              18.52777
            ],
            [
              73.93241,
              18.52879
            ],
            [
              73.93248,
              18.52965
            ],
            [
              73.93224,
              18.53148
            ],
            [
              73.93234,
              18.53173
            ],
            [
              73.93286,
              18.53235
            ],
            [
              73.93295,
              18.53248
            ],
            [
              73.93309,
              18.53292
            ],
            [
              73.93351,
              18.533
            ],
            [
              73.93401,
              18.53276
            ],
            [
              73.93452,
              18.5326
            ],
            [
              73.93488,
              18.53263
            ],
            [
              73.93613,
              18.53222
            ],
            [
              73.93667,
              18.53214
            ],
            [
              73.93723,
              18.53216
            ],
            [
              73.93873,
              18.53273
            ],
            [
              73.94053,
              18.53357
            ],
            [
              73.94101,
              18.53369
            ],
            [
              73.94194,
              18.53406
            ],
            [
              73.94182,
              18.53237
            ]
          ]
        ]
      }
    }
  ]
}