<?xml version="1.0" encoding="UTF-8"?>
<kml xmlns="http://www.opengis.net/kml/2.2">
  <Document>
    <name>Ward 33</name>
    <description>Part of OS-Bhugol open geographic data project</description>
    <Placemark>
      <name>Ward 33</name>
      <ExtendedData>
        <Data name="ward_number"><value>33</value></Data>
        <Data name="ward_name_en"><value>Ward 33</value></Data>
        <Data name="ward_name_mr"><value>प्रभाग ३३</value></Data>
        <Data name="entity_type"><value>ward</value></Data>
        <Data name="parent_municipality"><value>Pune Municipal Corporation</value></Data>
        <Data name="parent_municipality_mr"><value>पुणे महानगरपालिका</value></Data>
        <Data name="district"><value>Pune</value></Data>
        <Data name="district_mr"><value>पुणे</value></Data>
        <Data name="state"><value>Maharashtra</value></Data>
        <Data name="state_mr"><value>महाराष्ट्र</value></Data>
        <Data name="country"><value>India</value></Data>
        <Data name="country_mr"><value>भारत</value></Data>
        <Data name="area_sq_km"><value>58.6954</value></Data>
        <Data name="perimeter_km"><value>44.0141</value></Data>
        <Data name="author"><value>Parisar</value></Data>
        <Data name="source_url"><value>https://data.opencity.in/dataset/pune-wards-info/resource/2badcc86-489c-4b7e-b7dd-a273ef01b798</value></Data>
        <Data name="created_date"><value>2025-11-02</value></Data>
        <Data name="data_year"><value>2025</value></Data>
      </ExtendedData>
      <MultiGeometry>
      <Polygon>
        <outerBoundaryIs>
          <LinearRing>
            <tessellate>1</tessellate>
            <coordinates>
              73.7740768649375,18.488833042432 73.7752723219062,18.488625053894 73.7756472117223,18.4878655191956 73.7758093413373,18.4868544121001 73.7765809707185,18.4861506629389 73.7770417384337,18.485716933923 73.7772642276377,18.4850669519007 73.7772615037243,18.4837704645853 73.7773956697183,18.4833391741739 73.7780263817391,18.4817965792843 73.7781075895085,18.4813192016784 73.7780459431694,18.4810626028924 73.7777562453575,18.4806088889318 73.7785301145306,18.4805447544421 73.7822243974991,18.4800544746424 73.7827192679785,18.4802303766267 73.7836311839357,18.4802106463338 73.7841954419673,18.4800543429866 73.7846508130773,18.4801276330694 73.7849720158843,18.4802128553996 73.7854412460651,18.480222261856 73.7860257944628,18.4800404942648 73.7865642701302,18.4797368852455 73.7869274061787,18.4795792849768 73.792258204513,18.4790237944695 73.7925502455612,18.478984715215 73.7928002414675,18.4788225433288 73.7930250085003,18.4785865161555 73.7931377587736,18.4783011564424 73.7931733366717,18.4780071169487 73.7947583128322,18.4766482311002 73.7950292808297,18.4762469377166 73.7955507554177,18.47572441233 73.7942621152604,18.4747049629154 73.7932908470191,18.4737744137423 73.7904467856587,18.4714476415936 73.7882637404959,18.4703805918505 73.7868747753791,18.4694036698963 73.7865836654959,18.4695837672984 73.7863239339915,18.469640332015 73.7859509217188,18.4695360445378 73.7854722566333,18.4692709531442 73.7851362034718,18.4693343051246 73.784837003144,18.4695798539248 73.7846360320774,18.4699570442878 73.784543020061,18.4701675227961 73.7842601999952,18.4702530504911 73.7838107117823,18.4701773812219 73.7835681315187,18.4699647491632 73.7834179493034,18.4696289760666 73.7835191201774,18.4682612773039 73.783553476342,18.4677156137234 73.7835856762587,18.4673891641148 73.7833628772068,18.4671408488314 73.7830326584503,18.4668965019294 73.7826776064556,18.4667125516814 73.7824683356108,18.4666227015657 73.7822843265524,18.4664118992675 73.7821734384407,18.4662155426019 73.7821167689851,18.4659450025635 73.7820407560128,18.4637464218775 73.7823463436327,18.4636756011035 73.7825764843058,18.4634878393031 73.7827387005742,18.4631977429412 73.7830063761899,18.46201307389 73.7831312738666,18.4619652092587 73.7834986579341,18.4621434612329 73.7839341391335,18.4624115869918 73.7842018531453,18.4625474601705 73.7856604955973,18.462788023162 73.7862604054679,18.4627759654362 73.7903287503003,18.4623673692367 73.7907796741694,18.4622165456406 73.7911800582167,18.4621448989202 73.7915468235575,18.4621154375938 73.7921351796674,18.4621668869751 73.7935496635091,18.4624196953255 73.794416536469,18.4627514938044 73.7958001671999,18.4634476355174 73.7980455279662,18.4650187709873 73.7986756624697,18.4655030811736 73.7995309919085,18.466335091689 73.7996585227301,18.4664202422545 73.800045849299,18.466138331807 73.8001185349074,18.466004911519 73.7998739910973,18.4658201127271 73.7998886827727,18.4651310882304 73.8001184636702,18.4647758369004 73.7995913908491,18.4635722318984 73.7999615731845,18.4632748101182 73.8003847860779,18.4625694994173 73.8008444223522,18.4623012626247 73.8009826959625,18.4621220126463 73.8010148137719,18.4619607372957 73.8009569703849,18.4617786647385 73.8008414223718,18.4616423613648 73.8009539055502,18.4614017538149 73.8009387791238,18.4611250902407 73.8008042659655,18.4608558058552 73.8006693011674,18.4606515933297 73.8006589314849,18.4604571506588 73.8012201241584,18.4590699718852 73.801692820497,18.4571925299613 73.7999226424347,18.4566329354056 73.7993040278128,18.4567527538914 73.7984285402102,18.4565215747065 73.7978871035629,18.4565108648395 73.7974755717095,18.4564645841854 73.7970950830587,18.4563416206552 73.7972702146845,18.4552439894527 73.7962105130811,18.454613061709 73.7960005025884,18.4546303619258 73.7957028615597,18.4546144968267 73.7954743337586,18.4544872730262 73.7953454012618,18.4543289297557 73.7948030270606,18.4517893861143 73.7958536341844,18.4515117433144 73.7961349185985,18.450478618574 73.7961984610746,18.4499103895967 73.7999116157882,18.4506049065311 73.8014727083441,18.450603405019 73.8024112334801,18.4493014768075 73.8031575123874,18.4482257830807 73.8040764605652,18.4471316146767 73.8044576695107,18.447148574671 73.8050821602338,18.4472762435191 73.8057592312948,18.4475206983399 73.8067735671916,18.4475198033301 73.8070879498297,18.4472743112794 73.8074017296978,18.447116156726 73.8078898062158,18.447119224528 73.8102644257213,18.4473012204356 73.80983147703,18.4460160888107 73.8096562804771,18.4456442782354 73.8094454835958,18.4456618050274 73.8093343465805,18.4455480084641 73.8093837669084,18.4453028796229 73.8099006575459,18.4449330546372 73.8108146440131,18.4436624994565 73.8112951753654,18.4425953935002 73.8125864194898,18.4423703111462 73.8128617558586,18.4420652339503 73.8133626291728,18.4416848673117 73.8136405952438,18.4409963055255 73.8147582005507,18.4397454098591 73.8176193237144,18.4373702153462 73.8186490401053,18.4348608634239 73.8197033820529,18.4329775306621 73.8197299835527,18.4320941094962 73.8217039763584,18.4276086698395 73.8231306113875,18.4251348826008 73.8223971545207,18.4240896662454 73.8221551875129,18.4233714774248 73.8218584642711,18.4216319150937 73.8201486589284,18.4200056865175 73.8197126053065,18.4179627497978 73.8204533202187,18.4153902200278 73.8217743873926,18.4149075345931 73.8217503990728,18.4113484886791 73.8214949763434,18.4040143449617 73.8216498506408,18.4026046028225 73.822813647432,18.3982564153015 73.8244918848927,18.3952600487123 73.8235833618828,18.3920085480561 73.8207209493125,18.3891881545098 73.8169874902806,18.3893443064946 73.8120332042691,18.3882796314999 73.8048212853741,18.3855620367586 73.8027571227431,18.3859574254948 73.8016349154191,18.3857888044099 73.7999021817404,18.3864632914479 73.798871554179,18.388029220672 73.7958098338569,18.3927626214978 73.7947559480287,18.3936257179525 73.7947832037819,18.395242887849 73.7934643911688,18.4007496336888 73.7925283641927,18.403823881567 73.7878875188939,18.4068719735628 73.7867882065106,18.4074897691377 73.7856707242246,18.4083346947903 73.7849257357342,18.4090070018718 73.7843424642334,18.4098319400921 73.7839877770144,18.4100470777106 73.7834702828274,18.410052892727 73.7820573489676,18.4098900848597 73.7815747421806,18.4096400598409 73.7812570090038,18.4097718635807 73.7788386357946,18.4105060638038 73.7783116933301,18.4104788080506 73.7779846251905,18.4107513646838 73.7780754774016,18.4113873301613 73.7784570561483,18.4119142735249 73.7796199649895,18.4116871425476 73.7806793025078,18.4115588587544 73.7811037636279,18.4115995611709 73.7814351925801,18.4116577059385 73.7815224106309,18.4118321429392 73.7804564891758,18.4128289883673 73.7803076369881,18.4132532174621 73.7796501282511,18.4138265307699 73.7785686233434,18.4150185119949 73.7785046635594,18.4159488390677 73.7783418556922,18.4161232751692 73.7778534338889,18.4161930499694 73.7774173436356,18.4161872358524 73.7770397614759,18.4160117088734 73.7758677676834,18.4165749929417 73.7730604340919,18.4179105203543 73.7690720208572,18.4189553212312 73.7674744750671,18.4195189686255 73.764956778033,18.4194898962418 73.7647823410323,18.4196468881935 73.7645788325472,18.4201934556635 73.7636753979014,18.4206270026341 73.7634755226774,18.4213447353713 73.7628032164953,18.4227256893392 73.7625262990496,18.4234903019359 73.7624855966332,18.424106643307 73.7619037793361,18.4249061424046 73.7620763988068,18.4256602167457 73.7615585403944,18.4265233123011 73.7615221996898,18.4273409830999 73.759114854097,18.4325906645601 73.7586566529823,18.4325214773843 73.7575932244479,18.4324005590386 73.7521192130313,18.432269836284 73.7505832222381,18.4316489038738 73.7494067183454,18.434835268433 73.7489622607998,18.4355437849178 73.7476341186197,18.4367464339009 73.7459608687991,18.437332071518 73.7436496920798,18.4398105725001 73.7422588033012,18.4409609322014 73.7412966842947,18.441473365004 73.7408679145228,18.4416093164169 73.7401986147744,18.4420067133392 73.7393306161151,18.4428015071838 73.7389541347256,18.4433453128361 73.7379083535878,18.4442446852441 73.7373750052524,18.4448930694597 73.7369357772644,18.4455519118914 73.7369671501141,18.4460538864777 73.7382116301627,18.4477794255801 73.738609027085,18.4490657366944 73.7395920616245,18.4503311313767 73.7397803023192,18.4510945523718 73.7402509031567,18.4513559969818 73.740679673828,18.4521612490425 73.7413594317924,18.4532174874971 73.7416627083674,18.4533952708751 73.7428548991343,18.4551208099775 73.7429803923313,18.4556646156296 73.7435660299485,18.4561875066482 73.7439111375891,18.4566790239178 73.7438588483074,18.4569927578096 73.7435869454812,18.457233287786 73.7430117660803,18.458279068924 73.7429281030496,18.4587496706609 73.7423842973976,18.4589169958228 73.7421855984867,18.4590634045526 73.7421855984867,18.4594503441581 73.7421960567027,18.459743162517 73.7415999608696,18.4601301021225 73.7417882015644,18.460349715667 73.7419659849423,18.4606111611762 73.7415999608696,18.46120725611 73.7412339376962,18.4617196889125 73.7410143241519,18.4620334237036 73.7401254099597,18.4621484595838 73.7396769783101,18.4627604509342 73.7392084683962,18.4632691182753 73.7382982204866,18.4639049533509 73.7375084466577,18.4642462964295 73.7367119800739,18.4645876395081 73.7361564607522,18.4647415782612 73.735754881083,18.4647148063434 73.7354938537584,18.4649356753412 73.7354001515958,18.465323869501 73.7353934588411,18.465658519825 73.7352194409247,18.4660734859027 73.7348914842547,18.4665687677346 73.7346505360935,18.466910110813 73.7344497462589,18.4672046028102 73.7343761232595,18.4675392522348 73.7343560440963,18.468108157066 73.7343627368509,18.4685097376344 73.7340548593443,18.468817615141 73.7336934371025,18.4694869157886 73.7334257170233,18.4703570053716 73.7334190242687,18.4706916556954 73.7333186293514,18.4709861476926 73.7329906717823,18.4714881222791 73.7322946001158,18.4722845897622 73.7321205821993,18.4727263277579 73.7321339677085,18.4730007405918 73.7324552316237,18.4731011355091 73.7324598334546,18.4744991361262 73.7327526518135,18.4764233732403 73.7334428679941,18.4779815871807 73.7337670601019,18.4789855372529 73.735199779946,18.4795502593371 73.7366847899712,18.4797594155646 73.7370704075734,18.4795300111011 73.7372599693722,18.4796757525339 73.737249511156,18.4812235091576 73.7371763063416,18.4823006640445 73.7370194393958,18.4827503493493 73.7369227047192,18.4848366829667 73.7368573437915,18.4855883381314 73.7371678095468,18.4863073128324 73.7371351290831,18.4873204135063 73.7377724021747,18.4878759849888 73.7388835442403,18.4882027914258 73.7403214936422,18.4883661946442 73.7428215648635,18.4886439799359 73.7431973924459,18.4875655183341 73.7443018417566,18.485704053899 73.7447034214258,18.4855367287371 73.7447034214258,18.4851619209859 73.744623105672,18.4847938059895 73.7447098470819,18.4845448259831 73.7452110185738,18.4844934243321 73.7455365659598,18.4843435010518 73.7461405425521,18.4843135167555 73.7466931165941,18.4845533938241 73.7473935895425,18.4848000805593 73.7478328175306,18.4851974774818 73.7481674669552,18.4856785365354 73.7484184551477,18.4862537168357 73.7485544065607,18.4865256196617 73.7491714170274,18.486787065171 73.7495478984169,18.4869543903329 73.7497858176615,18.4871620572832 73.7501027981058,18.4879587918648 73.7502741396398,18.4884642468277 73.7504026446664,18.488836913293 73.7507110581689,18.4891324763827 73.7511693949517,18.4891838780337 73.7518333401367,18.4891153424991 73.7525658226547,18.4889440009649 73.7529984577127,18.4887555264464 73.7532940208026,18.4883871434521 73.7542744113351,18.4883611746286 73.7547897723302,18.4883076307927 73.7552515894893,18.4880532971221 73.7556665555671,18.4876182518809 73.7558742773762,18.4872631608663 73.756101599909,18.4871631283758 73.7565366451501,18.4871631283758 73.7567976724746,18.4870158823772 73.7575481252459,18.4862955479013 73.759294160797,18.4854229483105 73.7598965312,18.485275702312 73.7602111023606,18.4850749115781 73.7603315764413,18.4846599463996 73.7602646461966,18.4843855326662 73.7601642512792,18.4841245062411 73.7602378742786,18.4837496984898 73.760826858273,18.4837296193266 73.7613489120228,18.483689461 73.761750491692,18.4837697767538 73.7620650628524,18.4838634789165 73.7624264850944,18.4837630839992 73.7633286804743,18.4832353303464 73.7642437388575,18.4831372889548 73.7650770956315,18.4831863092008 73.7656490077955,18.4832843514917 73.7663189613511,18.483725540901 73.7670706165159,18.4841830700928 73.767805930999,18.4844935358481 73.7683615024815,18.4846569390666 73.7690844072197,18.4848665431565 73.7705304424261,18.4859490499089 73.7713544399555,18.4865145391147 73.7726550637803,18.4879767306417 73.7740768649375,18.488833042432
            </coordinates>
          </LinearRing>
        </outerBoundaryIs>
      </Polygon>

      </MultiGeometry>
    </Placemark>
  </Document>
</kml>
