{
  "type": "FeatureCollection",
  "features": [
    {
      "type": "Feature",
      "properties": {
        "ward_number": 17,
        "ward_name_en": "17 Shaniwar peth - Navi Peth",
        "ward_name_mr": "प्रभाग १७ : शनिवार पेठ - नवी पेठ",
        "entity_type": "ward",
        "parent_municipality": "Pune Municipal Corporation",
        "parent_municipality_mr": "पुणे महानगरपालिका",
        "district": "Pune",
        "district_mr": "पुणे",
        "state": "Maharashtra",
        "state_mr": "महाराष्ट्र",
        "country": "India",
        "country_mr": "भारत",
        "area_sq_km": 2.2862,
        "perimeter_km": 8.1233,
        "author": "Nikhil VJ",
        "added_by": "mahanvyakti",
        "source_url": "http://www.pmc.gov.in/sites/default/files/final_ward_maps/17_F_Ward.pdf",
        "created_date": "2025-11-02",
        "data_year": 2022
      },
      "geometry": {
        "type": "Polygon",
        "coordinates": [
          [
            [
              73.85382,
              18.5182
            ],
            [
              73.85401,
              18.51802
            ],
            [
              73.85401,
              18.51818
            ],
            [
              73.85407,
              18.51832
            ],
            [
              73.85418,
              18.51847
            ],
            [
              73.8543,
              18.51857
            ],
            [
              73.85453,
              18.51857
            ],
            [
              73.85621,
              18.5186
            ],
            [
              73.85624,
              18.51761
            ],
            [
              73.85623,
              18.51678
            ],
            [
              73.85623,
              18.51668
            ],
            [
              73.85624,
              18.51615
            ],
            [
              73.85629,
              18.51573
            ],
            [
              73.85597,
              18.51562
            ],
            [
              73.85571,
              18.51543
            ],
            [
              73.85527,
              18.5152
            ],
            [
              73.85469,
              18.51487
            ],
            [
              73.8543,
              18.51468
            ],
            [
              73.85418,
              18.51466
            ],
            [
              73.85375,
              18.5146
            ],
            [
              73.85378,
              18.51422
            ],
            [
              73.85385,
              18.51295
            ],
            [
              73.85378,
              18.51076
            ],
            [
              73.85373,
              18.50956
            ],
            [
              73.85371,
              18.50788
            ],
            [
              73.85322,
              18.50796
            ],
            [
              73.85312,
              18.50805
            ],
            [
              73.85301,
              18.50819
            ],
            [
              73.8529,
              18.50835
            ],
            [
              73.85284,
              18.5086
            ],
            [
              73.85258,
              18.50861
            ],
            [
              73.8524,
              18.50858
            ],
            [
              73.85198,
              18.50853
            ],
            [
              73.85139,
              18.50846
            ],
            [
              73.85043,
              18.50832
            ],
            [
              73.85042,
              18.50791
            ],
            [
              73.85041,
              18.50783
            ],
            [
              73.85063,
              18.50593
            ],
            [
              73.85008,
              18.50594
            ],
            [
              73.84941,
              18.50583
            ],
            [
              73.84951,
              18.50443
            ],
            [
              73.84943,
              18.50441
            ],
            [
              73.84824,
              18.50424
            ],
            [
              73.84822,
              18.50219
            ],
            [
              73.84738,
              18.50218
            ],
            [
              73.84727,
              18.50226
            ],
            [
              73.84724,
              18.50219
            ],
            [
              73.84674,
              18.50212
            ],
            [
              73.84605,
              18.50213
            ],
            [
              73.84577,
              18.50218
            ],
            [
              73.8455,
              18.50218
            ],
            [
              73.84544,
              18.50244
            ],
            [
              73.84534,
              18.50367
            ],
            [
              73.84527,
              18.50386
            ],
            [
              73.84491,
              18.50517
            ],
            [
              73.84421,
              18.50503
            ],
            [
              73.84383,
              18.50496
            ],
            [
              73.84341,
              18.50492
            ],
            [
              73.84285,
              18.50494
            ],
            [
              73.84225,
              18.50494
            ],
            [
              73.84183,
              18.50498
            ],
            [
              73.84134,
              18.50498
            ],
            [
              73.84074,
              18.50498
            ],
            [
              73.84044,
              18.505
            ],
            [
              73.83963,
              18.505
            ],
            [
              73.83947,
              18.50497
            ],
            [
              73.83931,
              18.50489
            ],
            [
              73.83919,
              18.50483
            ],
            [
              73.83902,
              18.50476
            ],
            [
              73.83882,
              18.50471
            ],
            [
              73.83889,
              18.50347
            ],
            [
              73.83884,
              18.50332
            ],
            [
              73.83783,
              18.50331
            ],
            [
              73.83783,
              18.50296
            ],
            [
              73.8368,
              18.50282
            ],
            [
              73.83667,
              18.50384
            ],
            [
              73.83654,
              18.50585
            ],
            [
              73.83673,
              18.50649
            ],
            [
              73.83718,
              18.50742
            ],
            [
              73.83749,
              18.50781
            ],
            [
              73.83942,
              18.50962
            ],
            [
              73.8401,
              18.51025
            ],
            [
              73.84079,
              18.51136
            ],
            [
              73.84118,
              18.512
            ],
            [
              73.84228,
              18.51303
            ],
            [
              73.84323,
              18.514
            ],
            [
              73.84388,
              18.51473
            ],
            [
              73.84501,
              18.51612
            ],
            [
              73.84559,
              18.51723
            ],
            [
              73.84592,
              18.51785
            ],
            [
              73.84645,
              18.51848
            ],
            [
              73.84737,
              18.51934
            ],
            [
              73.84788,
              18.51984
            ],
            [
              73.8482,
              18.52015
            ],
            [
              73.84823,
              18.52018
            ],
            [
              73.84885,
              18.52068
            ],
            [
              73.84927,
              18.52092
            ],
            [
              73.84945,
              18.52102
            ],
            [
              73.84982,
              18.52111
            ],
            [
              73.85105,
              18.52122
            ],
            [
              73.85165,
              18.52131
            ],
            [
              73.85321,
              18.52177
            ],
            [
              73.85312,
              18.52174
            ],
            [
              73.85302,
              18.52171
            ],
            [
              73.85306,
              18.52108
            ],
            [
              73.85305,
              18.52063
            ],
            [
              73.85306,
              18.52037
            ],
            [
              73.85309,
              18.52016
            ],
            [
              73.85299,
              18.52015
            ],
            [
              73.85299,
              18.51945
            ],
            [
              73.85386,
              18.51939
            ],
            [
              73.85384,
              18.51863
            ],
            [
              73.85382,
              18.5182
            ]
          ]
        ]
      }
    }
  ]
}