<?xml version="1.0" encoding="UTF-8"?>
<kml xmlns="http://www.opengis.net/kml/2.2">
  <Document>
    <name>5 West Kharadi - Vadgaon Sheri</name>
    <description>Part of OS-Bhugol open geographic data project</description>
    <Placemark>
      <name>5 West Kharadi - Vadgaon Sheri</name>
      <ExtendedData>
        <Data name="ward_number"><value>5</value></Data>
        <Data name="ward_name_en"><value>5 West Kharadi - Vadgaon Sheri</value></Data>
        <Data name="ward_name_mr"><value>प्रभाग ०५ : पश्चिम खराडी - वडगाव शेरी</value></Data>
        <Data name="entity_type"><value>ward</value></Data>
        <Data name="parent_municipality"><value>Pune Municipal Corporation</value></Data>
        <Data name="parent_municipality_mr"><value>पुणे महानगरपालिका</value></Data>
        <Data name="district"><value>Pune</value></Data>
        <Data name="district_mr"><value>पुणे</value></Data>
        <Data name="state"><value>Maharashtra</value></Data>
        <Data name="state_mr"><value>महाराष्ट्र</value></Data>
        <Data name="country"><value>India</value></Data>
        <Data name="country_mr"><value>भारत</value></Data>
        <Data name="area_sq_km"><value>4.1059</value></Data>
        <Data name="perimeter_km"><value>11.1387</value></Data>
        <Data name="author"><value>Nikhil VJ</value></Data>
        <Data name="source_url"><value>http://www.pmc.gov.in/sites/default/files/final_ward_maps/5_F_Ward.pdf</value></Data>
        <Data name="created_date"><value>2025-11-02</value></Data>
        <Data name="data_year"><value>2022</value></Data>
      </ExtendedData>
      <MultiGeometry>
      <Polygon>
        <outerBoundaryIs>
          <LinearRing>
            <tessellate>1</tessellate>
            <coordinates>
              73.93445,18.5636 73.93457,18.56346 73.93473,18.56348 73.93543,18.56343 73.93668,18.56293 73.93822,18.56234 73.93873,18.5624 73.93837,18.55949 73.93833,18.55919 73.93755,18.55414 73.93735,18.55169 73.93708,18.55081 73.94197,18.54952 73.9435,18.54904 73.94545,18.54856 73.94651,18.5486 73.94769,18.54859 73.94796,18.54853 73.9484,18.54841 73.94888,18.54837 73.94903,18.54773 73.94935,18.54741 73.9497,18.54706 73.94985,18.54669 73.94956,18.54566 73.94722,18.54568 73.94667,18.54564 73.94612,18.54551 73.94568,18.54532 73.94508,18.545 73.94449,18.54461 73.94391,18.54414 73.94352,18.5437 73.94284,18.54267 73.94233,18.54161 73.94205,18.54098 73.94159,18.53997 73.94145,18.53958 73.9414,18.53944 73.94069,18.53779 73.94033,18.5372 73.93978,18.53651 73.93931,18.53612 73.93898,18.53597 73.93831,18.53578 73.93799,18.53576 73.93698,18.53576 73.93596,18.53585 73.93377,18.53603 73.93462,18.5399 73.93419,18.53996 73.9335,18.53997 73.93182,18.53993 73.9316,18.54153 73.93134,18.54276 73.93065,18.54546 73.92998,18.54737 73.92994,18.5477 73.92978,18.54823 73.92949,18.54897 73.92913,18.54991 73.92902,18.5503 73.92893,18.55089 73.92866,18.55281 73.92731,18.55282 73.92734,18.55327 73.92691,18.55323 73.92691,18.5533 73.92687,18.55335 73.92596,18.55339 73.9263,18.55535 73.92563,18.55545 73.92572,18.55584 73.92562,18.55586 73.92309,18.55614 73.92308,18.556 73.9226,18.55611 73.92197,18.55632 73.92118,18.55658 73.92134,18.55697 73.92132,18.55825 73.92119,18.55845 73.92101,18.55867 73.92097,18.55885 73.92116,18.55955 73.92128,18.56019 73.9213,18.56073 73.92097,18.56171 73.92093,18.56189 73.92088,18.56188 73.92105,18.56193 73.92199,18.56221 73.92269,18.56237 73.92379,18.56265 73.92469,18.56291 73.92638,18.56302 73.92769,18.56301 73.92958,18.56316 73.93202,18.56341 73.93381,18.56359 73.93445,18.5636
            </coordinates>
          </LinearRing>
        </outerBoundaryIs>
      </Polygon>

      </MultiGeometry>
    </Placemark>
  </Document>
</kml>
