<?xml version="1.0" encoding="UTF-8"?>
<kml xmlns="http://www.opengis.net/kml/2.2">
  <Document>
    <name>Ward 27</name>
    <description>Part of OS-Bhugol open geographic data project</description>
    <Placemark>
      <name>Ward 27</name>
      <ExtendedData>
        <Data name="ward_number"><value>27</value></Data>
        <Data name="ward_name_en"><value>Ward 27</value></Data>
        <Data name="ward_name_mr"><value>प्रभाग २७</value></Data>
        <Data name="entity_type"><value>ward</value></Data>
        <Data name="parent_municipality"><value>Pune Municipal Corporation</value></Data>
        <Data name="parent_municipality_mr"><value>पुणे महानगरपालिका</value></Data>
        <Data name="district"><value>Pune</value></Data>
        <Data name="district_mr"><value>पुणे</value></Data>
        <Data name="state"><value>Maharashtra</value></Data>
        <Data name="state_mr"><value>महाराष्ट्र</value></Data>
        <Data name="country"><value>India</value></Data>
        <Data name="country_mr"><value>भारत</value></Data>
        <Data name="area_sq_km"><value>2.8603</value></Data>
        <Data name="perimeter_km"><value>9.6452</value></Data>
        <Data name="author"><value>Parisar</value></Data>
        <Data name="source_url"><value>https://data.opencity.in/dataset/pune-wards-info/resource/2badcc86-489c-4b7e-b7dd-a273ef01b798</value></Data>
        <Data name="created_date"><value>2025-11-02</value></Data>
        <Data name="data_year"><value>2025</value></Data>
      </ExtendedData>
      <MultiGeometry>
      <Polygon>
        <outerBoundaryIs>
          <LinearRing>
            <tessellate>1</tessellate>
            <coordinates>
              73.8507720220197,18.4926674303136 73.8497444126543,18.4926509630737 73.8471980660397,18.492695901067 73.8463251019763,18.4944309150592 73.8460421317245,18.4955762283226 73.8461492194692,18.4956498516139 73.8471746411147,18.4969113013228 73.8475748286135,18.4969349078581 73.8490272094047,18.4961183611771 73.8492213066945,18.4965734858624 73.8494206613931,18.4973600897243 73.8494847428933,18.4979565268194 73.8498659771065,18.4983591782326 73.8501572550102,18.4988774845064 73.8504527623747,18.4995590714078 73.849995941162,18.4999817105109 73.8494828857047,18.5003266577399 73.8488236471061,18.5007093894973 73.8483765803035,18.5008845693437 73.8475561823853,18.5011193535587 73.8470364620018,18.5012476796667 73.8457897824611,18.5012280498312 73.8455870080181,18.5012318137775 73.8454328370513,18.5021431452278 73.8453191769193,18.5028705938303 73.8450935381309,18.502864495045 73.8439049372936,18.5028028942411 73.8436634201281,18.5027199056922 73.843309769,18.50237131554 73.8421654916713,18.5010125648079 73.8391324605483,18.5010143607971 73.8390937941255,18.4993566995205 73.838420521701,18.4981793301548 73.8384150724468,18.4976358788591 73.8362791424488,18.497600477407 73.835568712012,18.4983716220409 73.8357900850059,18.4985741519989 73.8362845087136,18.4996502514234 73.8366625977753,18.5008136020429 73.8367983219514,18.5017733671041 73.8364687064594,18.5048271626674 73.8364493175005,18.5059226504894 73.8365990020768,18.5063523146916 73.8370395237006,18.5072581773801 73.8373745688189,18.5077111085769 73.8378065595941,18.50810393289 73.8393673883,18.5095484268818 73.8400847887443,18.5103918560624 73.8410930250228,18.5120690198551 73.8415936534678,18.5125258289468 73.8429369082511,18.5137390885631 73.8435907165926,18.5129600216727 73.8438314001128,18.5128299137584 73.8437919781927,18.5123523699276 73.8440434313241,18.5119974877396 73.8445090698362,18.5118079250281 73.8449074793572,18.5116457293019 73.8459672450806,18.5107859013855 73.8466390906246,18.5102708399493 73.847770467687,18.5094658908929 73.8487812704659,18.5088433609402 73.8504236699555,18.5076813402657 73.8518036101408,18.5067350657379 73.8524996013374,18.5062577913734 73.8530983658641,18.5058471859615 73.8539267679278,18.5050767525686 73.8543732413702,18.504698536677 73.8550043653174,18.5042819946358 73.855891794664,18.503472636269 73.8570638363222,18.5024036859633 73.8577906451696,18.5017407941418 73.8583912408304,18.5011930121203 73.8583993185988,18.5005467389152 73.8578594599842,18.4964605412504 73.8578803755224,18.49600039799 73.8576392941222,18.4924819390253 73.8507720220197,18.4926674303136
            </coordinates>
          </LinearRing>
        </outerBoundaryIs>
      </Polygon>

      </MultiGeometry>
    </Placemark>
  </Document>
</kml>
