<?xml version="1.0" encoding="UTF-8"?>
<kml xmlns="http://www.opengis.net/kml/2.2">
  <Document>
    <name>Ward 19</name>
    <description>Part of OS-Bhugol open geographic data project</description>
    <Placemark>
      <name>Ward 19</name>
      <ExtendedData>
        <Data name="ward_number"><value>19</value></Data>
        <Data name="ward_name_en"><value>Ward 19</value></Data>
        <Data name="ward_name_mr"><value>प्रभाग १९</value></Data>
        <Data name="entity_type"><value>ward</value></Data>
        <Data name="parent_municipality"><value>Pune Municipal Corporation</value></Data>
        <Data name="parent_municipality_mr"><value>पुणे महानगरपालिका</value></Data>
        <Data name="district"><value>Pune</value></Data>
        <Data name="district_mr"><value>पुणे</value></Data>
        <Data name="state"><value>Maharashtra</value></Data>
        <Data name="state_mr"><value>महाराष्ट्र</value></Data>
        <Data name="country"><value>India</value></Data>
        <Data name="country_mr"><value>भारत</value></Data>
        <Data name="area_sq_km"><value>4.243</value></Data>
        <Data name="perimeter_km"><value>11.5587</value></Data>
        <Data name="author"><value>Parisar</value></Data>
        <Data name="source_url"><value>https://data.opencity.in/dataset/pune-wards-info/resource/2badcc86-489c-4b7e-b7dd-a273ef01b798</value></Data>
        <Data name="created_date"><value>2025-11-02</value></Data>
        <Data name="data_year"><value>2025</value></Data>
      </ExtendedData>
      <MultiGeometry>
      <Polygon>
        <outerBoundaryIs>
          <LinearRing>
            <tessellate>1</tessellate>
            <coordinates>
              73.8808907485484,18.4773995654782 73.8836027062446,18.4768627783286 73.8857791459703,18.4766717339083 73.8860226716551,18.4767702413496 73.8867350984578,18.4767258916426 73.8867334810041,18.4777645847773 73.8870030675701,18.4777661688971 73.8869834910118,18.4782401795354 73.8869626864447,18.478743902284 73.8871732054872,18.4787401426642 73.8878963890799,18.4776219021281 73.8879787638292,18.4776106694653 73.8900311305868,18.4772728002788 73.8904988679301,18.4780846968262 73.891158975598,18.4807352188412 73.891214098104,18.4822887439456 73.8909603593979,18.4826865188301 73.8922811692123,18.4826441294549 73.892887535431,18.4825003980788 73.8945249649871,18.4821759073286 73.8941260002085,18.4799144180686 73.8936614245167,18.4793826455983 73.8937343995119,18.4783152443567 73.8933161377901,18.477701227252 73.8947476691019,18.4773649669474 73.8964388283135,18.4768469798667 73.8984250796066,18.4769647157312 73.9000049858943,18.4772393372985 73.9015487988618,18.4773414264188 73.9018027867444,18.4773962905338 73.9018477625815,18.4775227500261 73.9017926860778,18.4778810781704 73.902797898292,18.4779935542242 73.9031213799243,18.4779006264251 73.9042142762515,18.4778951014633 73.9053184622175,18.4780673868943 73.9056530831488,18.4781759706405 73.9081919360996,18.4782495618356 73.9077651545032,18.4771289228696 73.9074503221968,18.4763966444154 73.9071494539163,18.4756968392307 73.9069886549814,18.4750285135021 73.9065169645763,18.4730214069531 73.9063194995751,18.4721436619942 73.9053803644611,18.4696685902391 73.9046531646495,18.4676934644117 73.9040883010315,18.4667464579153 73.9027961802691,18.4651046981861 73.9022539108917,18.4659107940681 73.8997667387155,18.4649695423798 73.8985757164703,18.4649713154782 73.8947222499855,18.4646576582426 73.8940794085294,18.4647618178359 73.8930658263695,18.4647219218168 73.8923721121907,18.4646946131226 73.8906110559868,18.4646874206094 73.8895747198484,18.46461617849 73.8880285404849,18.4648025972621 73.8872313355752,18.4647005861946 73.8872109323053,18.46333140748 73.8867922318094,18.4629421650949 73.8866522173379,18.4624711348143 73.8860203211012,18.4618682866555 73.8858761044027,18.4616547838126 73.8858727540182,18.4613365395128 73.8852217387932,18.4612341204766 73.8845608665838,18.4614274171152 73.8845910466467,18.462906473927 73.8844791999676,18.4629968237226 73.8844614222247,18.4644887431086 73.8842710117706,18.4644860395985 73.8842232132854,18.4655668977537 73.8833316229333,18.4657946271451 73.8827390800414,18.4661842892359 73.8824752580323,18.4660808049174 73.8815899453736,18.4661241205849 73.8815576940168,18.4661952198982 73.8816553078691,18.4670755379256 73.8764884782116,18.4668892223887 73.8762396083713,18.467864799621 73.8750059543615,18.4712744820319 73.8748537764807,18.4721803952091 73.8762731908552,18.4718865111537 73.8781812419709,18.4718097504198 73.8786418063744,18.4718536139532 73.879639695016,18.4718974765874 73.8796373262018,18.4730006731427 73.8798978391141,18.4735845795647 73.8799292803121,18.4740741641914 73.8796238516595,18.4746176469869 73.879551392383,18.4750254382735 73.8797164557499,18.4755929545512 73.8808907485484,18.4773995654782
            </coordinates>
          </LinearRing>
        </outerBoundaryIs>
      </Polygon>

      </MultiGeometry>
    </Placemark>
  </Document>
</kml>
