<?xml version="1.0" encoding="UTF-8"?>
<kml xmlns="http://www.opengis.net/kml/2.2">
  <Document>
    <name>33 Ideal colony - Mahatma Society</name>
    <description>Part of OS-Bhugol open geographic data project</description>
    <Placemark>
      <name>33 Ideal colony - Mahatma Society</name>
      <ExtendedData>
        <Data name="ward_number"><value>33</value></Data>
        <Data name="ward_name_en"><value>33 Ideal colony - Mahatma Society</value></Data>
        <Data name="ward_name_mr"><value>प्रभाग ३३ : आयडियल कॉलनी - महात्मा सोसायटी</value></Data>
        <Data name="entity_type"><value>ward</value></Data>
        <Data name="parent_municipality"><value>Pune Municipal Corporation</value></Data>
        <Data name="parent_municipality_mr"><value>पुणे महानगरपालिका</value></Data>
        <Data name="district"><value>Pune</value></Data>
        <Data name="district_mr"><value>पुणे</value></Data>
        <Data name="state"><value>Maharashtra</value></Data>
        <Data name="state_mr"><value>महाराष्ट्र</value></Data>
        <Data name="country"><value>India</value></Data>
        <Data name="country_mr"><value>भारत</value></Data>
        <Data name="area_sq_km"><value>8.6336</value></Data>
        <Data name="perimeter_km"><value>25.0963</value></Data>
        <Data name="author"><value>Nikhil VJ</value></Data>
        <Data name="source_url"><value>http://www.pmc.gov.in/sites/default/files/final_ward_maps/33_F_Ward.pdf</value></Data>
        <Data name="created_date"><value>2025-11-02</value></Data>
        <Data name="data_year"><value>2022</value></Data>
      </ExtendedData>
      <MultiGeometry>
      <Polygon>
        <outerBoundaryIs>
          <LinearRing>
            <tessellate>1</tessellate>
            <coordinates>
              73.77003,18.51315 73.77016,18.51291 73.77098,18.51186 73.77203,18.51102 73.77272,18.51051 73.77329,18.51002 73.77408,18.50952 73.77463,18.50928 73.77516,18.50912 73.77674,18.50875 73.77826,18.50847 73.7795,18.50823 73.78106,18.50785 73.78191,18.50764 73.78287,18.50745 73.78338,18.50739 73.78475,18.50731 73.78566,18.50736 73.78634,18.50741 73.78695,18.50745 73.78796,18.50749 73.78845,18.5075 73.78872,18.50686 73.78887,18.50686 73.78881,18.50629 73.78927,18.50629 73.78932,18.50687 73.78939,18.50695 73.78947,18.50736 73.78966,18.50733 73.79044,18.50702 73.79092,18.50672 73.79131,18.50639 73.79173,18.50596 73.79204,18.5055 73.7923,18.50492 73.79246,18.5044 73.79252,18.50409 73.79255,18.50344 73.79249,18.50288 73.79228,18.50231 73.79167,18.50133 73.79445,18.5013 73.79445,18.50117 73.79567,18.50117 73.79585,18.50014 73.79587,18.49969 73.79587,18.49942 73.79579,18.49875 73.79645,18.49878 73.79756,18.49868 73.79841,18.49862 73.79856,18.49862 73.79876,18.49849 73.79932,18.49844 73.80011,18.49845 73.80028,18.49943 73.80035,18.49953 73.8007,18.4995 73.80066,18.49913 73.80095,18.4991 73.80098,18.4994 73.80131,18.49936 73.80136,18.4998 73.80216,18.49976 73.80211,18.49753 73.80251,18.49753 73.80261,18.49824 73.80442,18.49816 73.8045,18.49915 73.80484,18.49912 73.80521,18.49903 73.80534,18.49901 73.80587,18.49898 73.80649,18.49895 73.8071,18.49892 73.80762,18.49891 73.80789,18.49891 73.80849,18.49866 73.809,18.49841 73.80929,18.49834 73.81002,18.49821 73.81066,18.49818 73.81181,18.49817 73.81213,18.4982 73.81244,18.4982 73.81272,18.49816 73.81349,18.49801 73.8138,18.49798 73.81366,18.49912 73.81365,18.49949 73.81367,18.49972 73.8138,18.50012 73.81399,18.50055 73.81422,18.50103 73.81449,18.50141 73.81476,18.50165 73.81495,18.50177 73.8158,18.50223 73.81502,18.50216 73.81501,18.50278 73.81491,18.50279 73.81481,18.50281 73.81435,18.50326 73.81405,18.50354 73.81389,18.50374 73.81385,18.50381 73.81368,18.50389 73.81344,18.50407 73.81328,18.50419 73.81311,18.50428 73.81274,18.50445 73.81239,18.50466 73.81203,18.50495 73.81142,18.50552 73.81115,18.50578 73.81087,18.50598 73.81054,18.50613 73.80993,18.5064 73.80941,18.50663 73.80923,18.50671 73.80901,18.50708 73.80882,18.50772 73.80873,18.50802 73.80918,18.50819 73.80932,18.50824 73.80957,18.50828 73.80994,18.50835 73.8102,18.50837 73.81046,18.50844 73.81074,18.5087 73.81105,18.50898 73.81136,18.50917 73.81154,18.50929 73.81181,18.50939 73.81223,18.50947 73.81251,18.50951 73.81324,18.50955 73.8137,18.50956 73.81428,18.50961 73.8146,18.50966 73.81523,18.50985 73.81545,18.50996 73.81574,18.50994 73.81633,18.51006 73.81673,18.51017 73.81733,18.51029 73.81773,18.51038 73.81871,18.51047 73.81924,18.51049 73.82026,18.51047 73.8208,18.51019 73.82113,18.50991 73.82153,18.50954 73.8223,18.50866 73.82287,18.508 73.82396,18.50668 73.82445,18.50621 73.82473,18.50603 73.82508,18.50563 73.82394,18.50534 73.82315,18.5051 73.82249,18.50483 73.82125,18.50425 73.8214,18.50392 73.82164,18.50297 73.82195,18.50181 73.82235,18.5002 73.82255,18.49958 73.8228,18.49905 73.82319,18.49851 73.82355,18.49792 73.82393,18.49812 73.82438,18.49817 73.825,18.49827 73.82542,18.49832 73.82587,18.49854 73.82609,18.49859 73.82612,18.49819 73.82654,18.49815 73.82637,18.49709 73.82579,18.49473 73.82501,18.49163 73.82467,18.49017 73.82434,18.49033 73.82315,18.49088 73.82145,18.49173 73.8204,18.49219 73.81844,18.49279 73.81852,18.49386 73.81846,18.49422 73.81821,18.49461 73.81794,18.49436 73.81777,18.49404 73.81742,18.49388 73.81609,18.49355 73.81518,18.49329 73.8134,18.49254 73.81233,18.49245 73.81049,18.49232 73.80915,18.49229 73.80868,18.49225 73.80852,18.49202 73.80823,18.49185 73.80786,18.49174 73.80776,18.49172 73.8074,18.49163 73.80714,18.49169 73.80672,18.49194 73.80652,18.49199 73.80621,18.49209 73.80591,18.49223 73.80563,18.49226 73.80532,18.49221 73.80506,18.49204 73.80491,18.49211 73.80466,18.49236 73.80436,18.49274 73.80414,18.49286 73.80325,18.49312 73.8021,18.49346 73.80156,18.49354 73.80091,18.49339 73.80018,18.49314 73.79996,18.49216 73.79986,18.49238 73.79931,18.49242 73.79868,18.49246 73.79838,18.49242 73.79801,18.49239 73.79771,18.49253 73.79735,18.49259 73.79703,18.49266 73.79658,18.493 73.79604,18.49335 73.79541,18.49365 73.7945,18.49431 73.7942,18.49453 73.79383,18.49463 73.79379,18.49471 73.79369,18.49494 73.79329,18.49519 73.79276,18.49555 73.79232,18.49605 73.7923,18.49616 73.79221,18.49634 73.79192,18.49644 73.79148,18.49643 73.79036,18.49693 73.78864,18.49767 73.78841,18.49777 73.7878,18.49823 73.78653,18.49899 73.7863,18.49902 73.78578,18.49904 73.78561,18.49973 73.78554,18.49982 73.78469,18.50036 73.7832,18.50037 73.7831,18.49997 73.78288,18.49978 73.7811,18.49813 73.78087,18.49794 73.78062,18.49784 73.78043,18.49787 73.77968,18.49791 73.77754,18.49621 73.77704,18.49589 73.77685,18.49573 73.7772,18.49453 73.77676,18.49355 73.77581,18.49169 73.77477,18.49065 73.77472,18.48977 73.77403,18.48927 73.77404,18.48879 73.77319,18.48826 73.77267,18.48794 73.77219,18.4875 73.77153,18.4867 73.77119,18.48636 73.77082,18.48619 73.77043,18.48581 73.76991,18.48535 73.76907,18.48482 73.76851,18.48615 73.76777,18.48716 73.7672,18.48791 73.76626,18.48917 73.76588,18.49004 73.76582,18.49086 73.76572,18.491 73.76549,18.49114 73.76515,18.49212 73.76515,18.49309 73.76533,18.49363 73.76546,18.49385 73.76568,18.49401 73.76573,18.49427 73.766,18.49435 73.76642,18.49482 73.7672,18.49633 73.76683,18.49653 73.76591,18.49703 73.76548,18.49744 73.76486,18.49809 73.7643,18.49891 73.76373,18.49948 73.76297,18.50013 73.7621,18.50096 73.76108,18.50194 73.76054,18.50229 73.76027,18.50258 73.76022,18.50347 73.76029,18.5039 73.76047,18.50399 73.76122,18.50387 73.76167,18.50395 73.76203,18.5043 73.7621,18.5046 73.76194,18.50497 73.76187,18.50533 73.76213,18.50552 73.7625,18.50579 73.76278,18.50574 73.76326,18.50571 73.76602,18.50639 73.76644,18.5072 73.76744,18.50815 73.76771,18.50844 73.76772,18.50865 73.76764,18.50885 73.76737,18.50895 73.76698,18.50908 73.76663,18.50917 73.76643,18.50933 73.76644,18.50961 73.76663,18.50971 73.76681,18.50971 73.7671,18.50964 73.76858,18.50969 73.76888,18.50982 73.76907,18.51017 73.76929,18.51169 73.76928,18.5123 73.76894,18.51232 73.76883,18.51242 73.76882,18.51259 73.76917,18.51282 73.76981,18.51316 73.77003,18.51315
            </coordinates>
          </LinearRing>
        </outerBoundaryIs>
      </Polygon>

      </MultiGeometry>
    </Placemark>
  </Document>
</kml>
