{
  "type": "FeatureCollection",
  "features": [
    {
      "type": "Feature",
      "properties": {
        "ward_number": 26,
        "ward_name_en": "Ward 26",
        "ward_name_mr": "प्रभाग २६",
        "entity_type": "ward",
        "parent_municipality": "Pune Municipal Corporation",
        "parent_municipality_mr": "पुणे महानगरपालिका",
        "district": "Pune",
        "district_mr": "पुणे",
        "state": "Maharashtra",
        "state_mr": "महाराष्ट्र",
        "country": "India",
        "country_mr": "भारत",
        "area_sq_km": 1.2457,
        "perimeter_km": 6.0116,
        "author": "Parisar",
        "added_by": "mahanvyakti",
        "source_url": "https://data.opencity.in/dataset/pune-wards-info/resource/2badcc86-489c-4b7e-b7dd-a273ef01b798",
        "created_date": "2025-11-02",
        "data_year": 2025
      },
      "geometry": {
        "type": "Polygon",
        "coordinates": [
          [
            [
              73.8576186434117,
              18.5126393535037
            ],
            [
              73.8584789942158,
              18.5127930567792
            ],
            [
              73.8597026599272,
              18.5129340961738
            ],
            [
              73.8606041051049,
              18.5131826873969
            ],
            [
              73.8612381522663,
              18.5132213563639
            ],
            [
              73.8617782734127,
              18.5130784008932
            ],
            [
              73.8620222523974,
              18.5105620281006
            ],
            [
              73.8640191235192,
              18.5106928383844
            ],
            [
              73.8641561159585,
              18.5111639388709
            ],
            [
              73.8658540721771,
              18.5109860166249
            ],
            [
              73.8661241185743,
              18.5117400812434
            ],
            [
              73.8682649656245,
              18.5107479928045
            ],
            [
              73.8681238949721,
              18.509671021015
            ],
            [
              73.8682252513992,
              18.5074625053707
            ],
            [
              73.8683461171429,
              18.5067957067312
            ],
            [
              73.8684113774331,
              18.5063922765979
            ],
            [
              73.8683511009506,
              18.5062629409086
            ],
            [
              73.8681025942026,
              18.5061067370351
            ],
            [
              73.8676552839904,
              18.5060144347125
            ],
            [
              73.8672647753303,
              18.5060215349415
            ],
            [
              73.8649201550548,
              18.5061191626393
            ],
            [
              73.8649869781663,
              18.5043720672463
            ],
            [
              73.8650581248449,
              18.5030170581629
            ],
            [
              73.8653579563606,
              18.5030148585442
            ],
            [
              73.8656320213487,
              18.5029869236715
            ],
            [
              73.8660682551262,
              18.5030096443415
            ],
            [
              73.8671872076062,
              18.5040533096875
            ],
            [
              73.867641433548,
              18.5040560287339
            ],
            [
              73.8676649983014,
              18.5035957132343
            ],
            [
              73.8687968780453,
              18.5037033347803
            ],
            [
              73.8688955241655,
              18.5024793058186
            ],
            [
              73.8690535918825,
              18.5014852203486
            ],
            [
              73.8679739043994,
              18.5011907603717
            ],
            [
              73.8665205889561,
              18.5004696496048
            ],
            [
              73.8652114963835,
              18.500092453166
            ],
            [
              73.864609009805,
              18.5000149160456
            ],
            [
              73.863664826744,
              18.4999696172385
            ],
            [
              73.8619295842977,
              18.5000216423767
            ],
            [
              73.8604056937596,
              18.5004129388271
            ],
            [
              73.8583993185988,
              18.5005467389152
            ],
            [
              73.8583912408304,
              18.5011930121203
            ],
            [
              73.8589632210856,
              18.5035398700935
            ],
            [
              73.8590720568807,
              18.5042443950359
            ],
            [
              73.8589386029814,
              18.5048082326974
            ],
            [
              73.858599854922,
              18.5057653081244
            ],
            [
              73.8580430819836,
              18.5065895743189
            ],
            [
              73.8578521062759,
              18.5118635691546
            ],
            [
              73.8576186434117,
              18.5126393535037
            ]
          ]
        ]
      }
    }
  ]
}