{
  "type": "FeatureCollection",
  "features": [
    {
      "type": "Feature",
      "properties": {
        "ward_number": 1,
        "ward_name_en": "1 Dhanori - Vishrantwadi",
        "ward_name_mr": "प्रभाग ०१ : धनोरी - विश्रांतवाडी",
        "entity_type": "ward",
        "parent_municipality": "Pune Municipal Corporation",
        "parent_municipality_mr": "पुणे महानगरपालिका",
        "district": "Pune",
        "district_mr": "पुणे",
        "state": "Maharashtra",
        "state_mr": "महाराष्ट्र",
        "country": "India",
        "country_mr": "भारत",
        "area_sq_km": 13.1111,
        "perimeter_km": 20.4777,
        "author": "Nikhil VJ",
        "added_by": "mahanvyakti",
        "source_url": "http://www.pmc.gov.in/sites/default/files/final_ward_maps/1_F_Ward.pdf",
        "created_date": "2025-11-02",
        "data_year": 2022
      },
      "geometry": {
        "type": "Polygon",
        "coordinates": [
          [
            [
              73.90771,
              18.60121
            ],
            [
              73.90774,
              18.60102
            ],
            [
              73.90791,
              18.60103
            ],
            [
              73.90818,
              18.60102
            ],
            [
              73.9082,
              18.60084
            ],
            [
              73.90813,
              18.60054
            ],
            [
              73.90787,
              18.60015
            ],
            [
              73.90776,
              18.5999
            ],
            [
              73.90774,
              18.59968
            ],
            [
              73.90798,
              18.59946
            ],
            [
              73.90815,
              18.59911
            ],
            [
              73.90827,
              18.59876
            ],
            [
              73.90829,
              18.5986
            ],
            [
              73.9082,
              18.59847
            ],
            [
              73.90799,
              18.59837
            ],
            [
              73.90786,
              18.59825
            ],
            [
              73.90783,
              18.59787
            ],
            [
              73.90786,
              18.5973
            ],
            [
              73.9078,
              18.59712
            ],
            [
              73.90746,
              18.59706
            ],
            [
              73.90705,
              18.59689
            ],
            [
              73.90679,
              18.59677
            ],
            [
              73.90629,
              18.59637
            ],
            [
              73.90577,
              18.59586
            ],
            [
              73.9054,
              18.59527
            ],
            [
              73.90519,
              18.59465
            ],
            [
              73.90502,
              18.59416
            ],
            [
              73.90473,
              18.59384
            ],
            [
              73.90433,
              18.59372
            ],
            [
              73.90389,
              18.59364
            ],
            [
              73.9036,
              18.59355
            ],
            [
              73.90323,
              18.59335
            ],
            [
              73.90303,
              18.59319
            ],
            [
              73.90292,
              18.59293
            ],
            [
              73.90285,
              18.5926
            ],
            [
              73.9029,
              18.59237
            ],
            [
              73.90311,
              18.59209
            ],
            [
              73.90324,
              18.59186
            ],
            [
              73.90322,
              18.5914
            ],
            [
              73.90314,
              18.5912
            ],
            [
              73.90301,
              18.59097
            ],
            [
              73.90292,
              18.59047
            ],
            [
              73.90292,
              18.59
            ],
            [
              73.90282,
              18.58974
            ],
            [
              73.90269,
              18.58956
            ],
            [
              73.90245,
              18.58948
            ],
            [
              73.90223,
              18.58942
            ],
            [
              73.90207,
              18.5893
            ],
            [
              73.90187,
              18.58901
            ],
            [
              73.90174,
              18.58884
            ],
            [
              73.90168,
              18.58878
            ],
            [
              73.90052,
              18.58894
            ],
            [
              73.90036,
              18.5889
            ],
            [
              73.90029,
              18.58884
            ],
            [
              73.90028,
              18.58876
            ],
            [
              73.90028,
              18.58866
            ],
            [
              73.90027,
              18.58832
            ],
            [
              73.90022,
              18.58832
            ],
            [
              73.89968,
              18.58833
            ],
            [
              73.8984,
              18.58843
            ],
            [
              73.89612,
              18.58857
            ],
            [
              73.89573,
              18.58858
            ],
            [
              73.89548,
              18.588
            ],
            [
              73.8952,
              18.58671
            ],
            [
              73.89476,
              18.58502
            ],
            [
              73.89447,
              18.58438
            ],
            [
              73.89447,
              18.58407
            ],
            [
              73.8946,
              18.5837
            ],
            [
              73.89481,
              18.5833
            ],
            [
              73.895,
              18.583
            ],
            [
              73.89503,
              18.58297
            ],
            [
              73.89485,
              18.58277
            ],
            [
              73.89481,
              18.58254
            ],
            [
              73.8948,
              18.58235
            ],
            [
              73.89474,
              18.58222
            ],
            [
              73.89462,
              18.58209
            ],
            [
              73.89418,
              18.58177
            ],
            [
              73.89395,
              18.5816
            ],
            [
              73.89364,
              18.5815
            ],
            [
              73.89344,
              18.58145
            ],
            [
              73.89338,
              18.58136
            ],
            [
              73.89319,
              18.58111
            ],
            [
              73.89294,
              18.58095
            ],
            [
              73.89266,
              18.58089
            ],
            [
              73.89211,
              18.58085
            ],
            [
              73.8916,
              18.5808
            ],
            [
              73.89099,
              18.58072
            ],
            [
              73.89067,
              18.58064
            ],
            [
              73.89018,
              18.58038
            ],
            [
              73.88933,
              18.57992
            ],
            [
              73.88859,
              18.57955
            ],
            [
              73.8882,
              18.57954
            ],
            [
              73.88799,
              18.57962
            ],
            [
              73.8878,
              18.57962
            ],
            [
              73.88773,
              18.57957
            ],
            [
              73.88758,
              18.57932
            ],
            [
              73.88736,
              18.579
            ],
            [
              73.88714,
              18.57877
            ],
            [
              73.88675,
              18.57845
            ],
            [
              73.88582,
              18.57804
            ],
            [
              73.88541,
              18.57791
            ],
            [
              73.8853,
              18.578
            ],
            [
              73.88533,
              18.57833
            ],
            [
              73.88398,
              18.5784
            ],
            [
              73.88397,
              18.5781
            ],
            [
              73.88396,
              18.5781
            ],
            [
              73.88333,
              18.57797
            ],
            [
              73.88328,
              18.57782
            ],
            [
              73.88265,
              18.57778
            ],
            [
              73.88222,
              18.57754
            ],
            [
              73.88217,
              18.57587
            ],
            [
              73.88241,
              18.57558
            ],
            [
              73.88239,
              18.57466
            ],
            [
              73.88216,
              18.57413
            ],
            [
              73.88201,
              18.57382
            ],
            [
              73.88192,
              18.57363
            ],
            [
              73.88183,
              18.57342
            ],
            [
              73.88184,
              18.57311
            ],
            [
              73.88117,
              18.5731
            ],
            [
              73.88046,
              18.573
            ],
            [
              73.87947,
              18.57286
            ],
            [
              73.87817,
              18.57276
            ],
            [
              73.87677,
              18.57545
            ],
            [
              73.87664,
              18.57626
            ],
            [
              73.87654,
              18.57775
            ],
            [
              73.87646,
              18.57908
            ],
            [
              73.8764,
              18.5799
            ],
            [
              73.87622,
              18.58055
            ],
            [
              73.87581,
              18.58139
            ],
            [
              73.87535,
              18.58208
            ],
            [
              73.8766,
              18.5821
            ],
            [
              73.87663,
              18.58292
            ],
            [
              73.87511,
              18.58296
            ],
            [
              73.87512,
              18.58227
            ],
            [
              73.87337,
              18.5824
            ],
            [
              73.87344,
              18.58295
            ],
            [
              73.87239,
              18.5828
            ],
            [
              73.87252,
              18.5825
            ],
            [
              73.87205,
              18.58248
            ],
            [
              73.87185,
              18.58241
            ],
            [
              73.8717,
              18.58224
            ],
            [
              73.87166,
              18.58207
            ],
            [
              73.87191,
              18.58208
            ],
            [
              73.87188,
              18.58099
            ],
            [
              73.87165,
              18.58098
            ],
            [
              73.87168,
              18.57937
            ],
            [
              73.87183,
              18.57929
            ],
            [
              73.87205,
              18.57931
            ],
            [
              73.8723,
              18.57923
            ],
            [
              73.87235,
              18.57917
            ],
            [
              73.87235,
              18.57909
            ],
            [
              73.87225,
              18.57908
            ],
            [
              73.87193,
              18.57908
            ],
            [
              73.87182,
              18.57898
            ],
            [
              73.87167,
              18.57871
            ],
            [
              73.87052,
              18.57609
            ],
            [
              73.86863,
              18.57785
            ],
            [
              73.867,
              18.57944
            ],
            [
              73.86637,
              18.58027
            ],
            [
              73.86529,
              18.58192
            ],
            [
              73.86423,
              18.58281
            ],
            [
              73.86314,
              18.58319
            ],
            [
              73.86228,
              18.58322
            ],
            [
              73.86097,
              18.58315
            ],
            [
              73.86064,
              18.58497
            ],
            [
              73.8606,
              18.58577
            ],
            [
              73.86041,
              18.58646
            ],
            [
              73.86017,
              18.58695
            ],
            [
              73.85998,
              18.58724
            ],
            [
              73.85988,
              18.58732
            ],
            [
              73.85994,
              18.58753
            ],
            [
              73.86009,
              18.58767
            ],
            [
              73.86022,
              18.58793
            ],
            [
              73.86273,
              18.58771
            ],
            [
              73.8627,
              18.58922
            ],
            [
              73.8632,
              18.5908
            ],
            [
              73.86357,
              18.59173
            ],
            [
              73.8637,
              18.59257
            ],
            [
              73.86375,
              18.59288
            ],
            [
              73.86391,
              18.59325
            ],
            [
              73.8641,
              18.59389
            ],
            [
              73.86579,
              18.59699
            ],
            [
              73.86873,
              18.60181
            ],
            [
              73.87276,
              18.59968
            ],
            [
              73.87341,
              18.59969
            ],
            [
              73.87386,
              18.59983
            ],
            [
              73.87476,
              18.59993
            ],
            [
              73.87747,
              18.59952
            ],
            [
              73.8863,
              18.59928
            ],
            [
              73.8867,
              18.59943
            ],
            [
              73.88791,
              18.60694
            ],
            [
              73.8886,
              18.60891
            ],
            [
              73.88923,
              18.61111
            ],
            [
              73.88991,
              18.61134
            ],
            [
              73.89078,
              18.61289
            ],
            [
              73.8913,
              18.61439
            ],
            [
              73.89151,
              18.61541
            ],
            [
              73.8921,
              18.61727
            ],
            [
              73.89212,
              18.61819
            ],
            [
              73.89335,
              18.62185
            ],
            [
              73.89662,
              18.62091
            ],
            [
              73.89706,
              18.62052
            ],
            [
              73.89775,
              18.62014
            ],
            [
              73.89844,
              18.62002
            ],
            [
              73.89936,
              18.61952
            ],
            [
              73.90042,
              18.61914
            ],
            [
              73.90234,
              18.61804
            ],
            [
              73.9042,
              18.61707
            ],
            [
              73.90543,
              18.61666
            ],
            [
              73.90602,
              18.61654
            ],
            [
              73.906,
              18.61558
            ],
            [
              73.90613,
              18.6149
            ],
            [
              73.90645,
              18.61311
            ],
            [
              73.90655,
              18.61269
            ],
            [
              73.90643,
              18.61146
            ],
            [
              73.90677,
              18.61136
            ],
            [
              73.90668,
              18.61087
            ],
            [
              73.90642,
              18.61079
            ],
            [
              73.90622,
              18.61023
            ],
            [
              73.90726,
              18.60706
            ],
            [
              73.90747,
              18.60666
            ],
            [
              73.90751,
              18.60601
            ],
            [
              73.90758,
              18.60513
            ],
            [
              73.90787,
              18.60333
            ],
            [
              73.90806,
              18.60323
            ],
            [
              73.9083,
              18.60305
            ],
            [
              73.90832,
              18.60277
            ],
            [
              73.90828,
              18.60263
            ],
            [
              73.90806,
              18.60183
            ],
            [
              73.9078,
              18.6015
            ],
            [
              73.90771,
              18.60121
            ]
          ]
        ]
      }
    }
  ]
}