{
  "type": "FeatureCollection",
  "features": [
    {
      "type": "Feature",
      "properties": {
        "ward_number": 11,
        "ward_name_en": "Ward 11",
        "ward_name_mr": "प्रभाग ११",
        "entity_type": "ward",
        "parent_municipality": "Pune Municipal Corporation",
        "parent_municipality_mr": "पुणे महानगरपालिका",
        "district": "Pune",
        "district_mr": "पुणे",
        "state": "Maharashtra",
        "state_mr": "महाराष्ट्र",
        "country": "India",
        "country_mr": "भारत",
        "area_sq_km": 4.4253,
        "perimeter_km": 9.7414,
        "author": "Parisar",
        "added_by": "mahanvyakti",
        "source_url": "https://data.opencity.in/dataset/pune-wards-info/resource/2badcc86-489c-4b7e-b7dd-a273ef01b798",
        "created_date": "2025-11-02",
        "data_year": 2025
      },
      "geometry": {
        "type": "Polygon",
        "coordinates": [
          [
            [
              73.8147637483484,
              18.5262780597847
            ],
            [
              73.8176875738225,
              18.524196561822
            ],
            [
              73.8180536410629,
              18.5234458131739
            ],
            [
              73.819997600309,
              18.5223840618751
            ],
            [
              73.8218007940715,
              18.5212788787173
            ],
            [
              73.8225763613102,
              18.5207359822798
            ],
            [
              73.8236427657012,
              18.5202900309602
            ],
            [
              73.8245346683404,
              18.5201736955597
            ],
            [
              73.8269001479236,
              18.5192236283679
            ],
            [
              73.8262678229017,
              18.5171329582195
            ],
            [
              73.8250424210709,
              18.5162588081975
            ],
            [
              73.824687035978,
              18.5156916309641
            ],
            [
              73.8246235006742,
              18.5154176390129
            ],
            [
              73.8245540568244,
              18.5148513673968
            ],
            [
              73.8243601647899,
              18.5147544213795
            ],
            [
              73.8241708071371,
              18.5136415858905
            ],
            [
              73.8240044946118,
              18.5133014443063
            ],
            [
              73.8240576074825,
              18.5120665846292
            ],
            [
              73.8233307910087,
              18.5118036339065
            ],
            [
              73.8234445402518,
              18.5104834641886
            ],
            [
              73.823630002244,
              18.5098689968183
            ],
            [
              73.8237014710758,
              18.5094418393847
            ],
            [
              73.8236871149964,
              18.5091221884165
            ],
            [
              73.8233437367541,
              18.5085059654217
            ],
            [
              73.8230249325175,
              18.5080618376759
            ],
            [
              73.8227066371018,
              18.5081695278016
            ],
            [
              73.821246576968,
              18.5098144732594
            ],
            [
              73.8209198110005,
              18.5101314671935
            ],
            [
              73.8206176441891,
              18.5104245967179
            ],
            [
              73.820281167342,
              18.5105272138599
            ],
            [
              73.8189324037075,
              18.5105633225393
            ],
            [
              73.8178570051967,
              18.5104805993004
            ],
            [
              73.8154867996761,
              18.509990401336
            ],
            [
              73.8142999194058,
              18.5096637109116
            ],
            [
              73.8125058654534,
              18.5095964982798
            ],
            [
              73.812025038425,
              18.5095344558505
            ],
            [
              73.8115287016882,
              18.5093793506767
            ],
            [
              73.8111254267971,
              18.5091105010488
            ],
            [
              73.8103964309507,
              18.5084900785544
            ],
            [
              73.809129736748,
              18.5083039521658
            ],
            [
              73.8078626282202,
              18.507659849229
            ],
            [
              73.8061589989589,
              18.5073551110856
            ],
            [
              73.8061095895969,
              18.5086789204258
            ],
            [
              73.8058579712523,
              18.5101549742941
            ],
            [
              73.8058088632885,
              18.5129713346595
            ],
            [
              73.8038200593484,
              18.5129662858656
            ],
            [
              73.7986826959983,
              18.5120069724038
            ],
            [
              73.7974287244197,
              18.5147554516928
            ],
            [
              73.7968329258512,
              18.5149218436959
            ],
            [
              73.7960817331882,
              18.5154438177421
            ],
            [
              73.7957616556872,
              18.5162683789912
            ],
            [
              73.7957368266181,
              18.5171943359949
            ],
            [
              73.7941776754666,
              18.5184514180625
            ],
            [
              73.795489679705,
              18.5197083548568
            ],
            [
              73.796554922172,
              18.521050861908
            ],
            [
              73.7975414433832,
              18.5221366556821
            ],
            [
              73.7988630088209,
              18.523166608752
            ],
            [
              73.8001333884452,
              18.5235958848424
            ],
            [
              73.801897803441,
              18.523886722894
            ],
            [
              73.8023437538612,
              18.5241678662541
            ],
            [
              73.8037106909957,
              18.5242357281963
            ],
            [
              73.8044843201954,
              18.5245440157938
            ],
            [
              73.8059734077468,
              18.5246308804109
            ],
            [
              73.8093238581096,
              18.5248464865762
            ],
            [
              73.8103476067567,
              18.5243951069486
            ],
            [
              73.8111479916866,
              18.5242399936809
            ],
            [
              73.812091081938,
              18.5243144476538
            ],
            [
              73.8123216420303,
              18.5243918810806
            ],
            [
              73.8131396482763,
              18.5249080982305
            ],
            [
              73.8140807519252,
              18.5255752099281
            ],
            [
              73.8147637483484,
              18.5262780597847
            ]
          ]
        ]
      }
    }
  ]
}