<?xml version="1.0" encoding="UTF-8"?>
<kml xmlns="http://www.opengis.net/kml/2.2">
  <Document>
    <name>20 Pune Station -Matoshri Ramabai Ambedkar Road</name>
    <description>Part of OS-Bhugol open geographic data project</description>
    <Placemark>
      <name>20 Pune Station -Matoshri Ramabai Ambedkar Road</name>
      <ExtendedData>
        <Data name="ward_number"><value>20</value></Data>
        <Data name="ward_name_en"><value>20 Pune Station -Matoshri Ramabai Ambedkar Road</value></Data>
        <Data name="ward_name_mr"><value>प्रभाग २० : पुणे स्टेशन - माताश्री रमाबाई आंबेडकर रोड</value></Data>
        <Data name="entity_type"><value>ward</value></Data>
        <Data name="parent_municipality"><value>Pune Municipal Corporation</value></Data>
        <Data name="parent_municipality_mr"><value>पुणे महानगरपालिका</value></Data>
        <Data name="district"><value>Pune</value></Data>
        <Data name="district_mr"><value>पुणे</value></Data>
        <Data name="state"><value>Maharashtra</value></Data>
        <Data name="state_mr"><value>महाराष्ट्र</value></Data>
        <Data name="country"><value>India</value></Data>
        <Data name="country_mr"><value>भारत</value></Data>
        <Data name="area_sq_km"><value>4.187</value></Data>
        <Data name="perimeter_km"><value>12.6026</value></Data>
        <Data name="author"><value>Nikhil VJ</value></Data>
        <Data name="source_url"><value>http://www.pmc.gov.in/sites/default/files/final_ward_maps/20_F_Ward.pdf</value></Data>
        <Data name="created_date"><value>2025-11-02</value></Data>
        <Data name="data_year"><value>2022</value></Data>
      </ExtendedData>
      <MultiGeometry>
      <Polygon>
        <outerBoundaryIs>
          <LinearRing>
            <tessellate>1</tessellate>
            <coordinates>
              73.87561,18.53091 73.87597,18.52948 73.87738,18.52983 73.87869,18.53027 73.87933,18.53051 73.87912,18.52662 73.87911,18.52638 73.87876,18.52507 73.87866,18.52461 73.88053,18.52421 73.87885,18.52091 73.87734,18.52167 73.87656,18.51921 73.87626,18.51842 73.87561,18.51838 73.87537,18.5183 73.87485,18.51839 73.87442,18.51838 73.87438,18.51813 73.87405,18.51792 73.87394,18.51776 73.87338,18.51772 73.87324,18.51755 73.87316,18.51741 73.87293,18.51736 73.87306,18.51695 73.87324,18.51672 73.87323,18.51646 73.87347,18.51648 73.87352,18.516 73.87329,18.51551 73.87321,18.51518 73.87324,18.51491 73.87336,18.51453 73.87359,18.514 73.87398,18.51345 73.87443,18.51291 73.87472,18.51262 73.87486,18.51244 73.87497,18.51209 73.8751,18.51161 73.87522,18.51132 73.87557,18.51106 73.8739,18.5109 73.87321,18.51079 73.87253,18.51072 73.87206,18.51066 73.87187,18.51067 73.87084,18.51099 73.87047,18.51115 73.87013,18.51138 73.86995,18.51161 73.8699,18.51186 73.86946,18.51259 73.86924,18.51279 73.86911,18.51293 73.86896,18.51302 73.86868,18.51308 73.86864,18.51539 73.86857,18.51678 73.86848,18.51735 73.86842,18.51766 73.86835,18.51948 73.86827,18.51957 73.86859,18.5199 73.8691,18.52011 73.86961,18.52012 73.87058,18.52006 73.87192,18.52014 73.87215,18.52017 73.87231,18.52021 73.87239,18.52028 73.87253,18.52053 73.87229,18.5206 73.8718,18.5208 73.87173,18.52085 73.87164,18.52099 73.87144,18.52151 73.87083,18.52288 73.87052,18.52346 73.87023,18.52405 73.87013,18.52419 73.86994,18.52434 73.86906,18.52484 73.86865,18.52505 73.86817,18.52526 73.86774,18.5255 73.86752,18.52561 73.86741,18.52568 73.86726,18.52576 73.86672,18.52604 73.86592,18.52647 73.86489,18.527 73.86385,18.52758 73.86357,18.5278 73.86337,18.52795 73.8634,18.52825 73.86335,18.52875 73.86064,18.52865 73.86064,18.52868 73.86065,18.5287 73.86067,18.52931 73.86056,18.53007 73.8605,18.53069 73.8605,18.53186 73.861,18.53224 73.86177,18.53333 73.86234,18.53428 73.86275,18.53505 73.86379,18.53642 73.86433,18.53703 73.86555,18.53797 73.86696,18.5388 73.86788,18.53927 73.86997,18.54008 73.87175,18.54056 73.87222,18.5407 73.87407,18.54129 73.87605,18.54193 73.87718,18.5423 73.8772,18.54231 73.87816,18.54264 73.87886,18.54281 73.88009,18.54293 73.88013,18.54293 73.88036,18.54296 73.88201,18.54312 73.88216,18.54314 73.88362,18.54328 73.88402,18.54331 73.88417,18.54333 73.88468,18.54337 73.88509,18.54341 73.88509,18.54341 73.88518,18.54321 73.88533,18.5425 73.88539,18.5415 73.88397,18.54123 73.88383,18.5412 73.88367,18.54102 73.88089,18.53672 73.87896,18.53385 73.87822,18.53313 73.87617,18.53145 73.87561,18.53091
            </coordinates>
          </LinearRing>
        </outerBoundaryIs>
      </Polygon>

      </MultiGeometry>
    </Placemark>
  </Document>
</kml>
