{
  "type": "FeatureCollection",
  "features": [
    {
      "type": "Feature",
      "properties": {
        "ward_number": 56,
        "ward_name_en": "56 Chaitanyanagar - Bharati Vidyapeeth",
        "ward_name_mr": "प्रभाग ५६ : चैतन्यनगर - भारती विद्यापीठ",
        "entity_type": "ward",
        "parent_municipality": "Pune Municipal Corporation",
        "parent_municipality_mr": "पुणे महानगरपालिका",
        "district": "Pune",
        "district_mr": "पुणे",
        "state": "Maharashtra",
        "state_mr": "महाराष्ट्र",
        "country": "India",
        "country_mr": "भारत",
        "area_sq_km": 1.9967,
        "perimeter_km": 7.8182,
        "author": "Nikhil VJ",
        "added_by": "mahanvyakti",
        "source_url": "http://www.pmc.gov.in/sites/default/files/final_ward_maps/56_F_Ward.pdf",
        "created_date": "2025-11-02",
        "data_year": 2022
      },
      "geometry": {
        "type": "Polygon",
        "coordinates": [
          [
            [
              73.85774,
              18.46837
            ],
            [
              73.85787,
              18.46746
            ],
            [
              73.85796,
              18.46662
            ],
            [
              73.85802,
              18.46589
            ],
            [
              73.85812,
              18.46496
            ],
            [
              73.85819,
              18.4642
            ],
            [
              73.8582,
              18.46328
            ],
            [
              73.85816,
              18.46239
            ],
            [
              73.85806,
              18.46058
            ],
            [
              73.85805,
              18.46035
            ],
            [
              73.858,
              18.46015
            ],
            [
              73.85799,
              18.459
            ],
            [
              73.85804,
              18.45865
            ],
            [
              73.85812,
              18.45822
            ],
            [
              73.85821,
              18.45785
            ],
            [
              73.8583,
              18.45742
            ],
            [
              73.85842,
              18.45682
            ],
            [
              73.85856,
              18.45605
            ],
            [
              73.85863,
              18.45563
            ],
            [
              73.85866,
              18.45533
            ],
            [
              73.85866,
              18.45503
            ],
            [
              73.85861,
              18.45468
            ],
            [
              73.85848,
              18.45387
            ],
            [
              73.85839,
              18.45339
            ],
            [
              73.85811,
              18.45145
            ],
            [
              73.85806,
              18.45118
            ],
            [
              73.85806,
              18.45103
            ],
            [
              73.85813,
              18.45049
            ],
            [
              73.85819,
              18.44992
            ],
            [
              73.85829,
              18.44913
            ],
            [
              73.85841,
              18.44851
            ],
            [
              73.85855,
              18.44815
            ],
            [
              73.85724,
              18.44863
            ],
            [
              73.85605,
              18.44898
            ],
            [
              73.85239,
              18.45005
            ],
            [
              73.85205,
              18.4501
            ],
            [
              73.85071,
              18.45051
            ],
            [
              73.84725,
              18.4515
            ],
            [
              73.84737,
              18.45238
            ],
            [
              73.84749,
              18.45311
            ],
            [
              73.84808,
              18.45312
            ],
            [
              73.84808,
              18.45361
            ],
            [
              73.8481,
              18.45373
            ],
            [
              73.84819,
              18.4538
            ],
            [
              73.84822,
              18.45378
            ],
            [
              73.84827,
              18.45372
            ],
            [
              73.84852,
              18.45369
            ],
            [
              73.84941,
              18.45367
            ],
            [
              73.84933,
              18.45407
            ],
            [
              73.84912,
              18.45594
            ],
            [
              73.84925,
              18.45602
            ],
            [
              73.84958,
              18.45628
            ],
            [
              73.84961,
              18.45638
            ],
            [
              73.84959,
              18.45654
            ],
            [
              73.84961,
              18.45663
            ],
            [
              73.85016,
              18.45698
            ],
            [
              73.8502,
              18.45705
            ],
            [
              73.85021,
              18.45747
            ],
            [
              73.85043,
              18.45812
            ],
            [
              73.85044,
              18.45858
            ],
            [
              73.8505,
              18.45874
            ],
            [
              73.851,
              18.45939
            ],
            [
              73.85107,
              18.45958
            ],
            [
              73.85108,
              18.45984
            ],
            [
              73.85094,
              18.45993
            ],
            [
              73.85071,
              18.46016
            ],
            [
              73.85056,
              18.4604
            ],
            [
              73.85026,
              18.46027
            ],
            [
              73.84895,
              18.46027
            ],
            [
              73.84849,
              18.46011
            ],
            [
              73.84762,
              18.45974
            ],
            [
              73.84717,
              18.45952
            ],
            [
              73.84706,
              18.45952
            ],
            [
              73.84682,
              18.45946
            ],
            [
              73.8464,
              18.45932
            ],
            [
              73.84592,
              18.45915
            ],
            [
              73.84585,
              18.45961
            ],
            [
              73.84577,
              18.46062
            ],
            [
              73.84577,
              18.46089
            ],
            [
              73.84582,
              18.46101
            ],
            [
              73.84595,
              18.46108
            ],
            [
              73.84605,
              18.46113
            ],
            [
              73.84609,
              18.46121
            ],
            [
              73.8461,
              18.46166
            ],
            [
              73.84606,
              18.46224
            ],
            [
              73.84595,
              18.46276
            ],
            [
              73.84586,
              18.46319
            ],
            [
              73.84574,
              18.46369
            ],
            [
              73.84599,
              18.46369
            ],
            [
              73.84625,
              18.46358
            ],
            [
              73.84714,
              18.46319
            ],
            [
              73.84779,
              18.46289
            ],
            [
              73.8487,
              18.46255
            ],
            [
              73.84856,
              18.46325
            ],
            [
              73.84848,
              18.46348
            ],
            [
              73.84834,
              18.46392
            ],
            [
              73.84833,
              18.46474
            ],
            [
              73.84863,
              18.46486
            ],
            [
              73.84885,
              18.46497
            ],
            [
              73.8494,
              18.46517
            ],
            [
              73.84944,
              18.46524
            ],
            [
              73.84942,
              18.46574
            ],
            [
              73.84947,
              18.46576
            ],
            [
              73.85036,
              18.46533
            ],
            [
              73.85061,
              18.46535
            ],
            [
              73.85137,
              18.46543
            ],
            [
              73.85166,
              18.46555
            ],
            [
              73.85189,
              18.46571
            ],
            [
              73.85219,
              18.46602
            ],
            [
              73.85222,
              18.46611
            ],
            [
              73.85223,
              18.46633
            ],
            [
              73.85224,
              18.46641
            ],
            [
              73.85228,
              18.46653
            ],
            [
              73.85227,
              18.46669
            ],
            [
              73.85225,
              18.4669
            ],
            [
              73.85227,
              18.46761
            ],
            [
              73.85236,
              18.46791
            ],
            [
              73.85246,
              18.46823
            ],
            [
              73.85251,
              18.46834
            ],
            [
              73.85263,
              18.46835
            ],
            [
              73.85287,
              18.46847
            ],
            [
              73.85323,
              18.46806
            ],
            [
              73.85339,
              18.46795
            ],
            [
              73.85502,
              18.46809
            ],
            [
              73.85593,
              18.46822
            ],
            [
              73.85683,
              18.46827
            ],
            [
              73.85731,
              18.46831
            ],
            [
              73.85774,
              18.46837
            ]
          ]
        ]
      }
    }
  ]
}
