<?xml version="1.0" encoding="UTF-8"?>
<kml xmlns="http://www.opengis.net/kml/2.2">
  <Document>
    <name>13 Baner - Sus - Mahalunge</name>
    <description>Part of OS-Bhugol open geographic data project</description>
    <Placemark>
      <name>13 Baner - Sus - Mahalunge</name>
      <ExtendedData>
        <Data name="ward_number"><value>13</value></Data>
        <Data name="ward_name_en"><value>13 Baner - Sus - Mahalunge</value></Data>
        <Data name="ward_name_mr"><value>प्रभाग १३ : बाणेर - सुस - म्हाळुंगे</value></Data>
        <Data name="entity_type"><value>ward</value></Data>
        <Data name="parent_municipality"><value>Pune Municipal Corporation</value></Data>
        <Data name="parent_municipality_mr"><value>पुणे महानगरपालिका</value></Data>
        <Data name="district"><value>Pune</value></Data>
        <Data name="district_mr"><value>पुणे</value></Data>
        <Data name="state"><value>Maharashtra</value></Data>
        <Data name="state_mr"><value>महाराष्ट्र</value></Data>
        <Data name="country"><value>India</value></Data>
        <Data name="country_mr"><value>भारत</value></Data>
        <Data name="area_sq_km"><value>20.8911</value></Data>
        <Data name="perimeter_km"><value>27.1026</value></Data>
        <Data name="author"><value>Nikhil VJ</value></Data>
        <Data name="source_url"><value>http://www.pmc.gov.in/sites/default/files/final_ward_maps/13_F_Ward.pdf</value></Data>
        <Data name="created_date"><value>2025-11-02</value></Data>
        <Data name="data_year"><value>2022</value></Data>
      </ExtendedData>
      <MultiGeometry>
      <Polygon>
        <outerBoundaryIs>
          <LinearRing>
            <tessellate>1</tessellate>
            <coordinates>
              73.76244,18.57465 73.76259,18.57196 73.76265,18.57034 73.76358,18.56998 73.76525,18.56947 73.76713,18.56849 73.76792,18.56801 73.76826,18.56726 73.76861,18.56705 73.76985,18.56662 73.772,18.56579 73.77531,18.56454 73.77641,18.56434 73.7774,18.56421 73.77842,18.56422 73.78042,18.56422 73.78099,18.56424 73.78221,18.56389 73.78308,18.56339 73.78371,18.56283 73.78404,18.56214 73.78435,18.56184 73.78511,18.56168 73.78588,18.56159 73.78654,18.56155 73.78693,18.56149 73.78737,18.56131 73.78819,18.56067 73.78854,18.56038 73.78878,18.56007 73.78932,18.55976 73.78998,18.55945 73.79048,18.55927 73.791,18.55912 73.79107,18.5591 73.79155,18.5589 73.79242,18.55835 73.79331,18.55769 73.79377,18.55733 73.79435,18.55663 73.79498,18.55576 73.79552,18.55534 73.79612,18.55508 73.79664,18.55497 73.79724,18.55499 73.79731,18.55499 73.79813,18.55502 73.79894,18.55558 73.79915,18.55571 73.79911,18.55599 73.79901,18.55616 73.79879,18.55624 73.79836,18.55628 73.79808,18.5563 73.79781,18.55643 73.79768,18.55663 73.79757,18.55694 73.79709,18.55896 73.79688,18.55936 73.79643,18.55966 73.79622,18.55991 73.79605,18.5601 73.79584,18.5601 73.79555,18.5601 73.79536,18.56024 73.79538,18.56054 73.79562,18.56088 73.79585,18.56097 73.79598,18.56105 73.79649,18.56089 73.79703,18.56064 73.79737,18.56043 73.79751,18.56015 73.79756,18.55998 73.79786,18.55991 73.79811,18.56013 73.79829,18.56027 73.79858,18.56027 73.79878,18.56013 73.79898,18.56029 73.79925,18.56022 73.79986,18.56016 73.80054,18.5603 73.80297,18.56086 73.80303,18.56039 73.80316,18.56032 73.80329,18.55984 73.80353,18.55904 73.80367,18.55841 73.80395,18.55788 73.80431,18.55748 73.80446,18.55711 73.80475,18.55522 73.80443,18.55521 73.80463,18.55379 73.8047,18.55322 73.80485,18.55181 73.8049,18.55115 73.80497,18.55098 73.80459,18.54745 73.80232,18.548 73.80217,18.548 73.80219,18.5483 73.8027,18.54899 73.80263,18.54914 73.80047,18.54936 73.79938,18.54945 73.7983,18.54952 73.79819,18.54844 73.79818,18.54749 73.79756,18.5461 73.79355,18.5462 73.7935,18.54646 73.79174,18.54656 73.7918,18.5472 73.78964,18.54745 73.78823,18.54761 73.78811,18.54763 73.78468,18.54924 73.78414,18.54864 73.7837,18.54814 73.78345,18.54798 73.78285,18.54798 73.78195,18.54812 73.78084,18.54839 73.78022,18.54854 73.77983,18.54861 73.77844,18.54874 73.77787,18.54874 73.77679,18.54843 73.77563,18.54768 73.77452,18.54681 73.77413,18.54651 73.77207,18.54507 73.77107,18.54476 73.76948,18.54427 73.76848,18.544 73.7674,18.54351 73.76521,18.54229 73.76333,18.5418 73.76272,18.54119 73.76228,18.54083 73.76096,18.54055 73.76028,18.54044 73.75955,18.54013 73.75864,18.53962 73.75835,18.53947 73.75803,18.53893 73.75793,18.53839 73.7581,18.53791 73.75809,18.5373 73.75729,18.53681 73.75679,18.53638 73.75623,18.53588 73.75548,18.5353 73.75389,18.53424 73.75286,18.53376 73.75226,18.53352 73.75075,18.53311 73.75024,18.533 73.74959,18.53061 73.74909,18.53022 73.7487,18.52995 73.74826,18.52974 73.74768,18.52958 73.74734,18.52942 73.74729,18.52892 73.74503,18.53071 73.74369,18.53181 73.74358,18.53187 73.74159,18.53203 73.74015,18.53222 73.73936,18.53227 73.73852,18.53258 73.73806,18.53288 73.73751,18.53313 73.73699,18.53346 73.73622,18.53398 73.73608,18.53416 73.73605,18.53848 73.73768,18.54031 73.73795,18.54042 73.7383,18.54058 73.73853,18.5408 73.74024,18.54312 73.74054,18.54377 73.74027,18.54528 73.74001,18.54723 73.74022,18.54821 73.74039,18.54883 73.74037,18.54948 73.74024,18.5501 73.73999,18.5507 73.73948,18.55148 73.73901,18.55234 73.73868,18.5536 73.7385,18.55507 73.73838,18.55585 73.7382,18.55638 73.73785,18.55723 73.73748,18.55811 73.737,18.55925 73.73631,18.56054 73.73603,18.56128 73.73622,18.56149 73.7353,18.56225 73.73385,18.56353 73.73309,18.56504 73.73243,18.56602 73.73219,18.56638 73.73193,18.56706 73.73194,18.56744 73.7328,18.56817 73.73339,18.56874 73.73401,18.56911 73.73465,18.56949 73.73518,18.56976 73.73549,18.56987 73.73632,18.57051 73.73759,18.5716 73.73788,18.57218 73.7384,18.57257 73.73933,18.5731 73.7397,18.57342 73.7398,18.57366 73.7401,18.57375 73.74037,18.57386 73.74069,18.57393 73.7409,18.57398 73.74113,18.57412 73.74158,18.57418 73.74182,18.5743 73.74263,18.57432 73.74298,18.5745 73.74338,18.57451 73.74375,18.57462 73.74445,18.57447 73.74507,18.57428 73.74561,18.57412 73.74603,18.57406 73.74661,18.57395 73.74701,18.57396 73.74731,18.57396 73.74751,18.57404 73.74785,18.57433 73.74873,18.5743 73.74942,18.5744 73.7499,18.57452 73.75052,18.57476 73.75097,18.57478 73.7511,18.57513 73.75138,18.57548 73.75192,18.57584 73.75212,18.57624 73.75233,18.57673 73.75293,18.57771 73.75322,18.5784 73.75346,18.57903 73.75371,18.5795 73.75402,18.57962 73.75444,18.5803 73.75488,18.58114 73.75525,18.58164 73.75559,18.58193 73.75591,18.58235 73.75641,18.58341 73.75665,18.5841 73.75685,18.58434 73.75711,18.58461 73.75733,18.58492 73.75763,18.58539 73.75798,18.58586 73.7583,18.58627 73.76097,18.58814 73.76102,18.58615 73.76136,18.58442 73.76163,18.58222 73.76177,18.58065 73.7619,18.57838 73.76205,18.57753 73.76235,18.57694 73.76239,18.57665 73.76253,18.57642 73.76251,18.57608 73.76228,18.5757 73.76235,18.5754 73.76244,18.57465
            </coordinates>
          </LinearRing>
        </outerBoundaryIs>
      </Polygon>

      </MultiGeometry>
    </Placemark>
  </Document>
</kml>
