{
  "type": "FeatureCollection",
  "features": [
    {
      "type": "Feature",
      "properties": {
        "ward_number": 37,
        "ward_name_en": "37 Janata Vasahat - Dattawadi",
        "ward_name_mr": "प्रभाग ३७ : जनता वसाहत - दत्तवाडी",
        "entity_type": "ward",
        "parent_municipality": "Pune Municipal Corporation",
        "parent_municipality_mr": "पुणे महानगरपालिका",
        "district": "Pune",
        "district_mr": "पुणे",
        "state": "Maharashtra",
        "state_mr": "महाराष्ट्र",
        "country": "India",
        "country_mr": "भारत",
        "area_sq_km": 1.8202,
        "perimeter_km": 7.9598,
        "author": "Nikhil VJ",
        "added_by": "mahanvyakti",
        "source_url": "http://www.pmc.gov.in/sites/default/files/final_ward_maps/37_F_Ward.pdf",
        "created_date": "2025-11-02",
        "data_year": 2022
      },
      "geometry": {
        "type": "Polygon",
        "coordinates": [
          [
            [
              73.8455,
              18.50218
            ],
            [
              73.84544,
              18.50209
            ],
            [
              73.84561,
              18.5012
            ],
            [
              73.84575,
              18.50121
            ],
            [
              73.84588,
              18.50106
            ],
            [
              73.84632,
              18.49973
            ],
            [
              73.84668,
              18.49987
            ],
            [
              73.847,
              18.49989
            ],
            [
              73.84825,
              18.49988
            ],
            [
              73.84861,
              18.49986
            ],
            [
              73.84887,
              18.4998
            ],
            [
              73.84903,
              18.49971
            ],
            [
              73.84945,
              18.49941
            ],
            [
              73.84976,
              18.49917
            ],
            [
              73.84999,
              18.49901
            ],
            [
              73.85023,
              18.4989
            ],
            [
              73.85007,
              18.49858
            ],
            [
              73.84995,
              18.49839
            ],
            [
              73.84973,
              18.49817
            ],
            [
              73.84963,
              18.49809
            ],
            [
              73.84955,
              18.49788
            ],
            [
              73.84941,
              18.49717
            ],
            [
              73.8493,
              18.49669
            ],
            [
              73.84922,
              18.49643
            ],
            [
              73.84905,
              18.49611
            ],
            [
              73.84853,
              18.49642
            ],
            [
              73.84755,
              18.49698
            ],
            [
              73.84721,
              18.49696
            ],
            [
              73.8471,
              18.49676
            ],
            [
              73.84615,
              18.49554
            ],
            [
              73.84525,
              18.49551
            ],
            [
              73.84506,
              18.49525
            ],
            [
              73.84486,
              18.49502
            ],
            [
              73.84463,
              18.49486
            ],
            [
              73.84444,
              18.49467
            ],
            [
              73.84412,
              18.49451
            ],
            [
              73.84383,
              18.49438
            ],
            [
              73.84367,
              18.49426
            ],
            [
              73.84352,
              18.49413
            ],
            [
              73.84328,
              18.49384
            ],
            [
              73.84302,
              18.49381
            ],
            [
              73.8429,
              18.49377
            ],
            [
              73.8428,
              18.49368
            ],
            [
              73.84276,
              18.4936
            ],
            [
              73.8425,
              18.49292
            ],
            [
              73.8417,
              18.49233
            ],
            [
              73.84142,
              18.49191
            ],
            [
              73.84113,
              18.49146
            ],
            [
              73.84086,
              18.49127
            ],
            [
              73.84085,
              18.49084
            ],
            [
              73.84074,
              18.49035
            ],
            [
              73.84077,
              18.48983
            ],
            [
              73.84038,
              18.48862
            ],
            [
              73.84038,
              18.48767
            ],
            [
              73.83919,
              18.48758
            ],
            [
              73.83909,
              18.48759
            ],
            [
              73.83832,
              18.4878
            ],
            [
              73.83795,
              18.48758
            ],
            [
              73.83698,
              18.48795
            ],
            [
              73.83636,
              18.48826
            ],
            [
              73.83477,
              18.48787
            ],
            [
              73.83419,
              18.48788
            ],
            [
              73.8337,
              18.48762
            ],
            [
              73.83314,
              18.48749
            ],
            [
              73.83289,
              18.48739
            ],
            [
              73.83239,
              18.48721
            ],
            [
              73.83208,
              18.48705
            ],
            [
              73.83169,
              18.48683
            ],
            [
              73.83145,
              18.48667
            ],
            [
              73.83027,
              18.48729
            ],
            [
              73.83054,
              18.48754
            ],
            [
              73.83081,
              18.48788
            ],
            [
              73.83102,
              18.4881
            ],
            [
              73.83179,
              18.48845
            ],
            [
              73.83239,
              18.48863
            ],
            [
              73.83284,
              18.48876
            ],
            [
              73.83318,
              18.48888
            ],
            [
              73.83403,
              18.48919
            ],
            [
              73.83418,
              18.48921
            ],
            [
              73.83447,
              18.48931
            ],
            [
              73.83499,
              18.48945
            ],
            [
              73.83542,
              18.48954
            ],
            [
              73.83557,
              18.48958
            ],
            [
              73.83582,
              18.48962
            ],
            [
              73.83612,
              18.48961
            ],
            [
              73.83672,
              18.48961
            ],
            [
              73.83728,
              18.48961
            ],
            [
              73.8376,
              18.48965
            ],
            [
              73.83787,
              18.48972
            ],
            [
              73.83805,
              18.48981
            ],
            [
              73.83656,
              18.49149
            ],
            [
              73.83606,
              18.49188
            ],
            [
              73.83597,
              18.49253
            ],
            [
              73.83593,
              18.49266
            ],
            [
              73.83588,
              18.4928
            ],
            [
              73.83582,
              18.49289
            ],
            [
              73.83534,
              18.49333
            ],
            [
              73.83556,
              18.49355
            ],
            [
              73.8349,
              18.49421
            ],
            [
              73.83442,
              18.49464
            ],
            [
              73.83419,
              18.49502
            ],
            [
              73.83403,
              18.49519
            ],
            [
              73.83384,
              18.49533
            ],
            [
              73.83365,
              18.49554
            ],
            [
              73.83314,
              18.49598
            ],
            [
              73.83306,
              18.49606
            ],
            [
              73.83321,
              18.49623
            ],
            [
              73.8336,
              18.49661
            ],
            [
              73.83441,
              18.49717
            ],
            [
              73.83533,
              18.49805
            ],
            [
              73.83601,
              18.49878
            ],
            [
              73.83627,
              18.49942
            ],
            [
              73.83684,
              18.50118
            ],
            [
              73.83685,
              18.5024
            ],
            [
              73.8368,
              18.50282
            ],
            [
              73.83783,
              18.50296
            ],
            [
              73.83783,
              18.50331
            ],
            [
              73.83884,
              18.50332
            ],
            [
              73.83889,
              18.50347
            ],
            [
              73.83882,
              18.50471
            ],
            [
              73.83902,
              18.50476
            ],
            [
              73.83919,
              18.50483
            ],
            [
              73.83931,
              18.50489
            ],
            [
              73.83947,
              18.50497
            ],
            [
              73.83963,
              18.505
            ],
            [
              73.84044,
              18.505
            ],
            [
              73.84074,
              18.50498
            ],
            [
              73.84134,
              18.50498
            ],
            [
              73.84183,
              18.50498
            ],
            [
              73.84225,
              18.50494
            ],
            [
              73.84285,
              18.50494
            ],
            [
              73.84341,
              18.50492
            ],
            [
              73.84383,
              18.50496
            ],
            [
              73.84421,
              18.50503
            ],
            [
              73.84491,
              18.50517
            ],
            [
              73.84527,
              18.50386
            ],
            [
              73.84534,
              18.50367
            ],
            [
              73.84544,
              18.50244
            ],
            [
              73.8455,
              18.50218
            ]
          ]
        ]
      }
    }
  ]
}
