<?xml version="1.0" encoding="UTF-8"?>
<kml xmlns="http://www.opengis.net/kml/2.2">
  <Document>
    <name>39 Market yard - Maharshinagar</name>
    <description>Part of OS-Bhugol open geographic data project</description>
    <Placemark>
      <name>39 Market yard - Maharshinagar</name>
      <ExtendedData>
        <Data name="ward_number"><value>39</value></Data>
        <Data name="ward_name_en"><value>39 Market yard - Maharshinagar</value></Data>
        <Data name="ward_name_mr"><value>प्रभाग ३९ : मार्केट यार्ड - महर्षीनगर</value></Data>
        <Data name="entity_type"><value>ward</value></Data>
        <Data name="parent_municipality"><value>Pune Municipal Corporation</value></Data>
        <Data name="parent_municipality_mr"><value>पुणे महानगरपालिका</value></Data>
        <Data name="district"><value>Pune</value></Data>
        <Data name="district_mr"><value>पुणे</value></Data>
        <Data name="state"><value>Maharashtra</value></Data>
        <Data name="state_mr"><value>महाराष्ट्र</value></Data>
        <Data name="country"><value>India</value></Data>
        <Data name="country_mr"><value>भारत</value></Data>
        <Data name="area_sq_km"><value>2.7139</value></Data>
        <Data name="perimeter_km"><value>7.0176</value></Data>
        <Data name="author"><value>Nikhil VJ</value></Data>
        <Data name="source_url"><value>http://www.pmc.gov.in/sites/default/files/final_ward_maps/39_F_Ward.pdf</value></Data>
        <Data name="created_date"><value>2025-11-02</value></Data>
        <Data name="data_year"><value>2022</value></Data>
      </ExtendedData>
      <MultiGeometry>
      <Polygon>
        <outerBoundaryIs>
          <LinearRing>
            <tessellate>1</tessellate>
            <coordinates>
              73.85744,18.48727 73.85739,18.48819 73.85738,18.48891 73.85746,18.48951 73.8576,18.4907 73.85767,18.49201 73.85781,18.4933 73.85787,18.49446 73.85791,18.49526 73.85798,18.49632 73.85791,18.49669 73.85797,18.49706 73.85807,18.49788 73.85828,18.49907 73.85853,18.50065 73.85882,18.50065 73.85972,18.50057 73.86041,18.50048 73.8608,18.50041 73.86129,18.50029 73.86179,18.50016 73.86236,18.50014 73.86278,18.50011 73.86308,18.5001 73.86349,18.50003 73.86384,18.50001 73.86435,18.49999 73.86478,18.50001 73.86527,18.5 73.86564,18.50009 73.86595,18.50021 73.86716,18.50078 73.86825,18.50123 73.86892,18.50144 73.86935,18.50153 73.86942,18.50067 73.86942,18.49996 73.86942,18.49953 73.86942,18.49857 73.86934,18.49719 73.86933,18.49406 73.8693,18.49313 73.86938,18.49251 73.86953,18.49187 73.86977,18.49106 73.87018,18.48945 73.87066,18.4876 73.8714,18.48459 73.87166,18.48358 73.87179,18.48299 73.87197,18.4823 73.87239,18.48097 73.87165,18.48077 73.87096,18.48061 73.87061,18.48059 73.87018,18.48062 73.86984,18.48067 73.86918,18.48076 73.86862,18.48083 73.86768,18.48088 73.8674,18.48091 73.86687,18.48093 73.86526,18.48101 73.86421,18.48104 73.86287,18.48107 73.86233,18.48106 73.86199,18.48105 73.86172,18.48101 73.86123,18.48093 73.8612,18.48116 73.86111,18.48146 73.86104,18.48165 73.86099,18.48177 73.86073,18.48217 73.86055,18.48249 73.86033,18.4829 73.86008,18.48334 73.85972,18.48407 73.85965,18.48424 73.85957,18.48456 73.85955,18.48476 73.8595,18.48491 73.85942,18.48504 73.85925,18.48522 73.85841,18.48636 73.8579,18.48697 73.85764,18.4872 73.8575,18.48724 73.85744,18.48727
            </coordinates>
          </LinearRing>
        </outerBoundaryIs>
      </Polygon>

      </MultiGeometry>
    </Placemark>
  </Document>
</kml>
