<?xml version="1.0" encoding="UTF-8"?>
<kml xmlns="http://www.opengis.net/kml/2.2">
  <Document>
    <name>7 Kalyaninagar - Nagpur Chawl</name>
    <description>Part of OS-Bhugol open geographic data project</description>
    <Placemark>
      <name>7 Kalyaninagar - Nagpur Chawl</name>
      <ExtendedData>
        <Data name="ward_number"><value>7</value></Data>
        <Data name="ward_name_en"><value>7 Kalyaninagar - Nagpur Chawl</value></Data>
        <Data name="ward_name_mr"><value>प्रभाग ०७ : कल्याणीनगर - नागपूर चाळ</value></Data>
        <Data name="entity_type"><value>ward</value></Data>
        <Data name="parent_municipality"><value>Pune Municipal Corporation</value></Data>
        <Data name="parent_municipality_mr"><value>पुणे महानगरपालिका</value></Data>
        <Data name="district"><value>Pune</value></Data>
        <Data name="district_mr"><value>पुणे</value></Data>
        <Data name="state"><value>Maharashtra</value></Data>
        <Data name="state_mr"><value>महाराष्ट्र</value></Data>
        <Data name="country"><value>India</value></Data>
        <Data name="country_mr"><value>भारत</value></Data>
        <Data name="area_sq_km"><value>6.9176</value></Data>
        <Data name="perimeter_km"><value>13.7125</value></Data>
        <Data name="author"><value>Nikhil VJ</value></Data>
        <Data name="source_url"><value>http://www.pmc.gov.in/sites/default/files/final_ward_maps/7_F_Ward.pdf</value></Data>
        <Data name="created_date"><value>2025-11-02</value></Data>
        <Data name="data_year"><value>2022</value></Data>
      </ExtendedData>
      <MultiGeometry>
      <Polygon>
        <outerBoundaryIs>
          <LinearRing>
            <tessellate>1</tessellate>
            <coordinates>
              73.90306,18.5695 73.90393,18.56945 73.90505,18.56951 73.9051,18.56965 73.90519,18.56964 73.90513,18.56939 73.9051,18.56813 73.90676,18.56809 73.90683,18.56807 73.90668,18.56669 73.90678,18.56617 73.90701,18.565 73.90696,18.56388 73.90688,18.56317 73.90668,18.56151 73.90644,18.55936 73.90646,18.55621 73.90648,18.5561 73.90685,18.55574 73.90622,18.55532 73.90613,18.5549 73.90611,18.55465 73.90613,18.55412 73.906,18.55244 73.90781,18.55241 73.90814,18.55235 73.90874,18.55235 73.90903,18.55222 73.90921,18.55204 73.9094,18.55181 73.90952,18.55177 73.91002,18.55177 73.91088,18.55177 73.91141,18.55173 73.91175,18.55161 73.91214,18.5514 73.91255,18.5512 73.91275,18.55115 73.91291,18.55115 73.91302,18.55104 73.91305,18.55084 73.91303,18.55003 73.9131,18.54979 73.9132,18.54964 73.91349,18.54961 73.91463,18.5495 73.91767,18.5493 73.91882,18.54917 73.91901,18.54919 73.91947,18.54888 73.91993,18.54859 73.92056,18.54793 73.921,18.54744 73.9217,18.5462 73.92193,18.5459 73.92221,18.54531 73.92253,18.54455 73.92288,18.54408 73.92315,18.54362 73.92336,18.54322 73.92338,18.54319 73.92355,18.54288 73.92367,18.54235 73.92345,18.54223 73.92343,18.5421 73.92329,18.5411 73.92282,18.54024 73.92259,18.53899 73.92256,18.53891 73.91912,18.539 73.91804,18.53911 73.91755,18.53919 73.91713,18.53927 73.91606,18.53973 73.91574,18.53977 73.91545,18.53975 73.91501,18.5397 73.91455,18.53971 73.91305,18.53987 73.91212,18.53996 73.91146,18.54011 73.91065,18.54048 73.91043,18.54055 73.90904,18.54087 73.90583,18.54125 73.90518,18.54122 73.90495,18.5412 73.90376,18.54113 73.90264,18.54116 73.90181,18.54124 73.90115,18.5413 73.90019,18.54151 73.89955,18.54165 73.8973,18.54217 73.89531,18.54273 73.89436,18.54298 73.89247,18.54356 73.89155,18.54373 73.89052,18.54381 73.88959,18.54382 73.88897,18.54376 73.88891,18.54416 73.88885,18.54546 73.88889,18.54648 73.88908,18.54834 73.88929,18.54974 73.88875,18.54978 73.8887,18.54973 73.88851,18.54954 73.88797,18.54957 73.88794,18.55004 73.88805,18.55012 73.88799,18.55079 73.8879,18.55078 73.88777,18.55156 73.88751,18.55157 73.88729,18.55145 73.88716,18.55165 73.88695,18.55159 73.88683,18.5517 73.88665,18.55173 73.88641,18.55185 73.88671,18.55195 73.88664,18.55307 73.88965,18.55273 73.89053,18.55581 73.89204,18.56106 73.89212,18.5613 73.89261,18.56235 73.89365,18.56424 73.89422,18.56504 73.89515,18.56598 73.89587,18.5667 73.89702,18.56817 73.8976,18.56915 73.89817,18.57025 73.89852,18.57092 73.89962,18.57236 73.89989,18.57269 73.90037,18.57177 73.9005,18.57174 73.90069,18.57172 73.90081,18.5716 73.90117,18.57044 73.90096,18.57038 73.90097,18.57004 73.90113,18.56993 73.90137,18.5696 73.90188,18.56959 73.90254,18.56953 73.90306,18.5695
            </coordinates>
          </LinearRing>
        </outerBoundaryIs>
      </Polygon>

      </MultiGeometry>
    </Placemark>
  </Document>
</kml>
