<?xml version="1.0" encoding="UTF-8"?>
<kml xmlns="http://www.opengis.net/kml/2.2">
  <Document>
    <name>18 Shaniwarwada - Kasba Peth</name>
    <description>Part of OS-Bhugol open geographic data project</description>
    <Placemark>
      <name>18 Shaniwarwada - Kasba Peth</name>
      <ExtendedData>
        <Data name="ward_number"><value>18</value></Data>
        <Data name="ward_name_en"><value>18 Shaniwarwada - Kasba Peth</value></Data>
        <Data name="ward_name_mr"><value>प्रभाग १८ : शनिवारवाडा - कसबा पेठ</value></Data>
        <Data name="entity_type"><value>ward</value></Data>
        <Data name="parent_municipality"><value>Pune Municipal Corporation</value></Data>
        <Data name="parent_municipality_mr"><value>पुणे महानगरपालिका</value></Data>
        <Data name="district"><value>Pune</value></Data>
        <Data name="district_mr"><value>पुणे</value></Data>
        <Data name="state"><value>Maharashtra</value></Data>
        <Data name="state_mr"><value>महाराष्ट्र</value></Data>
        <Data name="country"><value>India</value></Data>
        <Data name="country_mr"><value>भारत</value></Data>
        <Data name="area_sq_km"><value>1.1007</value></Data>
        <Data name="perimeter_km"><value>6.111</value></Data>
        <Data name="author"><value>Nikhil VJ</value></Data>
        <Data name="source_url"><value>http://www.pmc.gov.in/sites/default/files/final_ward_maps/18_F_Ward.pdf</value></Data>
        <Data name="created_date"><value>2025-11-02</value></Data>
        <Data name="data_year"><value>2022</value></Data>
      </ExtendedData>
      <MultiGeometry>
      <Polygon>
        <outerBoundaryIs>
          <LinearRing>
            <tessellate>1</tessellate>
            <coordinates>
              73.86125,18.52015 73.8613,18.51921 73.86155,18.51924 73.86201,18.51935 73.86224,18.51944 73.86235,18.51951 73.86242,18.51937 73.86236,18.5193 73.86211,18.5188 73.86209,18.51865 73.86213,18.51849 73.86223,18.51828 73.86231,18.51814 73.86303,18.51783 73.863,18.51743 73.86295,18.51718 73.86284,18.51687 73.8628,18.51658 73.86281,18.5162 73.86363,18.51618 73.86384,18.51607 73.86427,18.5158 73.8645,18.51565 73.86462,18.51555 73.86477,18.51547 73.86487,18.51545 73.86484,18.5153 73.86492,18.51502 73.86507,18.51474 73.86513,18.51463 73.86514,18.51423 73.86514,18.51397 73.86507,18.51379 73.86478,18.51332 73.86454,18.51281 73.86435,18.51243 73.86403,18.51252 73.86337,18.51291 73.8632,18.51295 73.86296,18.51301 73.86258,18.51307 73.86196,18.51312 73.86142,18.51318 73.86131,18.51323 73.86101,18.51325 73.86042,18.5132 73.86008,18.5131 73.85972,18.51295 73.85871,18.51287 73.85839,18.5128 73.85765,18.51269 73.85729,18.51371 73.85723,18.51389 73.85671,18.51475 73.85659,18.51485 73.85645,18.51506 73.85637,18.51527 73.85632,18.51551 73.85629,18.51573 73.85624,18.51615 73.85623,18.51668 73.85623,18.51678 73.85624,18.51761 73.85621,18.5186 73.85453,18.51857 73.8543,18.51857 73.85418,18.51847 73.85407,18.51832 73.85401,18.51818 73.85401,18.51802 73.85382,18.5182 73.85384,18.51863 73.85386,18.51939 73.85299,18.51945 73.85299,18.52015 73.85309,18.52016 73.85306,18.52037 73.85305,18.52063 73.85306,18.52108 73.85302,18.52171 73.85312,18.52174 73.85321,18.52177 73.85338,18.52182 73.85442,18.52228 73.85504,18.52256 73.85579,18.52315 73.85752,18.52488 73.85964,18.52706 73.86034,18.52796 73.86053,18.52828 73.86064,18.52865 73.86335,18.52875 73.8634,18.52825 73.86337,18.52795 73.86277,18.52763 73.86199,18.52715 73.86178,18.52694 73.86162,18.52685 73.86121,18.5264 73.86106,18.5262 73.86078,18.52597 73.86036,18.5257 73.86089,18.5248 73.86105,18.52464 73.86113,18.52458 73.86114,18.52435 73.86107,18.52415 73.86092,18.52394 73.86085,18.5237 73.86086,18.52355 73.8613,18.52275 73.8615,18.52237 73.86123,18.52221 73.86105,18.52215 73.86094,18.52214 73.86104,18.52166 73.86115,18.5214 73.86127,18.52116 73.8613,18.52106 73.8613,18.52042 73.86132,18.52016 73.86125,18.52015
            </coordinates>
          </LinearRing>
        </outerBoundaryIs>
      </Polygon>

      </MultiGeometry>
    </Placemark>
  </Document>
</kml>
