{
  "type": "FeatureCollection",
  "features": [
    {
      "type": "Feature",
      "properties": {
        "ward_number": 9,
        "ward_name_en": "Ward 09",
        "ward_name_mr": "प्रभाग ०९",
        "entity_type": "ward",
        "parent_municipality": "Pune Municipal Corporation",
        "parent_municipality_mr": "पुणे महानगरपालिका",
        "district": "Pune",
        "district_mr": "पुणे",
        "state": "Maharashtra",
        "state_mr": "महाराष्ट्र",
        "country": "India",
        "country_mr": "भारत",
        "area_sq_km": 40.539,
        "perimeter_km": 30.2101,
        "author": "Parisar",
        "added_by": "mahanvyakti",
        "source_url": "https://data.opencity.in/dataset/pune-wards-info/resource/2badcc86-489c-4b7e-b7dd-a273ef01b798",
        "created_date": "2025-11-02",
        "data_year": 2025
      },
      "geometry": {
        "type": "Polygon",
        "coordinates": [
          [
            [
              73.7881539819484,
              18.5166890722638
            ],
            [
              73.7877718482958,
              18.5167660392951
            ],
            [
              73.7872984654399,
              18.5167605884118
            ],
            [
              73.7864387603367,
              18.5166101640106
            ],
            [
              73.7850726189186,
              18.5182678427846
            ],
            [
              73.7843280554844,
              18.5197362954555
            ],
            [
              73.7839073797203,
              18.5213705759977
            ],
            [
              73.7840720964098,
              18.5221367533711
            ],
            [
              73.7827438359482,
              18.5232256465803
            ],
            [
              73.78315071288,
              18.5241170383849
            ],
            [
              73.7834565938646,
              18.5243972323168
            ],
            [
              73.7810654417593,
              18.5257955168448
            ],
            [
              73.7803491271063,
              18.5260209931594
            ],
            [
              73.7796252663126,
              18.5263451443611
            ],
            [
              73.7791983857659,
              18.5265847517672
            ],
            [
              73.7787290411886,
              18.5269625779489
            ],
            [
              73.7784053283815,
              18.5272770432474
            ],
            [
              73.7777882187067,
              18.5272878913918
            ],
            [
              73.7757922489569,
              18.5279723882106
            ],
            [
              73.7752077524893,
              18.5279995149426
            ],
            [
              73.7722985605894,
              18.5280888360904
            ],
            [
              73.7708333411373,
              18.5282369722716
            ],
            [
              73.7704558671518,
              18.5280910773143
            ],
            [
              73.769911627364,
              18.5280628047319
            ],
            [
              73.7680656197979,
              18.5280755113861
            ],
            [
              73.7667323756887,
              18.5281221514741
            ],
            [
              73.7655156079898,
              18.5283306024497
            ],
            [
              73.7646011450628,
              18.5281855160373
            ],
            [
              73.7640101302305,
              18.5281275522427
            ],
            [
              73.7613807675634,
              18.5281731310827
            ],
            [
              73.7608732983408,
              18.5283267873452
            ],
            [
              73.7595437238428,
              18.5283784437777
            ],
            [
              73.7581905588499,
              18.5284263609832
            ],
            [
              73.7568557852525,
              18.5287291942203
            ],
            [
              73.7554414056654,
              18.5288364286782
            ],
            [
              73.7494158772418,
              18.5307596580624
            ],
            [
              73.7487876154369,
              18.5302531552514
            ],
            [
              73.7485372009625,
              18.5301510284324
            ],
            [
              73.7481254324264,
              18.5299550908932
            ],
            [
              73.7475431969048,
              18.5298043939854
            ],
            [
              73.7472530653206,
              18.5295938049068
            ],
            [
              73.7472507826676,
              18.5291694614497
            ],
            [
              73.747174879817,
              18.5292217760144
            ],
            [
              73.7436302235561,
              18.5320577102952
            ],
            [
              73.7391059528776,
              18.5324664341787
            ],
            [
              73.7368955865622,
              18.5336782580452
            ],
            [
              73.7359746007473,
              18.5344344359007
            ],
            [
              73.7359261281883,
              18.538806695073
            ],
            [
              73.7377584051264,
              18.5406777507777
            ],
            [
              73.7382625236966,
              18.5408619481206
            ],
            [
              73.7402789979774,
              18.5435861267984
            ],
            [
              73.7404050280697,
              18.5440514675012
            ],
            [
              73.7401238847096,
              18.5453020692352
            ],
            [
              73.7398912148078,
              18.5476093815679
            ],
            [
              73.7401723572685,
              18.5485303673826
            ],
            [
              73.7402789979774,
              18.5493737965635
            ],
            [
              73.7401917466518,
              18.5500911965516
            ],
            [
              73.7399447289662,
              18.5507457743981
            ],
            [
              73.7391253422609,
              18.5521270593164
            ],
            [
              73.7387569475753,
              18.5529220159383
            ],
            [
              73.7386503068664,
              18.5535618592925
            ],
            [
              73.7381946617543,
              18.5564314574459
            ],
            [
              73.7369537538128,
              18.5594270847923
            ],
            [
              73.7360366152976,
              18.5612339235068
            ],
            [
              73.7361239745419,
              18.5615595374428
            ],
            [
              73.7336905556747,
              18.5637194607845
            ],
            [
              73.7328320961244,
              18.5654629359658
            ],
            [
              73.7322841113227,
              18.5661101933308
            ],
            [
              73.7319505554738,
              18.5669281995769
            ],
            [
              73.7318274571716,
              18.5672935221784
            ],
            [
              73.7319108459089,
              18.5675397187832
            ],
            [
              73.7320463530568,
              18.5677400005007
            ],
            [
              73.7333431017029,
              18.5688940447245
            ],
            [
              73.7337960326608,
              18.5691546349786
            ],
            [
              73.7344847361817,
              18.5696137712585
            ],
            [
              73.7352044627159,
              18.5699612252304
            ],
            [
              73.7355333034194,
              18.5700356792034
            ],
            [
              73.7375812962399,
              18.5716932835183
            ],
            [
              73.7377361621943,
              18.572062577526
            ],
            [
              73.7379426483346,
              18.5723603952161
            ],
            [
              73.7383119423424,
              18.5726304166604
            ],
            [
              73.7392570173976,
              18.5731982557949
            ],
            [
              73.739864566097,
              18.5738018330883
            ],
            [
              73.7415720549065,
              18.5743934979616
            ],
            [
              73.7426759655235,
              18.574476886699
            ],
            [
              73.7431445320946,
              18.5746992575647
            ],
            [
              73.7440022479055,
              18.5747032280717
            ],
            [
              73.7445144936491,
              18.5745642468427
            ],
            [
              73.7460035829991,
              18.5742187776745
            ],
            [
              73.7466627527839,
              18.5741393603433
            ],
            [
              73.7474926714497,
              18.57415524327
            ],
            [
              73.7478504721216,
              18.5744343082969
            ],
            [
              73.7491398517229,
              18.5744730861642
            ],
            [
              73.7503040717755,
              18.574814413954
            ],
            [
              73.7509473577344,
              18.5749454532701
            ],
            [
              73.7513610764526,
              18.5755577171151
            ],
            [
              73.7521736525921,
              18.5762859746181
            ],
            [
              73.7522645389774,
              18.5767555565237
            ],
            [
              73.752840155449,
              18.5776492757935
            ],
            [
              73.7534006237399,
              18.5788308041984
            ],
            [
              73.7537944665415,
              18.5795730461593
            ],
            [
              73.7542034566243,
              18.5799214453186
            ],
            [
              73.7551880631787,
              18.5815119638062
            ],
            [
              73.7557788278308,
              18.5820724320972
            ],
            [
              73.7567634343852,
              18.5842840097993
            ],
            [
              73.7577827718575,
              18.5855656345466
            ],
            [
              73.7587196567868,
              18.5867010646025
            ],
            [
              73.7596937691521,
              18.5874456097272
            ],
            [
              73.7609098585033,
              18.5882211769658
            ],
            [
              73.7623226745519,
              18.5886920188218
            ],
            [
              73.7637920111924,
              18.5886314269989
            ],
            [
              73.7658975543288,
              18.5880558114266
            ],
            [
              73.7675789592017,
              18.5875407858787
            ],
            [
              73.7691240349463,
              18.5872832731047
            ],
            [
              73.7712447262631,
              18.5875104904169
            ],
            [
              73.7733654175801,
              18.5882527323778
            ],
            [
              73.7746529796515,
              18.588449653329
            ],
            [
              73.7757284734903,
              18.5883890624054
            ],
            [
              73.7765161581943,
              18.5880103677843
            ],
            [
              73.777924903012,
              18.5866167702479
            ],
            [
              73.778561110407,
              18.5856927555163
            ],
            [
              73.7790761359551,
              18.5842688625182
            ],
            [
              73.7798585137596,
              18.5820786850834
            ],
            [
              73.7809117952433,
              18.5786344228405
            ],
            [
              73.7811222536891,
              18.5781142342846
            ],
            [
              73.7816265584191,
              18.5776933182921
            ],
            [
              73.7836805083488,
              18.5761037162137
            ],
            [
              73.7860580865116,
              18.5741870109219
            ],
            [
              73.7873089211699,
              18.5732816445324
            ],
            [
              73.789059840939,
              18.5723809941877
            ],
            [
              73.7895437949103,
              18.5717791543845
            ],
            [
              73.7899773679612,
              18.5707640922891
            ],
            [
              73.7899853098743,
              18.5700930091852
            ],
            [
              73.7898264734132,
              18.5692114685346
            ],
            [
              73.7894690927246,
              18.5684371423604
            ],
            [
              73.7892070131932,
              18.5683537536229
            ],
            [
              73.7886590283916,
              18.5681075579176
            ],
            [
              73.7884843081045,
              18.5677700306624
            ],
            [
              73.7881242267518,
              18.5661098758701
            ],
            [
              73.7881242267518,
              18.5653093416529
            ],
            [
              73.788324995902,
              18.5648442689479
            ],
            [
              73.7887123869671,
              18.5644019598826
            ],
            [
              73.7891218869657,
              18.5641475740513
            ],
            [
              73.7922844635572,
              18.5634134727537
            ],
            [
              73.7926021355801,
              18.56342363869
            ],
            [
              73.7928284769528,
              18.5635489601165
            ],
            [
              73.7929198076032,
              18.5636839708386
            ],
            [
              73.7929992258338,
              18.5639897304418
            ],
            [
              73.793110410817,
              18.5642041593945
            ],
            [
              73.7934092213586,
              18.5644453917415
            ],
            [
              73.7942341766661,
              18.5650102532206
            ],
            [
              73.7945995001669,
              18.5653001289979
            ],
            [
              73.7947543652219,
              18.5655502961094
            ],
            [
              73.7955373779477,
              18.5664618660223
            ],
            [
              73.7959733553,
              18.5668865710675
            ],
            [
              73.7960157966348,
              18.5662573378084
            ],
            [
              73.7959739333933,
              18.5658138427922
            ],
            [
              73.7959754883051,
              18.5655922387853
            ],
            [
              73.7961366057486,
              18.5650642537067
            ],
            [
              73.7961629535507,
              18.5645139622127
            ],
            [
              73.7959755068458,
              18.5640083447698
            ],
            [
              73.7958186795681,
              18.5637968819134
            ],
            [
              73.7956089872196,
              18.5635988079488
            ],
            [
              73.7953077336288,
              18.5634596274649
            ],
            [
              73.7948290855983,
              18.563305587086
            ],
            [
              73.7946569044605,
              18.5632312834319
            ],
            [
              73.7946291827826,
              18.5630801226467
            ],
            [
              73.7946834278468,
              18.5628700081168
            ],
            [
              73.7949940381873,
              18.5623595635065
            ],
            [
              73.7951737455117,
              18.5620450189529
            ],
            [
              73.795318587961,
              18.5619132616247
            ],
            [
              73.7955318821265,
              18.561789078153
            ],
            [
              73.7957632293173,
              18.5616353626636
            ],
            [
              73.7958626232059,
              18.5614720195896
            ],
            [
              73.7959224340648,
              18.5612615732014
            ],
            [
              73.7959637216915,
              18.5610656504473
            ],
            [
              73.7969396510151,
              18.5606853571898
            ],
            [
              73.7971369158761,
              18.5605753445359
            ],
            [
              73.7972974834844,
              18.5604446002594
            ],
            [
              73.7974222180061,
              18.5601972335855
            ],
            [
              73.7974614908787,
              18.5600693768251
            ],
            [
              73.7975773881481,
              18.5599603090451
            ],
            [
              73.7977452832949,
              18.5599613787556
            ],
            [
              73.7979126658282,
              18.560035648949
            ],
            [
              73.7980841717598,
              18.5602060260034
            ],
            [
              73.7983613415692,
              18.5603587750326
            ],
            [
              73.7987557525543,
              18.5602103021948
            ],
            [
              73.7988990541534,
              18.5602981447229
            ],
            [
              73.7990411575807,
              18.560257299523
            ],
            [
              73.799933401145,
              18.5602200829751
            ],
            [
              73.8005989864072,
              18.5604387791366
            ],
            [
              73.8027963732494,
              18.560877642775
            ],
            [
              73.8031306040338,
              18.5599749869541
            ],
            [
              73.8035504684602,
              18.5585478788119
            ],
            [
              73.803882199747,
              18.5580026479074
            ],
            [
              73.8044032534717,
              18.5571793633145
            ],
            [
              73.8046967659879,
              18.5553940089478
            ],
            [
              73.8044170206586,
              18.5552023452497
            ],
            [
              73.8048591764582,
              18.5511999706691
            ],
            [
              73.8043418073779,
              18.5458189936091
            ],
            [
              73.804646382414,
              18.5441230669664
            ],
            [
              73.80469938857,
              18.5395495225907
            ],
            [
              73.8060955599347,
              18.5382831870581
            ],
            [
              73.8049556162088,
              18.5378294179932
            ],
            [
              73.8038437627795,
              18.5377658835887
            ],
            [
              73.8046952741677,
              18.5350731146326
            ],
            [
              73.8068369035004,
              18.5351180726411
            ],
            [
              73.8072142473398,
              18.534708199424
            ],
            [
              73.8075556048074,
              18.5344265128734
            ],
            [
              73.8080664215283,
              18.5341062993663
            ],
            [
              73.8100791321464,
              18.5301381100859
            ],
            [
              73.8105426778025,
              18.5293118300771
            ],
            [
              73.8108682917384,
              18.5274216799667
            ],
            [
              73.8123216420303,
              18.5243918810806
            ],
            [
              73.812091081938,
              18.524314448553
            ],
            [
              73.8111479916866,
              18.5242399936809
            ],
            [
              73.8103476067567,
              18.5243951069486
            ],
            [
              73.8093238581096,
              18.5248464874756
            ],
            [
              73.805973408646,
              18.5246308795116
            ],
            [
              73.804484319296,
              18.5245440157938
            ],
            [
              73.8037106909957,
              18.5242357281963
            ],
            [
              73.8023437547606,
              18.5241678662541
            ],
            [
              73.801897803441,
              18.523886722894
            ],
            [
              73.8001333884452,
              18.5235958857416
            ],
            [
              73.7988630097202,
              18.523166608752
            ],
            [
              73.7975414433831,
              18.5221366556821
            ],
            [
              73.7965549212727,
              18.5210508619078
            ],
            [
              73.7954896806044,
              18.519708355756
            ],
            [
              73.7936139709082,
              18.5179113664165
            ],
            [
              73.7931424266818,
              18.5173529584724
            ],
            [
              73.7926491656266,
              18.5170714275044
            ],
            [
              73.7921644364397,
              18.5160728850557
            ],
            [
              73.7914567311434,
              18.5159759390385
            ],
            [
              73.7908265833803,
              18.5160147169058
            ],
            [
              73.7901964347178,
              18.5162667761909
            ],
            [
              73.7881539819484,
              18.5166890722638
            ]
          ]
        ]
      }
    }
  ]
}