<?xml version="1.0" encoding="UTF-8"?>
<kml xmlns="http://www.opengis.net/kml/2.2">
  <Document>
    <name>Ward 05</name>
    <description>Part of OS-Bhugol open geographic data project</description>
    <Placemark>
      <name>Ward 05</name>
      <ExtendedData>
        <Data name="ward_number"><value>5</value></Data>
        <Data name="ward_name_en"><value>Ward 05</value></Data>
        <Data name="ward_name_mr"><value>प्रभाग ०५</value></Data>
        <Data name="entity_type"><value>ward</value></Data>
        <Data name="parent_municipality"><value>Pune Municipal Corporation</value></Data>
        <Data name="parent_municipality_mr"><value>पुणे महानगरपालिका</value></Data>
        <Data name="district"><value>Pune</value></Data>
        <Data name="district_mr"><value>पुणे</value></Data>
        <Data name="state"><value>Maharashtra</value></Data>
        <Data name="state_mr"><value>महाराष्ट्र</value></Data>
        <Data name="country"><value>India</value></Data>
        <Data name="country_mr"><value>भारत</value></Data>
        <Data name="area_sq_km"><value>7.4576</value></Data>
        <Data name="perimeter_km"><value>14.7215</value></Data>
        <Data name="author"><value>Parisar</value></Data>
        <Data name="source_url"><value>https://data.opencity.in/dataset/pune-wards-info/resource/2badcc86-489c-4b7e-b7dd-a273ef01b798</value></Data>
        <Data name="created_date"><value>2025-11-02</value></Data>
        <Data name="data_year"><value>2025</value></Data>
      </ExtendedData>
      <MultiGeometry>
      <Polygon>
        <outerBoundaryIs>
          <LinearRing>
            <tessellate>1</tessellate>
            <coordinates>
              73.9191147135886,18.5546706540207 73.9206489748674,18.5545702750103 73.9213484483723,18.5567231597461 73.9213580737025,18.5570872971195 73.9213772851898,18.5578140901429 73.9220014917365,18.5578964132889 73.9226164976654,18.5583802211053 73.9243051849591,18.5577506228195 73.9244469775236,18.5579122513643 73.9260690800972,18.5576866118707 73.9264640651874,18.5576093837375 73.9281525514086,18.5573215931428 73.9282046812046,18.5562870892867 73.9286292130678,18.552600209732 73.9289827122824,18.5501323962934 73.9307111903693,18.544751072604 73.9312932360941,18.5423626737985 73.9317749280366,18.5397334310768 73.9319472876405,18.5388234124613 73.9319747887436,18.5379132505562 73.9319050905249,18.536976487539 73.9315559617511,18.5359990340857 73.9256420933081,18.5379538706746 73.9224306475564,18.5388137466572 73.9176789626142,18.5390192696236 73.9166973867751,18.5392658970036 73.9160344524282,18.5396078866948 73.9148175051238,18.5395763555644 73.9116590959907,18.539892733463 73.9101482817179,18.5405109679069 73.9055942281913,18.5411402640121 73.903917491699,18.5409758454591 73.9008395835801,18.5411547323052 73.8978830164881,18.5418801452527 73.8945995854027,18.5427331468173 73.892591461327,18.5434103839822 73.8909445697362,18.5436640827313 73.8887436139267,18.5436471916646 73.8886231911075,18.5455940368354 73.8886452942037,18.5457761073237 73.8895563343748,18.5460271769105 73.8904779994455,18.5466711158734 73.8914800379173,18.5475528459849 73.8926066828804,18.548854331456 73.8942339725725,18.5506601361058 73.8951762593514,18.5514264456872 73.8961338025775,18.5520366051638 73.8969007231396,18.5523875198963 73.8967731073008,18.5534056928597 73.896779547933,18.5557288647376 73.8969312976309,18.5564973366705 73.8969413643359,18.5565357502633 73.8957266909094,18.5566465268232 73.8946626594676,18.5577494248442 73.8947749240112,18.5581013149037 73.8953633569371,18.5579770606211 73.8966329801314,18.5578252811694 73.8970702120521,18.5578219384779 73.8971634531792,18.5578391769618 73.8972387459013,18.5579258692525 73.8973161406602,18.5590475982917 73.8993718312755,18.5587479776838 73.8993136332785,18.5581686856225 73.8994088510089,18.5566476558764 73.9007073099643,18.5570251524198 73.9008035574374,18.5570284953955 73.9009264697657,18.5569680005518 73.9009474238366,18.5568846525528 73.9010728813972,18.5537092772118 73.9027210456663,18.5542202591208 73.9057471863181,18.5550605848248 73.9067130720724,18.5555956855995 73.9079740168875,18.5566863298104 73.9092181219189,18.5574569822541 73.9113653054645,18.5585603685662 73.9131794286877,18.5591435915037 73.9159502704887,18.5601325345888 73.9186210993519,18.5609394963873 73.9187716462465,18.5594236162308 73.9186824978526,18.5578774270067 73.9183849955153,18.5563108235127 73.9182061415822,18.5551732338951 73.9191147135886,18.5546706540207
            </coordinates>
          </LinearRing>
        </outerBoundaryIs>
      </Polygon>

      </MultiGeometry>
    </Placemark>
  </Document>
</kml>
