<?xml version="1.0" encoding="UTF-8"?>
<kml xmlns="http://www.opengis.net/kml/2.2">
  <Document>
    <name>Ward 32</name>
    <description>Part of OS-Bhugol open geographic data project</description>
    <Placemark>
      <name>Ward 32</name>
      <ExtendedData>
        <Data name="ward_number"><value>32</value></Data>
        <Data name="ward_name_en"><value>Ward 32</value></Data>
        <Data name="ward_name_mr"><value>प्रभाग ३२</value></Data>
        <Data name="entity_type"><value>ward</value></Data>
        <Data name="parent_municipality"><value>Pune Municipal Corporation</value></Data>
        <Data name="parent_municipality_mr"><value>पुणे महानगरपालिका</value></Data>
        <Data name="district"><value>Pune</value></Data>
        <Data name="district_mr"><value>पुणे</value></Data>
        <Data name="state"><value>Maharashtra</value></Data>
        <Data name="state_mr"><value>महाराष्ट्र</value></Data>
        <Data name="country"><value>India</value></Data>
        <Data name="country_mr"><value>भारत</value></Data>
        <Data name="area_sq_km"><value>8.4222</value></Data>
        <Data name="perimeter_km"><value>16.2674</value></Data>
        <Data name="author"><value>Parisar</value></Data>
        <Data name="source_url"><value>https://data.opencity.in/dataset/pune-wards-info/resource/2badcc86-489c-4b7e-b7dd-a273ef01b798</value></Data>
        <Data name="created_date"><value>2025-11-02</value></Data>
        <Data name="data_year"><value>2025</value></Data>
      </ExtendedData>
      <MultiGeometry>
      <Polygon>
        <outerBoundaryIs>
          <LinearRing>
            <tessellate>1</tessellate>
            <coordinates>
              73.7995309919085,18.466335091689 73.7986756624697,18.4655030811736 73.7980455279662,18.4650187709873 73.7958001671999,18.4634476355174 73.794416536469,18.4627514938044 73.7935496635091,18.4624196953255 73.7921351796674,18.4621668869751 73.7915468235575,18.4621154375938 73.7911800582167,18.4621448989202 73.7907796741694,18.4622165456406 73.7903287503003,18.4623673692367 73.7862604054679,18.4627759654362 73.7856604955973,18.462788023162 73.7842018531453,18.4625474601705 73.7839341391335,18.4624115869918 73.7834986579341,18.4621434612329 73.7831312738666,18.4619652092587 73.7830063761899,18.46201307389 73.7827387005742,18.4631977429412 73.7825764843058,18.4634878393031 73.7823463436327,18.4636756011035 73.7820407560128,18.4637464218775 73.7821167689851,18.4659450025635 73.7821734384407,18.4662155426019 73.7822843265524,18.4664118992675 73.7824683356108,18.4666227015657 73.7826776064556,18.4667125516814 73.7830326584503,18.4668965019294 73.7833628772068,18.4671408488314 73.7835856762587,18.4673891641148 73.783553476342,18.4677156137234 73.7835191201774,18.4682612773039 73.7834179493034,18.4696289760666 73.7835681315187,18.4699647491632 73.7838107117823,18.4701773812219 73.7842601999952,18.4702530504911 73.784543020061,18.4701675227961 73.7846360320774,18.4699570442878 73.784837003144,18.4695798539248 73.7851362034718,18.4693343051246 73.7854722566333,18.4692709531442 73.7859509217188,18.4695360445378 73.7863239339915,18.469640332015 73.7865836654959,18.4695837672984 73.7868747753791,18.4694036698963 73.7882637404959,18.4703805918505 73.7904467856587,18.4714476415936 73.7932908470191,18.4737744137423 73.7942621152604,18.4747049629154 73.7955507554177,18.47572441233 73.7950292808297,18.4762469377166 73.7947583128322,18.4766482311002 73.7931733366717,18.4780071169487 73.7931377587736,18.4783011564424 73.7930250085003,18.4785865161555 73.7928002414675,18.4788225433288 73.7925502455612,18.478984715215 73.792258204513,18.4790237944695 73.7869274061787,18.4795792849768 73.7865642701302,18.4797368852455 73.7860257944628,18.4800404942648 73.7854412460651,18.480222261856 73.7849720158843,18.4802128553996 73.7846508130773,18.4801276330694 73.7841954419673,18.4800543429866 73.7836311839357,18.4802106463338 73.7827192679785,18.4802303766267 73.7822243974991,18.4800544746424 73.7785301145306,18.4805447544421 73.7777562453575,18.4806088889318 73.7780459431694,18.4810626028924 73.7781075895085,18.4813192016784 73.7780263817391,18.4817965792843 73.7773956697183,18.4833391741739 73.7772615037243,18.4837704645853 73.7772642276377,18.4850669519007 73.7770417384337,18.485716933923 73.7765809707185,18.4861506629389 73.7758093413373,18.4868544121001 73.7756472117223,18.4878655191956 73.7752723219062,18.488625053894 73.7740768649375,18.488833042432 73.7740768647275,18.4893339046879 73.7747958433876,18.4898590007837 73.7748119997948,18.4906345286053 73.7753532537026,18.491272722822 73.7759429779232,18.4919593880441 73.7772597588626,18.4946414208963 73.7768719947204,18.495853181981 73.777510189213,18.4962894160936 73.7797165646101,18.4979635859414 73.7806627089198,18.4979377348272 73.7808901971106,18.4980204583456 73.7831408420421,18.5000620341553 73.7832216257339,18.5004417199471 73.7845765372105,18.5004349335055 73.7854554677035,18.4998920651966 73.7857501695141,18.4991653312804 73.7864691468158,18.499084546974 73.7885776126466,18.4977112173848 73.7913856682655,18.4964590634331 73.7921016349534,18.4963868874901 73.7921353452505,18.4962264049511 73.792915989221,18.4953590190115 73.7932055724706,18.4952595810345 73.7938098302641,18.4947185312631 73.7941310352629,18.494546095314 73.7951960932102,18.493765397542 73.7972701636202,18.492578324168 73.7977656559034,18.4925264455659 73.7979645888074,18.4924515551801 73.7981989999427,18.492363308854 73.7985706066864,18.4924764061047 73.798628747001,18.4924708842081 73.8000166418582,18.4923390729287 73.8001620543748,18.4931307578497 73.8011712541253,18.4934537553167 73.8013534115786,18.4935127392731 73.8015156173087,18.4935413639284 73.8016795579861,18.4935465684542 73.8018698226784,18.4935135559743 73.8026064035481,18.4932919635673 73.8041294169238,18.4928337720181 73.8042916865356,18.4927239162553 73.8045067652183,18.4925088363617 73.8047317722292,18.4922209615391 73.8049667050574,18.4920819859866 73.8051553134867,18.4921349286431 73.8053538482348,18.4922242702657 73.8046145419564,18.487334142964 73.8046563742981,18.4836387575198 73.8045773923976,18.4834540812855 73.8044283821943,18.4833994776762 73.8042189788177,18.4834367256015 73.8035330180856,18.483766108343 73.8032275953482,18.4837667873298 73.8026917954222,18.4835910455674 73.8021129664356,18.4832846004748 73.8019241632101,18.4830551535088 73.8038076820701,18.4809998486227 73.8042766569747,18.4803740481087 73.809339990027,18.4746403163535 73.8085403356718,18.4728387948941 73.807281108752,18.4720850969115 73.8030530480482,18.4687945629353 73.8010165704447,18.4676496539853 73.7991466844171,18.46689193449 73.7995309919085,18.466335091689
            </coordinates>
          </LinearRing>
        </outerBoundaryIs>
      </Polygon>

      </MultiGeometry>
    </Placemark>
  </Document>
</kml>
