{
  "type": "FeatureCollection",
  "features": [
    {
      "type": "Feature",
      "properties": {
        "ward_number": 23,
        "ward_name_en": "Ward 23",
        "ward_name_mr": "प्रभाग २३",
        "entity_type": "ward",
        "parent_municipality": "Pune Municipal Corporation",
        "parent_municipality_mr": "पुणे महानगरपालिका",
        "district": "Pune",
        "district_mr": "पुणे",
        "state": "Maharashtra",
        "state_mr": "महाराष्ट्र",
        "country": "India",
        "country_mr": "भारत",
        "area_sq_km": 1.1051,
        "perimeter_km": 6.9385,
        "author": "Parisar",
        "added_by": "mahanvyakti",
        "source_url": "https://data.opencity.in/dataset/pune-wards-info/resource/2badcc86-489c-4b7e-b7dd-a273ef01b798",
        "created_date": "2025-11-02",
        "data_year": 2025
      },
      "geometry": {
        "type": "Polygon",
        "coordinates": [
          [
            [
              73.8620700681893,
              18.5187538307088
            ],
            [
              73.8620731011653,
              18.5185362581429
            ],
            [
              73.8622012237751,
              18.5182455563203
            ],
            [
              73.8623823379348,
              18.5180732070665
            ],
            [
              73.86298465562,
              18.517794050569
            ],
            [
              73.8628017107993,
              18.5166753733725
            ],
            [
              73.8627413740862,
              18.5163829434954
            ],
            [
              73.8628361152009,
              18.5161805514419
            ],
            [
              73.8636144805398,
              18.516180280393
            ],
            [
              73.8647769792275,
              18.5154350166601
            ],
            [
              73.86591946429,
              18.5154260308485
            ],
            [
              73.8659337542002,
              18.5167852689335
            ],
            [
              73.8685306790306,
              18.5168039942568
            ],
            [
              73.8684526819775,
              18.5175543883793
            ],
            [
              73.8692563651896,
              18.5175560280055
            ],
            [
              73.869638895268,
              18.517463269482
            ],
            [
              73.8700417457637,
              18.5173104358645
            ],
            [
              73.8704849190719,
              18.5169593478514
            ],
            [
              73.8711467663371,
              18.5161820810256
            ],
            [
              73.8711012759405,
              18.5144646740513
            ],
            [
              73.8719960521498,
              18.5106958907862
            ],
            [
              73.8755659297097,
              18.5110918039865
            ],
            [
              73.8760690402091,
              18.510507409143
            ],
            [
              73.8761724200182,
              18.5101710929575
            ],
            [
              73.8765497509939,
              18.5095004016607
            ],
            [
              73.8770243163592,
              18.5088380215558
            ],
            [
              73.8767435071566,
              18.5076588484407
            ],
            [
              73.8766576386109,
              18.507670163007
            ],
            [
              73.8756519742163,
              18.5080545948042
            ],
            [
              73.8724299051133,
              18.5092862343736
            ],
            [
              73.8682649654149,
              18.5107479927409
            ],
            [
              73.8661241188757,
              18.5117400808699
            ],
            [
              73.8658540721324,
              18.5109860168821
            ],
            [
              73.864156116021,
              18.5111639389704
            ],
            [
              73.8640191234256,
              18.5106928384267
            ],
            [
              73.8620222522159,
              18.5105620279094
            ],
            [
              73.8617782736855,
              18.5130784007243
            ],
            [
              73.8612381524724,
              18.513221356029
            ],
            [
              73.8606041053672,
              18.5131826871506
            ],
            [
              73.8597026594893,
              18.5129340960667
            ],
            [
              73.8584789940611,
              18.5127930565248
            ],
            [
              73.8582463909572,
              18.5138305932063
            ],
            [
              73.8579493866347,
              18.5158243824642
            ],
            [
              73.857909821296,
              18.51689928279
            ],
            [
              73.8561840965921,
              18.51687770521
            ],
            [
              73.8561451601712,
              18.5185463894044
            ],
            [
              73.8568023274394,
              18.5185741631202
            ],
            [
              73.8572626105054,
              18.5187765408257
            ],
            [
              73.8589321162396,
              18.5188004845538
            ],
            [
              73.8596904911709,
              18.5186862530861
            ],
            [
              73.8605642447768,
              18.5191716982382
            ],
            [
              73.8613042326583,
              18.5191750237266
            ],
            [
              73.8617309691446,
              18.5192485606084
            ],
            [
              73.8623356233915,
              18.5194164385069
            ],
            [
              73.8620700681893,
              18.5187538307088
            ]
          ]
        ]
      }
    }
  ]
}