<?xml version="1.0" encoding="UTF-8"?>
<kml xmlns="http://www.opengis.net/kml/2.2">
  <Document>
    <name>53 Khadakwasla - Narhe</name>
    <description>Part of OS-Bhugol open geographic data project</description>
    <Placemark>
      <name>53 Khadakwasla - Narhe</name>
      <ExtendedData>
        <Data name="ward_number"><value>53</value></Data>
        <Data name="ward_name_en"><value>53 Khadakwasla - Narhe</value></Data>
        <Data name="ward_name_mr"><value>प्रभाग ५३ : खडकवासला - नऱ्हे</value></Data>
        <Data name="entity_type"><value>ward</value></Data>
        <Data name="parent_municipality"><value>Pune Municipal Corporation</value></Data>
        <Data name="parent_municipality_mr"><value>पुणे महानगरपालिका</value></Data>
        <Data name="district"><value>Pune</value></Data>
        <Data name="district_mr"><value>पुणे</value></Data>
        <Data name="state"><value>Maharashtra</value></Data>
        <Data name="state_mr"><value>महाराष्ट्र</value></Data>
        <Data name="country"><value>India</value></Data>
        <Data name="country_mr"><value>भारत</value></Data>
        <Data name="area_sq_km"><value>28.9549</value></Data>
        <Data name="perimeter_km"><value>32.4377</value></Data>
        <Data name="author"><value>Nikhil VJ</value></Data>
        <Data name="source_url"><value>http://www.pmc.gov.in/sites/default/files/final_ward_maps/53_F_Ward.pdf</value></Data>
        <Data name="created_date"><value>2025-11-02</value></Data>
        <Data name="data_year"><value>2022</value></Data>
      </ExtendedData>
      <MultiGeometry>
      <Polygon>
        <outerBoundaryIs>
          <LinearRing>
            <tessellate>1</tessellate>
            <coordinates>
              73.78664,18.46267 73.78662,18.46264 73.78653,18.46246 73.78652,18.46111 73.78657,18.46079 73.78673,18.45944 73.78653,18.45944 73.78747,18.45597 73.78787,18.45581 73.78834,18.454 73.78837,18.45377 73.78878,18.45375 73.79016,18.45288 73.7907,18.45274 73.79156,18.45286 73.79268,18.45309 73.79376,18.45335 73.79424,18.45352 73.79496,18.4536 73.79514,18.45355 73.79526,18.45417 73.79538,18.45447 73.79583,18.45457 73.79621,18.45457 73.79668,18.45485 73.79726,18.45519 73.79704,18.45629 73.79748,18.45642 73.79775,18.45647 73.7982,18.45647 73.79849,18.4565 73.79924,18.45672 73.79978,18.45658 73.80035,18.45673 73.80125,18.45699 73.80204,18.45722 73.80312,18.45727 73.80398,18.45731 73.80481,18.45751 73.80562,18.45766 73.80689,18.45789 73.80797,18.45811 73.80884,18.45848 73.80915,18.45875 73.80968,18.45932 73.80987,18.45951 73.81059,18.45973 73.81143,18.46001 73.81234,18.4607 73.8128,18.46096 73.81279,18.46061 73.81276,18.46037 73.81263,18.45968 73.81345,18.45974 73.81448,18.45977 73.81485,18.4596 73.81525,18.45929 73.81548,18.45911 73.81512,18.45917 73.81421,18.45911 73.81387,18.45913 73.81364,18.45928 73.81349,18.4593 73.81351,18.45915 73.8136,18.45901 73.81364,18.4588 73.81375,18.45872 73.81378,18.45858 73.81387,18.45826 73.81461,18.45805 73.81529,18.45786 73.8155,18.45758 73.8164,18.45728 73.8167,18.45699 73.81701,18.45652 73.81729,18.45644 73.81747,18.45593 73.81782,18.45522 73.81817,18.45419 73.8185,18.4533 73.81874,18.45268 73.81906,18.45196 73.81907,18.45106 73.81921,18.45064 73.8196,18.45032 73.81996,18.44971 73.82062,18.44718 73.81932,18.44704 73.81856,18.44696 73.8178,18.44684 73.81689,18.44691 73.81623,18.44699 73.81569,18.44694 73.81501,18.44671 73.81451,18.44688 73.81388,18.4472 73.81302,18.44716 73.81228,18.44738 73.8118,18.44738 73.80942,18.44723 73.80763,18.44714 73.80717,18.44718 73.80673,18.44748 73.80551,18.44751 73.80515,18.44734 73.80419,18.4471 73.80332,18.44715 73.80264,18.44703 73.80182,18.44695 73.80114,18.44708 73.80046,18.44725 73.79957,18.44724 73.79803,18.44712 73.79687,18.44705 73.79697,18.44644 73.7972,18.44595 73.79814,18.44578 73.79855,18.44429 73.79891,18.44252 73.79917,18.44148 73.79965,18.43984 73.80014,18.43841 73.80026,18.43768 73.80051,18.43707 73.80107,18.43685 73.80116,18.43562 73.80144,18.43528 73.80162,18.4349 73.80185,18.43435 73.80178,18.43307 73.8017,18.43285 73.80159,18.43171 73.80179,18.43087 73.80177,18.42796 73.80199,18.42792 73.80176,18.42693 73.80242,18.42681 73.80253,18.42628 73.80308,18.42496 73.80352,18.42434 73.8041,18.42407 73.80437,18.42373 73.80491,18.42272 73.80853,18.41861 73.80937,18.41818 73.80904,18.41732 73.80891,18.4164 73.80952,18.41497 73.81122,18.41167 73.81156,18.41154 73.81157,18.41127 73.81193,18.41106 73.81199,18.41051 73.81258,18.40953 73.81615,18.40862 73.81716,18.40736 73.81809,18.40712 73.81829,18.40676 73.81883,18.40663 73.82134,18.40372 73.82278,18.39793 73.82458,18.39498 73.82366,18.39191 73.82083,18.38916 73.82007,18.38915 73.81697,18.38934 73.81198,18.38815 73.80999,18.38731 73.80495,18.38539 73.80302,18.38587 73.80186,18.38563 73.80006,18.38639 73.79738,18.39046 73.7958,18.39285 73.79498,18.39343 73.79497,18.39525 73.7943,18.398 73.79342,18.40176 73.79274,18.40379 73.79089,18.40496 73.78862,18.40648 73.78701,18.40742 73.78521,18.40875 73.78467,18.40951 73.78422,18.41004 73.78376,18.4101 73.78324,18.40998 73.7824,18.40988 73.78194,18.40984 73.78166,18.40961 73.77927,18.41038 73.77827,18.41052 73.77824,18.41106 73.77856,18.41169 73.77882,18.41156 73.77948,18.41145 73.78023,18.41141 73.78093,18.41136 73.78163,18.41144 73.78177,18.41173 73.78132,18.41215 73.78064,18.41281 73.78041,18.41333 73.77967,18.41409 73.77868,18.41502 73.77867,18.41609 73.77771,18.41616 73.77709,18.416 73.7764,18.41632 73.77526,18.41691 73.77387,18.41765 73.77252,18.41814 73.7714,18.41836 73.76973,18.41881 73.76843,18.41924 73.76734,18.41952 73.76594,18.41957 73.76496,18.41958 73.76483,18.42017 73.76457,18.42015 73.76433,18.42036 73.76381,18.42055 73.76381,18.42076 73.76348,18.42164 73.76293,18.42268 73.76265,18.42358 73.7626,18.42421 73.76206,18.42478 73.76227,18.42549 73.76172,18.42641 73.76166,18.42738 73.76109,18.42854 73.75946,18.43203 73.75927,18.43241 73.75964,18.43247 73.76222,18.43284 73.76248,18.43287 73.76588,18.43568 73.7689,18.44066 73.77013,18.44268 73.77031,18.44546 73.77061,18.44645 73.77081,18.44646 73.77088,18.44677 73.7708,18.44747 73.77019,18.44922 73.77013,18.45187 73.77033,18.45298 73.77114,18.45501 73.77114,18.45528 73.77207,18.45707 73.77237,18.45758 73.77282,18.4581 73.77347,18.45853 73.77459,18.45961 73.77619,18.46033 73.78099,18.46116 73.78293,18.46181 73.78416,18.4625 73.78589,18.46275 73.78664,18.46267
            </coordinates>
          </LinearRing>
        </outerBoundaryIs>
      </Polygon>

      </MultiGeometry>
    </Placemark>
  </Document>
</kml>
