<?xml version="1.0" encoding="UTF-8"?>
<kml xmlns="http://www.opengis.net/kml/2.2">
  <Document>
    <name>50 Sahakarnagar - Taljai</name>
    <description>Part of OS-Bhugol open geographic data project</description>
    <Placemark>
      <name>50 Sahakarnagar - Taljai</name>
      <ExtendedData>
        <Data name="ward_number"><value>50</value></Data>
        <Data name="ward_name_en"><value>50 Sahakarnagar - Taljai</value></Data>
        <Data name="ward_name_mr"><value>प्रभाग ५० : सहकारनगर - तळजाई</value></Data>
        <Data name="entity_type"><value>ward</value></Data>
        <Data name="parent_municipality"><value>Pune Municipal Corporation</value></Data>
        <Data name="parent_municipality_mr"><value>पुणे महानगरपालिका</value></Data>
        <Data name="district"><value>Pune</value></Data>
        <Data name="district_mr"><value>पुणे</value></Data>
        <Data name="state"><value>Maharashtra</value></Data>
        <Data name="state_mr"><value>महाराष्ट्र</value></Data>
        <Data name="country"><value>India</value></Data>
        <Data name="country_mr"><value>भारत</value></Data>
        <Data name="area_sq_km"><value>2.8739</value></Data>
        <Data name="perimeter_km"><value>9.4848</value></Data>
        <Data name="author"><value>Nikhil VJ</value></Data>
        <Data name="source_url"><value>http://www.pmc.gov.in/sites/default/files/final_ward_maps/50_F_Ward.pdf</value></Data>
        <Data name="created_date"><value>2025-11-02</value></Data>
        <Data name="data_year"><value>2022</value></Data>
      </ExtendedData>
      <MultiGeometry>
      <Polygon>
        <outerBoundaryIs>
          <LinearRing>
            <tessellate>1</tessellate>
            <coordinates>
              73.84922,18.49643 73.84956,18.49627 73.85031,18.49584 73.85111,18.49553 73.85147,18.49538 73.85155,18.4953 73.85137,18.49504 73.85133,18.49489 73.85128,18.49403 73.85096,18.4932 73.85092,18.49301 73.8509,18.4927 73.85087,18.49243 73.85058,18.49194 73.85044,18.49159 73.85041,18.49113 73.8504,18.48987 73.85044,18.48963 73.85048,18.48958 73.84984,18.48943 73.84988,18.48859 73.8501,18.48636 73.8501,18.48604 73.84993,18.48547 73.84977,18.48486 73.84975,18.48408 73.8498,18.48367 73.84989,18.48329 73.85027,18.48067 73.85056,18.47895 73.8509,18.4771 73.85102,18.47675 73.85125,18.47639 73.85161,18.47598 73.85255,18.4751 73.85317,18.47463 73.85341,18.47447 73.85401,18.47445 73.85504,18.47451 73.85632,18.47453 73.85639,18.4745 73.85643,18.47349 73.85655,18.473 73.85688,18.47172 73.8572,18.47055 73.85753,18.46951 73.8576,18.46914 73.85772,18.4685 73.85774,18.46837 73.85731,18.46831 73.85683,18.46827 73.85593,18.46822 73.85502,18.46809 73.85339,18.46795 73.85323,18.46806 73.85287,18.46847 73.85263,18.46835 73.85251,18.46834 73.85232,18.46833 73.85211,18.46826 73.8519,18.46811 73.85171,18.46783 73.85072,18.46783 73.85038,18.468 73.85016,18.46833 73.84998,18.4684 73.84975,18.46837 73.84938,18.46834 73.84903,18.46837 73.84875,18.4684 73.84797,18.46856 73.84737,18.46858 73.84687,18.46856 73.84653,18.46863 73.8459,18.46857 73.84517,18.46849 73.84482,18.46841 73.84478,18.46862 73.8446,18.46939 73.84447,18.46968 73.84421,18.4705 73.84421,18.47067 73.84426,18.47187 73.84372,18.47217 73.84383,18.47288 73.84405,18.47469 73.84397,18.4753 73.84392,18.4759 73.84392,18.47685 73.84404,18.47803 73.84424,18.48014 73.84445,18.48059 73.84527,18.48199 73.84525,18.48204 73.84495,18.4819 73.84447,18.48172 73.84427,18.48167 73.84385,18.48169 73.84321,18.48293 73.8431,18.48334 73.84297,18.48399 73.84285,18.48424 73.8426,18.48483 73.84254,18.48511 73.84244,18.48553 73.84243,18.48592 73.84238,18.48615 73.8422,18.48643 73.84206,18.48648 73.84169,18.48662 73.84136,18.48674 73.84139,18.4873 73.84116,18.4873 73.8405,18.48768 73.84038,18.48767 73.84038,18.48862 73.84077,18.48983 73.84074,18.49035 73.84085,18.49084 73.84086,18.49127 73.84113,18.49146 73.84142,18.49191 73.8417,18.49233 73.8425,18.49292 73.84276,18.4936 73.8428,18.49368 73.8429,18.49377 73.84302,18.49381 73.84328,18.49384 73.84352,18.49413 73.84367,18.49426 73.84383,18.49438 73.84412,18.49451 73.84444,18.49467 73.84463,18.49486 73.84486,18.49502 73.84506,18.49525 73.84525,18.49551 73.84615,18.49554 73.8471,18.49676 73.84721,18.49696 73.84755,18.49698 73.84853,18.49642 73.84905,18.49611 73.84922,18.49643
            </coordinates>
          </LinearRing>
        </outerBoundaryIs>
      </Polygon>

      </MultiGeometry>
    </Placemark>
  </Document>
</kml>
