<?xml version="1.0" encoding="UTF-8"?>
<kml xmlns="http://www.opengis.net/kml/2.2">
  <Document>
    <name>Ward 24</name>
    <description>Part of OS-Bhugol open geographic data project</description>
    <Placemark>
      <name>Ward 24</name>
      <ExtendedData>
        <Data name="ward_number"><value>24</value></Data>
        <Data name="ward_name_en"><value>Ward 24</value></Data>
        <Data name="ward_name_mr"><value>प्रभाग २४</value></Data>
        <Data name="entity_type"><value>ward</value></Data>
        <Data name="parent_municipality"><value>Pune Municipal Corporation</value></Data>
        <Data name="parent_municipality_mr"><value>पुणे महानगरपालिका</value></Data>
        <Data name="district"><value>Pune</value></Data>
        <Data name="district_mr"><value>पुणे</value></Data>
        <Data name="state"><value>Maharashtra</value></Data>
        <Data name="state_mr"><value>महाराष्ट्र</value></Data>
        <Data name="country"><value>India</value></Data>
        <Data name="country_mr"><value>भारत</value></Data>
        <Data name="area_sq_km"><value>1.5322</value></Data>
        <Data name="perimeter_km"><value>8.6849</value></Data>
        <Data name="author"><value>Parisar</value></Data>
        <Data name="source_url"><value>https://data.opencity.in/dataset/pune-wards-info/resource/2badcc86-489c-4b7e-b7dd-a273ef01b798</value></Data>
        <Data name="created_date"><value>2025-11-02</value></Data>
        <Data name="data_year"><value>2025</value></Data>
      </ExtendedData>
      <MultiGeometry>
      <Polygon>
        <outerBoundaryIs>
          <LinearRing>
            <tessellate>1</tessellate>
            <coordinates>
              73.8701666401774,18.5224184095491 73.8700306832894,18.5219234655688 73.8690432221596,18.5221086089977 73.868968385156,18.5219964166555 73.8689841061665,18.5200720543382 73.8720068154447,18.5201070096394 73.8724568343371,18.5204347565052 73.8765151326544,18.5191646311497 73.8762159253574,18.518408972954 73.8754867818829,18.5183195546389 73.8744302042313,18.5183092455939 73.8743487027022,18.5180760961496 73.8738787425279,18.5177317268581 73.8734119639093,18.5176942941741 73.8729838748603,18.5172957189283 73.8734723112125,18.5164026247352 73.873475259944,18.5159521647221 73.8732761014548,18.5154608981606 73.8732210979633,18.5151437510245 73.8733069716402,18.5147086359742 73.8736699268505,18.513958351824 73.8747788595501,18.5126036188785 73.874946777618,18.5123175000336 73.8750745758992,18.5118182791661 73.8755659297097,18.5110918039865 73.874028622745,18.5109213193848 73.8719960521066,18.5106958912038 73.8711012756582,18.5144646740492 73.8711467667275,18.5161820814582 73.8704849189519,18.5169593482853 73.8700417458575,18.5173104355301 73.8696388953172,18.5174632698397 73.869256364788,18.5175560283549 73.8684526823811,18.5175543888237 73.8685306786759,18.5168039941088 73.8659337538114,18.5167852686951 73.8659194641855,18.5154260307831 73.8647769788094,18.5154350170438 73.8636144804464,18.5161802806152 73.8628361154496,18.5161805516942 73.8627413738121,18.516382943083 73.8628017108717,18.5166753737072 73.8629846557836,18.5177940506341 73.8623823379115,18.5180732074658 73.8622012235093,18.5182455567173 73.8620731011015,18.5185362578008 73.8620700679617,18.5187538310647 73.8623356235723,18.5194164388478 73.8617309695139,18.51924856083 73.8613042330294,18.5191750240969 73.8605642446285,18.5191716982806 73.8596904908083,18.5186862531277 73.8589321163382,18.5188004843652 73.8572626109147,18.5187765409222 73.8568023270255,18.5185741629525 73.856145160319,18.5185463893426 73.8560963327195,18.5201524102771 73.8552573132004,18.5211785610431 73.8551613319665,18.5214668976642 73.8557125878727,18.5217689829886 73.8609166071557,18.5220639738515 73.8611159721397,18.5221724895897 73.861386759316,18.5223198802089 73.8607880594316,18.5234053948279 73.8608295365154,18.5238712486339 73.8610772923189,18.524408782956 73.8603214773403,18.525587138827 73.8610594381723,18.5261882185288 73.8620652056418,18.5271285223451 73.8633323553606,18.5278426773485 73.8658799830875,18.5263131966759 73.8690282159246,18.5246646878496 73.8696531011558,18.524367123872 73.86994471398,18.5241528768967 73.8701589614318,18.5238196050846 73.8707369495214,18.5226567154253 73.8701666401774,18.5224184095491
            </coordinates>
          </LinearRing>
        </outerBoundaryIs>
      </Polygon>

      </MultiGeometry>
    </Placemark>
  </Document>
</kml>
