{
  "type": "FeatureCollection",
  "features": [
    {
      "type": "Feature",
      "properties": {
        "ward_number": 40,
        "ward_name_en": "Ward 40",
        "ward_name_mr": "प्रभाग ४०",
        "entity_type": "ward",
        "parent_municipality": "Pune Municipal Corporation",
        "parent_municipality_mr": "पुणे महानगरपालिका",
        "district": "Pune",
        "district_mr": "पुणे",
        "state": "Maharashtra",
        "state_mr": "महाराष्ट्र",
        "country": "India",
        "country_mr": "भारत",
        "area_sq_km": 16.3656,
        "perimeter_km": 22.625,
        "author": "Parisar",
        "added_by": "mahanvyakti",
        "source_url": "https://data.opencity.in/dataset/pune-wards-info/resource/2badcc86-489c-4b7e-b7dd-a273ef01b798",
        "created_date": "2025-11-02",
        "data_year": 2025
      },
      "geometry": {
        "type": "Polygon",
        "coordinates": [
          [
            [
              73.8916362919633,
              18.4093046278373
            ],
            [
              73.8892957772713,
              18.4118706273133
            ],
            [
              73.8881820618066,
              18.4152289083198
            ],
            [
              73.8847826593648,
              18.4191957897974
            ],
            [
              73.8832145491865,
              18.4210928745547
            ],
            [
              73.8826772254998,
              18.4219482086996
            ],
            [
              73.8820964742786,
              18.4235939569098
            ],
            [
              73.8812192107505,
              18.4251028531208
            ],
            [
              73.8805625942988,
              18.4269752873148
            ],
            [
              73.8789453401343,
              18.4284575137058
            ],
            [
              73.8786069143189,
              18.4312054113681
            ],
            [
              73.8782923006694,
              18.4326302001255
            ],
            [
              73.8784993568426,
              18.4330198394446
            ],
            [
              73.8783960222354,
              18.4346784345712
            ],
            [
              73.8776558603393,
              18.4377764781979
            ],
            [
              73.8762186164634,
              18.4393584520287
            ],
            [
              73.8758657402234,
              18.4399658497969
            ],
            [
              73.8751381465016,
              18.4394777185192
            ],
            [
              73.8745762002993,
              18.4388271993652
            ],
            [
              73.8740687247515,
              18.4379005338647
            ],
            [
              73.8737971636527,
              18.4377481215233
            ],
            [
              73.8724736047641,
              18.4378327537074
            ],
            [
              73.8722867302681,
              18.4381121733015
            ],
            [
              73.8716880953071,
              18.4385147314771
            ],
            [
              73.8711200121506,
              18.4388066716917
            ],
            [
              73.8705457946243,
              18.4390294564408
            ],
            [
              73.8702686016013,
              18.4391346234176
            ],
            [
              73.8699380438168,
              18.4393462900106
            ],
            [
              73.8696274812569,
              18.4395203744231
            ],
            [
              73.8696171180408,
              18.4400983820123
            ],
            [
              73.8694568595206,
              18.4404430120401
            ],
            [
              73.8691520976085,
              18.4407365144522
            ],
            [
              73.8684833197293,
              18.4413231633995
            ],
            [
              73.8678094769308,
              18.441677295111
            ],
            [
              73.8675644121805,
              18.4419020338127
            ],
            [
              73.8673028566423,
              18.4420439318642
            ],
            [
              73.866242189212,
              18.4420947152142
            ],
            [
              73.8658629027839,
              18.4425784267319
            ],
            [
              73.865375181755,
              18.442620573757
            ],
            [
              73.8649007815151,
              18.4429718819794
            ],
            [
              73.8640369783931,
              18.4438022740196
            ],
            [
              73.8641348310424,
              18.44402808924
            ],
            [
              73.8641423576902,
              18.4446302602207
            ],
            [
              73.8640896677862,
              18.4450818900273
            ],
            [
              73.8639767614969,
              18.4454281390688
            ],
            [
              73.8637584746376,
              18.4459700928753
            ],
            [
              73.8636229847571,
              18.4463991405709
            ],
            [
              73.8637133109523,
              18.4467453893673
            ],
            [
              73.8639207772551,
              18.4480885154026
            ],
            [
              73.8633009834461,
              18.4487240013701
            ],
            [
              73.8630972624439,
              18.4491863891963
            ],
            [
              73.8632169578131,
              18.4497565351331
            ],
            [
              73.864040900368,
              18.4511752240626
            ],
            [
              73.8648483467641,
              18.4519752946467
            ],
            [
              73.8653124237493,
              18.4518013527868
            ],
            [
              73.8658070390277,
              18.4516766802028
            ],
            [
              73.8671750190364,
              18.4517143095147
            ],
            [
              73.8674270500829,
              18.4518100648305
            ],
            [
              73.867450378255,
              18.4522688891321
            ],
            [
              73.8678054869877,
              18.4523338421814
            ],
            [
              73.8678217785202,
              18.4528617414624
            ],
            [
              73.8681335163018,
              18.4535170708023
            ],
            [
              73.8683966198754,
              18.4535563406013
            ],
            [
              73.8684205259543,
              18.4539272014293
            ],
            [
              73.8689598207361,
              18.45401838546
            ],
            [
              73.8689811771135,
              18.4557841351499
            ],
            [
              73.8683806878451,
              18.4559879026768
            ],
            [
              73.8684543239534,
              18.4574358688033
            ],
            [
              73.8684893622463,
              18.4583687631641
            ],
            [
              73.8694351627967,
              18.4584725826522
            ],
            [
              73.8705758137112,
              18.4585890440304
            ],
            [
              73.8719421150278,
              18.4586384869548
            ],
            [
              73.8721219794439,
              18.4585569398783
            ],
            [
              73.8725299800817,
              18.4585770695917
            ],
            [
              73.8727202846275,
              18.4587906463664
            ],
            [
              73.8734929259544,
              18.4588424486523
            ],
            [
              73.8746711084672,
              18.4592920398402
            ],
            [
              73.8746801596533,
              18.4607497037317
            ],
            [
              73.8776821074153,
              18.4607830783311
            ],
            [
              73.8776834752337,
              18.4620185746291
            ],
            [
              73.877511806111,
              18.4646436182882
            ],
            [
              73.8775006458385,
              18.4648278334573
            ],
            [
              73.8768868045329,
              18.4658627040814
            ],
            [
              73.8764884784911,
              18.4668892221316
            ],
            [
              73.8816553078691,
              18.4670755379256
            ],
            [
              73.8815576940168,
              18.4661952198982
            ],
            [
              73.8815899453736,
              18.4661241205849
            ],
            [
              73.8824752580323,
              18.4660808049174
            ],
            [
              73.8827390800414,
              18.4661842892359
            ],
            [
              73.8833316229333,
              18.4657946271451
            ],
            [
              73.8842232132854,
              18.4655668977537
            ],
            [
              73.8842710116171,
              18.4644860398811
            ],
            [
              73.8844614217974,
              18.4644887429255
            ],
            [
              73.8844791996695,
              18.4629968235884
            ],
            [
              73.8845910468041,
              18.4629064736819
            ],
            [
              73.884560866376,
              18.4614274168281
            ],
            [
              73.8852217387758,
              18.4612341205469
            ],
            [
              73.8858727535531,
              18.4613365394024
            ],
            [
              73.8858761041457,
              18.4616547838236
            ],
            [
              73.8860203214537,
              18.4618682869117
            ],
            [
              73.8866522169091,
              18.4624711346093
            ],
            [
              73.8867922315592,
              18.4629421648756
            ],
            [
              73.8872109319469,
              18.4633314077433
            ],
            [
              73.8872313360129,
              18.4647005866005
            ],
            [
              73.8880285404662,
              18.4648025971244
            ],
            [
              73.8895747199992,
              18.4646161783859
            ],
            [
              73.8906110557944,
              18.4646874203427
            ],
            [
              73.8923721119641,
              18.4646946133034
            ],
            [
              73.893065826667,
              18.4647219220793
            ],
            [
              73.8940794084585,
              18.4647618179854
            ],
            [
              73.8947222497384,
              18.4646576585536
            ],
            [
              73.8985757165445,
              18.4649713156127
            ],
            [
              73.899766738361,
              18.4649695419637
            ],
            [
              73.9022539105248,
              18.4659107944298
            ],
            [
              73.9027961802691,
              18.4651046981861
            ],
            [
              73.9029160369784,
              18.4647671799248
            ],
            [
              73.9029715819281,
              18.4641242227344
            ],
            [
              73.9030975421651,
              18.4637370196457
            ],
            [
              73.9033922776575,
              18.4635128411352
            ],
            [
              73.9039435760167,
              18.463403087689
            ],
            [
              73.9043039566805,
              18.4633757072812
            ],
            [
              73.9059727670335,
              18.4624683044187
            ],
            [
              73.9073501512579,
              18.4608035993279
            ],
            [
              73.9075184029292,
              18.4603890151018
            ],
            [
              73.9076485946364,
              18.4601442385585
            ],
            [
              73.9079801761979,
              18.4597876798986
            ],
            [
              73.9084146339693,
              18.4594366226546
            ],
            [
              73.9083264022384,
              18.4577247938768
            ],
            [
              73.9058870948139,
              18.4582248051508
            ],
            [
              73.9044939726597,
              18.458569705398
            ],
            [
              73.9044115303492,
              18.458891482287
            ],
            [
              73.9034470503599,
              18.4595510342114
            ],
            [
              73.9026793819081,
              18.4597623868984
            ],
            [
              73.9021124787313,
              18.460010865835
            ],
            [
              73.9017839529194,
              18.4603086772257
            ],
            [
              73.9012061632287,
              18.460293341096
            ],
            [
              73.9004908758899,
              18.4601693083668
            ],
            [
              73.8997512287441,
              18.4599252458531
            ],
            [
              73.8991109348499,
              18.4598615856416
            ],
            [
              73.8992795940154,
              18.4590233646196
            ],
            [
              73.8992079655357,
              18.4584355082592
            ],
            [
              73.8990180539074,
              18.4566960614659
            ],
            [
              73.8983766047819,
              18.4548460943475
            ],
            [
              73.8985801945728,
              18.4544396645109
            ],
            [
              73.8982386335467,
              18.4528431992903
            ],
            [
              73.8979613387859,
              18.4510193226914
            ],
            [
              73.8979904705105,
              18.4489064096637
            ],
            [
              73.8980538667581,
              18.4443901703953
            ],
            [
              73.8988249851437,
              18.4436273768541
            ],
            [
              73.8992080766132,
              18.4427256597904
            ],
            [
              73.8993789495919,
              18.4424043967902
            ],
            [
              73.8997278022661,
              18.4419076943924
            ],
            [
              73.9003603591665,
              18.441202594862
            ],
            [
              73.9014579690651,
              18.4384755495561
            ],
            [
              73.9014781434457,
              18.4367933851242
            ],
            [
              73.9012757521576,
              18.4362569648933
            ],
            [
              73.901979614881,
              18.4354526411159
            ],
            [
              73.90196173558,
              18.4344704306919
            ],
            [
              73.9015903019338,
              18.4334631558985
            ],
            [
              73.9013702412205,
              18.4326715924803
            ],
            [
              73.9013428147055,
              18.4319271795248
            ],
            [
              73.9014407891763,
              18.4312942682859
            ],
            [
              73.9019268268026,
              18.4279402646861
            ],
            [
              73.9021570332194,
              18.4264996037835
            ],
            [
              73.9021516732863,
              18.4260775729716
            ],
            [
              73.9021308696217,
              18.4255557080443
            ],
            [
              73.9018651607856,
              18.4238038311566
            ],
            [
              73.9020197285176,
              18.4172589299577
            ],
            [
              73.9038145083825,
              18.4131626167233
            ],
            [
              73.9043500249802,
              18.4130822260765
            ],
            [
              73.9038445965289,
              18.4113557074663
            ],
            [
              73.9036446279129,
              18.4112010987893
            ],
            [
              73.9032787861846,
              18.4105851685044
            ],
            [
              73.9028610992149,
              18.4093512829494
            ],
            [
              73.9000052900411,
              18.409803448424
            ],
            [
              73.8985798542408,
              18.4097421152669
            ],
            [
              73.8972507552403,
              18.4097762786026
            ],
            [
              73.8948191922625,
              18.4100314734985
            ],
            [
              73.8929091053429,
              18.4097316577136
            ],
            [
              73.8916362919633,
              18.4093046278373
            ]
          ]
        ]
      }
    }
  ]
}