<?xml version="1.0" encoding="UTF-8"?>
<kml xmlns="http://www.opengis.net/kml/2.2">
  <Document>
    <name>Ward 08</name>
    <description>Part of OS-Bhugol open geographic data project</description>
    <Placemark>
      <name>Ward 08</name>
      <ExtendedData>
        <Data name="ward_number"><value>8</value></Data>
        <Data name="ward_name_en"><value>Ward 08</value></Data>
        <Data name="ward_name_mr"><value>प्रभाग ०८</value></Data>
        <Data name="entity_type"><value>ward</value></Data>
        <Data name="parent_municipality"><value>Pune Municipal Corporation</value></Data>
        <Data name="parent_municipality_mr"><value>पुणे महानगरपालिका</value></Data>
        <Data name="district"><value>Pune</value></Data>
        <Data name="district_mr"><value>पुणे</value></Data>
        <Data name="state"><value>Maharashtra</value></Data>
        <Data name="state_mr"><value>महाराष्ट्र</value></Data>
        <Data name="country"><value>India</value></Data>
        <Data name="country_mr"><value>भारत</value></Data>
        <Data name="area_sq_km"><value>11.1006</value></Data>
        <Data name="perimeter_km"><value>19.0866</value></Data>
        <Data name="author"><value>Parisar</value></Data>
        <Data name="source_url"><value>https://data.opencity.in/dataset/pune-wards-info/resource/2badcc86-489c-4b7e-b7dd-a273ef01b798</value></Data>
        <Data name="created_date"><value>2025-11-02</value></Data>
        <Data name="data_year"><value>2025</value></Data>
      </ExtendedData>
      <MultiGeometry>
      <Polygon>
        <outerBoundaryIs>
          <LinearRing>
            <tessellate>1</tessellate>
            <coordinates>
              73.8342563881969,18.5463541843351 73.831693359645,18.5451299268446 73.8313063716352,18.5448084286014 73.8299492429566,18.5435757112297 73.829787882737,18.5432906373976 73.8287979061515,18.5421334678392 73.8265132288277,18.5425490609133 73.825769979068,18.5427802506139 73.8254877628075,18.5430771870879 73.8249441588756,18.5437422691884 73.8242392935571,18.5442282441321 73.8224136882782,18.5454232832767 73.8223859984003,18.5458799085043 73.8211464039357,18.5475705229779 73.8208842812045,18.548259938404 73.8190130823198,18.5506470128373 73.8185641374689,18.5507866303512 73.8184514816949,18.5511682294517 73.8182149357352,18.5512791909766 73.8177030292969,18.5518592804132 73.8164417420429,18.5534545567447 73.8164503003122,18.549428359021 73.8163830812081,18.5473767457011 73.8166998050835,18.5438480724424 73.8172744867335,18.5400539648779 73.8154411437939,18.5399118782308 73.8115536138083,18.5395822623117 73.8060955599347,18.5382831870581 73.80469938857,18.5395495225907 73.804646382414,18.5441230669664 73.8043418073779,18.5458189936091 73.8048591764582,18.5511999706691 73.8044170206586,18.5552023452497 73.8046967659879,18.5553940089478 73.8044032534717,18.5571793633145 73.803882199747,18.5580026479074 73.8035504684602,18.5585478788119 73.8031306040338,18.5599749869541 73.8027963732494,18.560877642775 73.8005989864072,18.5604387791366 73.799933401145,18.5602200829751 73.7990411575807,18.560257299523 73.7988990541534,18.5602981447229 73.7987557525543,18.5602103021948 73.7983613415692,18.5603587750326 73.7980841717598,18.5602060260034 73.7979126658282,18.560035648949 73.7977452832949,18.5599613787556 73.7975773881481,18.5599603090451 73.7974614908787,18.5600693768251 73.7974222180061,18.5601972335855 73.7972974834844,18.5604446002594 73.7971369158761,18.5605753445359 73.7969396510151,18.5606853571898 73.7959637216915,18.5610656504473 73.7959224340648,18.5612615732014 73.7958626232059,18.5614720195896 73.7957632293173,18.5616353626636 73.7955318821265,18.561789078153 73.795318587961,18.5619132616247 73.7951737455117,18.5620450189529 73.7949940381873,18.5623595635065 73.7946834278468,18.5628700081168 73.7946291827826,18.5630801226467 73.7946569044605,18.5632312834319 73.7948290855983,18.563305587086 73.7953077336288,18.5634596274649 73.7956089872196,18.5635988079488 73.7958186795681,18.5637968819134 73.7959755068458,18.5640083447698 73.7961629535507,18.5645139622127 73.7961366057486,18.5650642537067 73.7959754883051,18.5655922387853 73.7959739333933,18.5658138427922 73.7960157966348,18.5662573378084 73.7959733553,18.5668865710675 73.7962571035825,18.5671629792881 73.7981184645956,18.5683046137669 73.7994717985848,18.5690367491468 73.7998490345054,18.5691836722887 73.8008655858782,18.5694497232263 73.8019933222341,18.5694973738049 73.8029225134633,18.5694973738049 73.8038675885185,18.5693504506628 73.8048643476117,18.5691313686178 73.8083497457443,18.5681557049219 73.8102793572067,18.567919932359 73.8115437446482,18.5679488257778 73.8129414017243,18.5680057078971 73.8140790288242,18.5683713731405 73.8210637564873,18.5694318051338 73.8218174962806,18.5694290424165 73.8227412493093,18.5693221049314 73.8268915584988,18.5682256146205 73.8278184195844,18.5681494348487 73.8291007898696,18.5685684271912 73.8301292257833,18.5696095588341 73.8308910297973,18.5711204702335 73.8313354153972,18.572237783447 73.8320591295254,18.5732027353181 73.83246542434,18.5735328503608 73.8341581534761,18.5744576807775 73.8350926327188,18.5749696126575 73.8361408753012,18.5753596567228 73.8367665705209,18.5754571675145 73.8378066868292,18.5753109008774 73.8426608531159,18.5731526592678 73.844112393972,18.572745858135 73.8439552203572,18.5714699818542 73.8437703107514,18.5703142963677 73.8435110676817,18.5675927967703 73.8408602035357,18.5675513775942 73.8408010326416,18.567172682973 73.8397477871307,18.5656519860503 73.8388898069192,18.565036606954 73.8402239961407,18.5628726024887 73.8392215344464,18.5620395919536 73.8326572434372,18.5585540463322 73.8328543577425,18.5570544295184 73.8345525673473,18.5516661630631 73.8347189859925,18.5511484161666 73.8349501225502,18.5486336455264 73.8348730380603,18.5484216060725 73.8344602600331,18.5482322592114 73.8341589709598,18.5479026423931 73.8340209744885,18.5475316729484 73.8340929265475,18.5470507308067 73.8342563881969,18.5463541843351
            </coordinates>
          </LinearRing>
        </outerBoundaryIs>
      </Polygon>

      </MultiGeometry>
    </Placemark>
  </Document>
</kml>
