{
  "type": "FeatureCollection",
  "features": [
    {
      "type": "Feature",
      "properties": {
        "ward_number": 55,
        "ward_name_en": "55 Dhankawadi - Ambegaon Pathar",
        "ward_name_mr": "प्रभाग ५५ : धनकवडी - आंबेगाव पठार",
        "entity_type": "ward",
        "parent_municipality": "Pune Municipal Corporation",
        "parent_municipality_mr": "पुणे महानगरपालिका",
        "district": "Pune",
        "district_mr": "पुणे",
        "state": "Maharashtra",
        "state_mr": "महाराष्ट्र",
        "country": "India",
        "country_mr": "भारत",
        "area_sq_km": 3.5496,
        "perimeter_km": 14.4076,
        "author": "Nikhil VJ",
        "added_by": "mahanvyakti",
        "source_url": "http://www.pmc.gov.in/sites/default/files/final_ward_maps/55_F_Ward.pdf",
        "created_date": "2025-11-02",
        "data_year": 2022
      },
      "geometry": {
        "type": "Polygon",
        "coordinates": [
          [
            [
              73.85251,
              18.46834
            ],
            [
              73.85246,
              18.46823
            ],
            [
              73.85236,
              18.46791
            ],
            [
              73.85227,
              18.46761
            ],
            [
              73.85225,
              18.4669
            ],
            [
              73.85227,
              18.46669
            ],
            [
              73.85228,
              18.46653
            ],
            [
              73.85224,
              18.46641
            ],
            [
              73.85223,
              18.46633
            ],
            [
              73.85222,
              18.46611
            ],
            [
              73.85219,
              18.46602
            ],
            [
              73.85189,
              18.46571
            ],
            [
              73.85166,
              18.46555
            ],
            [
              73.85137,
              18.46543
            ],
            [
              73.85061,
              18.46535
            ],
            [
              73.85036,
              18.46533
            ],
            [
              73.84947,
              18.46576
            ],
            [
              73.84942,
              18.46574
            ],
            [
              73.84944,
              18.46524
            ],
            [
              73.8494,
              18.46517
            ],
            [
              73.84885,
              18.46497
            ],
            [
              73.84863,
              18.46486
            ],
            [
              73.84833,
              18.46474
            ],
            [
              73.84834,
              18.46392
            ],
            [
              73.84848,
              18.46348
            ],
            [
              73.84856,
              18.46325
            ],
            [
              73.8487,
              18.46255
            ],
            [
              73.84779,
              18.46289
            ],
            [
              73.84714,
              18.46319
            ],
            [
              73.84625,
              18.46358
            ],
            [
              73.84599,
              18.46369
            ],
            [
              73.84574,
              18.46369
            ],
            [
              73.84586,
              18.46319
            ],
            [
              73.84595,
              18.46276
            ],
            [
              73.84606,
              18.46224
            ],
            [
              73.8461,
              18.46166
            ],
            [
              73.84609,
              18.46121
            ],
            [
              73.84605,
              18.46113
            ],
            [
              73.84595,
              18.46108
            ],
            [
              73.84582,
              18.46101
            ],
            [
              73.84577,
              18.46089
            ],
            [
              73.84577,
              18.46062
            ],
            [
              73.84585,
              18.45961
            ],
            [
              73.84592,
              18.45915
            ],
            [
              73.8464,
              18.45932
            ],
            [
              73.84682,
              18.45946
            ],
            [
              73.84706,
              18.45952
            ],
            [
              73.84717,
              18.45952
            ],
            [
              73.84762,
              18.45974
            ],
            [
              73.84849,
              18.46011
            ],
            [
              73.84895,
              18.46027
            ],
            [
              73.85026,
              18.46027
            ],
            [
              73.85056,
              18.4604
            ],
            [
              73.85071,
              18.46016
            ],
            [
              73.85094,
              18.45993
            ],
            [
              73.85108,
              18.45984
            ],
            [
              73.85107,
              18.45958
            ],
            [
              73.851,
              18.45939
            ],
            [
              73.8505,
              18.45874
            ],
            [
              73.85044,
              18.45858
            ],
            [
              73.85043,
              18.45812
            ],
            [
              73.85021,
              18.45747
            ],
            [
              73.8502,
              18.45705
            ],
            [
              73.85016,
              18.45698
            ],
            [
              73.84961,
              18.45663
            ],
            [
              73.84959,
              18.45654
            ],
            [
              73.84961,
              18.45638
            ],
            [
              73.84958,
              18.45628
            ],
            [
              73.84925,
              18.45602
            ],
            [
              73.84912,
              18.45594
            ],
            [
              73.84933,
              18.45407
            ],
            [
              73.84941,
              18.45367
            ],
            [
              73.84852,
              18.45369
            ],
            [
              73.84827,
              18.45372
            ],
            [
              73.84822,
              18.45378
            ],
            [
              73.84819,
              18.4538
            ],
            [
              73.8481,
              18.45373
            ],
            [
              73.84808,
              18.45361
            ],
            [
              73.84808,
              18.45312
            ],
            [
              73.84749,
              18.45311
            ],
            [
              73.84737,
              18.45238
            ],
            [
              73.84725,
              18.4515
            ],
            [
              73.84632,
              18.45177
            ],
            [
              73.84237,
              18.45294
            ],
            [
              73.83964,
              18.4537
            ],
            [
              73.83666,
              18.45466
            ],
            [
              73.83089,
              18.45654
            ],
            [
              73.82893,
              18.45726
            ],
            [
              73.82738,
              18.45791
            ],
            [
              73.82596,
              18.45851
            ],
            [
              73.82586,
              18.45825
            ],
            [
              73.82678,
              18.45775
            ],
            [
              73.82737,
              18.45735
            ],
            [
              73.82809,
              18.45671
            ],
            [
              73.82839,
              18.4565
            ],
            [
              73.82867,
              18.45653
            ],
            [
              73.82871,
              18.45621
            ],
            [
              73.82867,
              18.45593
            ],
            [
              73.82833,
              18.45525
            ],
            [
              73.82806,
              18.45432
            ],
            [
              73.82852,
              18.45366
            ],
            [
              73.82878,
              18.45342
            ],
            [
              73.82897,
              18.45317
            ],
            [
              73.82891,
              18.4531
            ],
            [
              73.82857,
              18.45307
            ],
            [
              73.82792,
              18.45314
            ],
            [
              73.82735,
              18.45324
            ],
            [
              73.82666,
              18.45349
            ],
            [
              73.82575,
              18.45381
            ],
            [
              73.82518,
              18.45377
            ],
            [
              73.82467,
              18.45353
            ],
            [
              73.82376,
              18.45318
            ],
            [
              73.82267,
              18.45356
            ],
            [
              73.82161,
              18.45356
            ],
            [
              73.82055,
              18.45362
            ],
            [
              73.82033,
              18.45377
            ],
            [
              73.8197,
              18.45373
            ],
            [
              73.81974,
              18.4535
            ],
            [
              73.81883,
              18.45334
            ],
            [
              73.8185,
              18.4533
            ],
            [
              73.81817,
              18.45419
            ],
            [
              73.81782,
              18.45522
            ],
            [
              73.81747,
              18.45593
            ],
            [
              73.81729,
              18.45644
            ],
            [
              73.81701,
              18.45652
            ],
            [
              73.8167,
              18.45699
            ],
            [
              73.8164,
              18.45728
            ],
            [
              73.8155,
              18.45758
            ],
            [
              73.81529,
              18.45786
            ],
            [
              73.81461,
              18.45805
            ],
            [
              73.81387,
              18.45826
            ],
            [
              73.81378,
              18.45858
            ],
            [
              73.81375,
              18.45872
            ],
            [
              73.81364,
              18.4588
            ],
            [
              73.8136,
              18.45901
            ],
            [
              73.81351,
              18.45915
            ],
            [
              73.81349,
              18.4593
            ],
            [
              73.81364,
              18.45928
            ],
            [
              73.81387,
              18.45913
            ],
            [
              73.81421,
              18.45911
            ],
            [
              73.81512,
              18.45917
            ],
            [
              73.81548,
              18.45911
            ],
            [
              73.81577,
              18.4591
            ],
            [
              73.81612,
              18.45909
            ],
            [
              73.81653,
              18.45917
            ],
            [
              73.81684,
              18.45927
            ],
            [
              73.81717,
              18.45927
            ],
            [
              73.81941,
              18.45973
            ],
            [
              73.82005,
              18.45986
            ],
            [
              73.82251,
              18.46022
            ],
            [
              73.82314,
              18.46035
            ],
            [
              73.82423,
              18.46068
            ],
            [
              73.8252,
              18.46101
            ],
            [
              73.82575,
              18.46113
            ],
            [
              73.8268,
              18.46149
            ],
            [
              73.82734,
              18.46171
            ],
            [
              73.82781,
              18.46179
            ],
            [
              73.82799,
              18.46173
            ],
            [
              73.82809,
              18.46167
            ],
            [
              73.8288,
              18.46176
            ],
            [
              73.83029,
              18.46181
            ],
            [
              73.83136,
              18.46161
            ],
            [
              73.83136,
              18.46238
            ],
            [
              73.83142,
              18.46271
            ],
            [
              73.83152,
              18.46428
            ],
            [
              73.83202,
              18.46483
            ],
            [
              73.83295,
              18.46498
            ],
            [
              73.83405,
              18.46496
            ],
            [
              73.83471,
              18.46498
            ],
            [
              73.83488,
              18.46502
            ],
            [
              73.83513,
              18.46548
            ],
            [
              73.83659,
              18.46545
            ],
            [
              73.83699,
              18.46512
            ],
            [
              73.83706,
              18.46498
            ],
            [
              73.83731,
              18.46483
            ],
            [
              73.83745,
              18.46475
            ],
            [
              73.83892,
              18.4647
            ],
            [
              73.83992,
              18.46293
            ],
            [
              73.8423,
              18.46308
            ],
            [
              73.84214,
              18.46389
            ],
            [
              73.84207,
              18.46399
            ],
            [
              73.84196,
              18.46479
            ],
            [
              73.84458,
              18.46504
            ],
            [
              73.84554,
              18.46522
            ],
            [
              73.84509,
              18.46728
            ],
            [
              73.84482,
              18.46841
            ],
            [
              73.84517,
              18.46849
            ],
            [
              73.8459,
              18.46857
            ],
            [
              73.84653,
              18.46863
            ],
            [
              73.84687,
              18.46856
            ],
            [
              73.84737,
              18.46858
            ],
            [
              73.84797,
              18.46856
            ],
            [
              73.84875,
              18.4684
            ],
            [
              73.84903,
              18.46837
            ],
            [
              73.84938,
              18.46834
            ],
            [
              73.84975,
              18.46837
            ],
            [
              73.84998,
              18.4684
            ],
            [
              73.85016,
              18.46833
            ],
            [
              73.85038,
              18.468
            ],
            [
              73.85072,
              18.46783
            ],
            [
              73.85171,
              18.46783
            ],
            [
              73.8519,
              18.46811
            ],
            [
              73.85211,
              18.46826
            ],
            [
              73.85232,
              18.46833
            ],
            [
              73.85251,
              18.46834
            ]
          ]
        ]
      }
    }
  ]
}
