{
  "type": "FeatureCollection",
  "features": [
    {
      "type": "Feature",
      "properties": {
        "ward_number": 41,
        "ward_name_en": "41 Kondhva Kh - Mithanagar",
        "ward_name_mr": "प्रभाग ४१ : कोंढवा खु. - मिठानगर",
        "entity_type": "ward",
        "parent_municipality": "Pune Municipal Corporation",
        "parent_municipality_mr": "पुणे महानगरपालिका",
        "district": "Pune",
        "district_mr": "पुणे",
        "state": "Maharashtra",
        "state_mr": "महाराष्ट्र",
        "country": "India",
        "country_mr": "भारत",
        "area_sq_km": 1.9602,
        "perimeter_km": 7.168,
        "author": "Nikhil VJ",
        "added_by": "mahanvyakti",
        "source_url": "http://www.pmc.gov.in/sites/default/files/final_ward_maps/41_F_Ward.pdf",
        "created_date": "2025-11-02",
        "data_year": 2022
      },
      "geometry": {
        "type": "Polygon",
        "coordinates": [
          [
            [
              73.89103,
              18.48276
            ],
            [
              73.89115,
              18.48245
            ],
            [
              73.89121,
              18.48196
            ],
            [
              73.89115,
              18.48141
            ],
            [
              73.89105,
              18.48039
            ],
            [
              73.89084,
              18.47959
            ],
            [
              73.89038,
              18.47789
            ],
            [
              73.89031,
              18.47788
            ],
            [
              73.89023,
              18.47779
            ],
            [
              73.88975,
              18.4768
            ],
            [
              73.88972,
              18.4767
            ],
            [
              73.88953,
              18.47573
            ],
            [
              73.8894,
              18.47488
            ],
            [
              73.88933,
              18.47455
            ],
            [
              73.88914,
              18.47363
            ],
            [
              73.88913,
              18.4735
            ],
            [
              73.88912,
              18.47339
            ],
            [
              73.88901,
              18.47215
            ],
            [
              73.88893,
              18.47113
            ],
            [
              73.8889,
              18.47009
            ],
            [
              73.88896,
              18.46893
            ],
            [
              73.88897,
              18.46831
            ],
            [
              73.88904,
              18.46771
            ],
            [
              73.88928,
              18.46672
            ],
            [
              73.88941,
              18.46598
            ],
            [
              73.88949,
              18.4655
            ],
            [
              73.88965,
              18.46468
            ],
            [
              73.88958,
              18.46468
            ],
            [
              73.88952,
              18.46469
            ],
            [
              73.88927,
              18.46471
            ],
            [
              73.88895,
              18.46477
            ],
            [
              73.88868,
              18.4648
            ],
            [
              73.88834,
              18.46481
            ],
            [
              73.88797,
              18.46481
            ],
            [
              73.88762,
              18.46476
            ],
            [
              73.88669,
              18.46465
            ],
            [
              73.88584,
              18.46452
            ],
            [
              73.88555,
              18.46447
            ],
            [
              73.88525,
              18.46452
            ],
            [
              73.88482,
              18.4645
            ],
            [
              73.88415,
              18.46453
            ],
            [
              73.88376,
              18.46474
            ],
            [
              73.88369,
              18.46474
            ],
            [
              73.88335,
              18.46468
            ],
            [
              73.88299,
              18.46464
            ],
            [
              73.88266,
              18.46462
            ],
            [
              73.88216,
              18.46457
            ],
            [
              73.88129,
              18.46449
            ],
            [
              73.88049,
              18.4644
            ],
            [
              73.8798,
              18.46432
            ],
            [
              73.87982,
              18.46457
            ],
            [
              73.87896,
              18.46461
            ],
            [
              73.87895,
              18.46466
            ],
            [
              73.8789,
              18.46469
            ],
            [
              73.87831,
              18.46471
            ],
            [
              73.87752,
              18.46469
            ],
            [
              73.8775,
              18.46474
            ],
            [
              73.87746,
              18.46488
            ],
            [
              73.87737,
              18.46509
            ],
            [
              73.87717,
              18.46546
            ],
            [
              73.87697,
              18.46578
            ],
            [
              73.87688,
              18.46598
            ],
            [
              73.87683,
              18.46618
            ],
            [
              73.87661,
              18.46697
            ],
            [
              73.87653,
              18.46733
            ],
            [
              73.87631,
              18.46804
            ],
            [
              73.87613,
              18.46867
            ],
            [
              73.87602,
              18.46899
            ],
            [
              73.87548,
              18.47052
            ],
            [
              73.87528,
              18.47109
            ],
            [
              73.87519,
              18.47122
            ],
            [
              73.87513,
              18.47131
            ],
            [
              73.87513,
              18.47153
            ],
            [
              73.87511,
              18.47183
            ],
            [
              73.87505,
              18.47209
            ],
            [
              73.875,
              18.47223
            ],
            [
              73.87543,
              18.47217
            ],
            [
              73.87601,
              18.47206
            ],
            [
              73.87622,
              18.472
            ],
            [
              73.87716,
              18.47199
            ],
            [
              73.87802,
              18.47188
            ],
            [
              73.87818,
              18.47191
            ],
            [
              73.87855,
              18.47202
            ],
            [
              73.87961,
              18.47202
            ],
            [
              73.87963,
              18.47255
            ],
            [
              73.87959,
              18.47299
            ],
            [
              73.8797,
              18.47335
            ],
            [
              73.87989,
              18.47376
            ],
            [
              73.87989,
              18.47415
            ],
            [
              73.87966,
              18.47474
            ],
            [
              73.87965,
              18.47546
            ],
            [
              73.87956,
              18.47555
            ],
            [
              73.87969,
              18.47569
            ],
            [
              73.87999,
              18.4761
            ],
            [
              73.88039,
              18.4767
            ],
            [
              73.88049,
              18.47694
            ],
            [
              73.88076,
              18.47727
            ],
            [
              73.88092,
              18.47752
            ],
            [
              73.88118,
              18.47801
            ],
            [
              73.88305,
              18.47768
            ],
            [
              73.88365,
              18.4776
            ],
            [
              73.8837,
              18.47824
            ],
            [
              73.88467,
              18.47818
            ],
            [
              73.88465,
              18.47883
            ],
            [
              73.88616,
              18.47886
            ],
            [
              73.88694,
              18.47889
            ],
            [
              73.8871,
              18.47886
            ],
            [
              73.88715,
              18.47882
            ],
            [
              73.88738,
              18.47921
            ],
            [
              73.88742,
              18.47946
            ],
            [
              73.88764,
              18.47963
            ],
            [
              73.88814,
              18.4799
            ],
            [
              73.88843,
              18.47997
            ],
            [
              73.88886,
              18.48002
            ],
            [
              73.88886,
              18.48069
            ],
            [
              73.88783,
              18.4808
            ],
            [
              73.88786,
              18.481
            ],
            [
              73.88795,
              18.48122
            ],
            [
              73.88823,
              18.48147
            ],
            [
              73.88854,
              18.4816
            ],
            [
              73.88897,
              18.48168
            ],
            [
              73.8891,
              18.48176
            ],
            [
              73.8894,
              18.48216
            ],
            [
              73.88961,
              18.48241
            ],
            [
              73.88999,
              18.48271
            ],
            [
              73.8905,
              18.48309
            ],
            [
              73.8906,
              18.48306
            ],
            [
              73.89099,
              18.48288
            ],
            [
              73.89103,
              18.48276
            ]
          ]
        ]
      }
    }
  ]
}
