<?xml version="1.0" encoding="UTF-8"?>
<kml xmlns="http://www.opengis.net/kml/2.2">
  <Document>
    <name>43 Wanawadi - Kausar Baug</name>
    <description>Part of OS-Bhugol open geographic data project</description>
    <Placemark>
      <name>43 Wanawadi - Kausar Baug</name>
      <ExtendedData>
        <Data name="ward_number"><value>43</value></Data>
        <Data name="ward_name_en"><value>43 Wanawadi - Kausar Baug</value></Data>
        <Data name="ward_name_mr"><value>प्रभाग ४३ : वानवडी - कौसर बाग</value></Data>
        <Data name="entity_type"><value>ward</value></Data>
        <Data name="parent_municipality"><value>Pune Municipal Corporation</value></Data>
        <Data name="parent_municipality_mr"><value>पुणे महानगरपालिका</value></Data>
        <Data name="district"><value>Pune</value></Data>
        <Data name="district_mr"><value>पुणे</value></Data>
        <Data name="state"><value>Maharashtra</value></Data>
        <Data name="state_mr"><value>महाराष्ट्र</value></Data>
        <Data name="country"><value>India</value></Data>
        <Data name="country_mr"><value>भारत</value></Data>
        <Data name="area_sq_km"><value>4.1683</value></Data>
        <Data name="perimeter_km"><value>9.5088</value></Data>
        <Data name="author"><value>Nikhil VJ</value></Data>
        <Data name="source_url"><value>http://www.pmc.gov.in/sites/default/files/final_ward_maps/43_F_Ward.pdf</value></Data>
        <Data name="created_date"><value>2025-11-02</value></Data>
        <Data name="data_year"><value>2022</value></Data>
      </ExtendedData>
      <MultiGeometry>
      <Polygon>
        <outerBoundaryIs>
          <LinearRing>
            <tessellate>1</tessellate>
            <coordinates>
              73.91145,18.49358 73.91144,18.49307 73.9116,18.49162 73.91174,18.48528 73.9116,18.48492 73.9118,18.48394 73.91114,18.48369 73.91048,18.48332 73.91024,18.48319 73.91005,18.48288 73.90921,18.48089 73.90851,18.47882 73.90831,18.47831 73.90785,18.47715 73.90757,18.47674 73.90739,18.4763 73.90702,18.47499 73.90636,18.47491 73.90502,18.47472 73.90118,18.47423 73.90067,18.47414 73.90066,18.47442 73.89853,18.47419 73.89841,18.47452 73.89791,18.47456 73.89604,18.47473 73.89607,18.47293 73.89511,18.47293 73.89388,18.4729 73.89276,18.47284 73.89279,18.47308 73.89205,18.47304 73.89168,18.47301 73.89164,18.47309 73.8916,18.47318 73.8916,18.47343 73.89092,18.47342 73.88945,18.47341 73.88912,18.47339 73.88913,18.4735 73.88914,18.47363 73.88933,18.47455 73.8894,18.47488 73.88953,18.47573 73.88972,18.4767 73.88975,18.4768 73.89023,18.47779 73.89031,18.47788 73.89038,18.47789 73.89084,18.47959 73.89105,18.48039 73.89115,18.48141 73.89121,18.48196 73.89115,18.48245 73.89103,18.48276 73.89114,18.48277 73.89231,18.4826 73.89291,18.48247 73.89291,18.48253 73.89285,18.48334 73.89286,18.48387 73.89286,18.48431 73.8928,18.48589 73.89283,18.48734 73.89283,18.4877 73.89293,18.4879 73.89308,18.48808 73.89321,18.48812 73.89353,18.48817 73.89417,18.48817 73.89491,18.48816 73.89505,18.48842 73.89514,18.48865 73.89517,18.48894 73.8952,18.48906 73.89545,18.48931 73.89565,18.48946 73.89575,18.48962 73.89586,18.48989 73.89588,18.4901 73.8959,18.49069 73.89595,18.49081 73.89617,18.49097 73.89634,18.49114 73.89649,18.49134 73.89661,18.49162 73.89665,18.49191 73.89666,18.49213 73.89679,18.49231 73.89687,18.49242 73.89702,18.49253 73.8973,18.49269 73.89745,18.49284 73.89745,18.49305 73.89734,18.49331 73.89722,18.49364 73.89717,18.4938 73.89708,18.49396 73.897,18.49404 73.89685,18.49407 73.89669,18.49404 73.89664,18.49401 73.89648,18.49404 73.8964,18.49408 73.89634,18.49415 73.89632,18.49429 73.89636,18.49483 73.8964,18.49511 73.89635,18.49538 73.89626,18.49575 73.89621,18.49593 73.89618,18.4962 73.89619,18.49631 73.89628,18.49638 73.89671,18.49671 73.89672,18.4968 73.89693,18.49661 73.89711,18.49645 73.89722,18.49629 73.89729,18.49614 73.89739,18.49603 73.8975,18.49595 73.89831,18.49561 73.89874,18.49543 73.899,18.49531 73.89941,18.4952 73.89971,18.49514 73.90019,18.49507 73.90043,18.49505 73.90102,18.4949 73.90178,18.49474 73.90198,18.49509 73.90318,18.49442 73.90389,18.49404 73.90382,18.49384 73.90443,18.49386 73.90561,18.49385 73.90668,18.49382 73.90668,18.49406 73.90709,18.49404 73.90708,18.49379 73.908,18.49374 73.90822,18.49394 73.90868,18.49391 73.90995,18.49375 73.91079,18.49365 73.91145,18.49358
            </coordinates>
          </LinearRing>
        </outerBoundaryIs>
      </Polygon>

      </MultiGeometry>
    </Placemark>
  </Document>
</kml>
