<?xml version="1.0" encoding="UTF-8"?>
<kml xmlns="http://www.opengis.net/kml/2.2">
  <Document>
    <name>22 Manjari Bk. - Shewalwadi</name>
    <description>Part of OS-Bhugol open geographic data project</description>
    <Placemark>
      <name>22 Manjari Bk. - Shewalwadi</name>
      <ExtendedData>
        <Data name="ward_number"><value>22</value></Data>
        <Data name="ward_name_en"><value>22 Manjari Bk. - Shewalwadi</value></Data>
        <Data name="ward_name_mr"><value>प्रभाग २२ : मांजरी बु.-शेवाळवाडी</value></Data>
        <Data name="entity_type"><value>ward</value></Data>
        <Data name="parent_municipality"><value>Pune Municipal Corporation</value></Data>
        <Data name="parent_municipality_mr"><value>पुणे महानगरपालिका</value></Data>
        <Data name="district"><value>Pune</value></Data>
        <Data name="district_mr"><value>पुणे</value></Data>
        <Data name="state"><value>Maharashtra</value></Data>
        <Data name="state_mr"><value>महाराष्ट्र</value></Data>
        <Data name="country"><value>India</value></Data>
        <Data name="country_mr"><value>भारत</value></Data>
        <Data name="area_sq_km"><value>31.4301</value></Data>
        <Data name="perimeter_km"><value>31.423</value></Data>
        <Data name="author"><value>Nikhil VJ</value></Data>
        <Data name="source_url"><value>http://www.pmc.gov.in/sites/default/files/final_ward_maps/22_F_Ward.pdf</value></Data>
        <Data name="created_date"><value>2025-11-02</value></Data>
        <Data name="data_year"><value>2022</value></Data>
      </ExtendedData>
      <MultiGeometry>
      <Polygon>
        <outerBoundaryIs>
          <LinearRing>
            <tessellate>1</tessellate>
            <coordinates>
              73.96104,18.54589 73.96264,18.54501 73.9642,18.5442 73.96586,18.54361 73.96697,18.54331 73.96932,18.54303 73.97231,18.54102 73.97252,18.54114 73.97423,18.53918 73.97492,18.53775 73.97547,18.53599 73.97595,18.53405 73.97791,18.53248 73.97853,18.53173 73.97967,18.53034 73.98657,18.52579 73.98907,18.52424 73.99028,18.52354 73.99128,18.52267 73.99178,18.52154 73.99203,18.52028 73.99192,18.51785 73.99158,18.51685 73.99128,18.51434 73.99119,18.51286 73.99113,18.51119 73.99129,18.51041 73.99182,18.50985 73.99261,18.50914 73.99381,18.50828 73.99473,18.50763 73.99564,18.5071 73.99781,18.50559 73.99755,18.50479 73.99706,18.50392 73.9967,18.5035 73.99582,18.50288 73.99571,18.50247 73.99352,18.50012 73.99325,18.49963 73.9928,18.49941 73.99241,18.49908 73.99208,18.49855 73.9919,18.49793 73.9916,18.49676 73.99166,18.49641 73.99204,18.49494 73.99194,18.49415 73.98968,18.49309 73.98917,18.4922 73.98931,18.49187 73.99075,18.49175 73.99334,18.49157 73.99594,18.49135 73.99796,18.49109 73.99996,18.49061 74.00175,18.49005 74.00233,18.48972 74.00294,18.48956 74.00319,18.48921 74.00384,18.48865 74.00468,18.48827 74.0057,18.48812 74.00673,18.48814 74.00627,18.48711 74.00575,18.48615 74.00532,18.484 74.00503,18.48278 74.00482,18.48163 74.00456,18.48078 74.00435,18.47989 74.00418,18.47926 74.00399,18.47841 74.00379,18.47795 74.00352,18.47666 74.00322,18.47619 74.00301,18.47532 74.00254,18.4737 74.00235,18.47276 74.00199,18.47211 74.00143,18.47101 74.00103,18.4697 74.0007,18.46899 73.99978,18.46664 73.99656,18.46821 73.99548,18.46832 73.99474,18.46858 73.99418,18.46876 73.99352,18.4688 73.99305,18.4687 73.99239,18.46849 73.99157,18.46826 73.99083,18.46814 73.99015,18.46826 73.98443,18.47082 73.98283,18.47162 73.98248,18.472 73.98213,18.47241 73.98143,18.47355 73.98058,18.47498 73.98032,18.47592 73.9802,18.47617 73.9797,18.4765 73.97925,18.4766 73.97844,18.47678 73.9782,18.47683 73.97231,18.47797 73.96377,18.47994 73.96306,18.4805 73.96217,18.48171 73.96113,18.48423 73.96078,18.48585 73.96063,18.4873 73.96077,18.48863 73.96083,18.49014 73.96064,18.49091 73.9604,18.4916 73.96005,18.49217 73.95912,18.49314 73.95769,18.49337 73.95688,18.49336 73.95724,18.49503 73.95788,18.49786 73.95825,18.50041 73.95843,18.50115 73.95864,18.50419 73.95698,18.50438 73.9559,18.50435 73.95487,18.50456 73.95427,18.50457 73.9543,18.50538 73.95666,18.50535 73.95669,18.50507 73.9575,18.50483 73.95821,18.50519 73.95864,18.50524 73.95959,18.50531 73.96021,18.50566 73.96065,18.50658 73.96058,18.50783 73.95995,18.50853 73.95912,18.50894 73.95826,18.50906 73.95917,18.51778 73.95419,18.51997 73.95359,18.52023 73.95113,18.52099 73.95116,18.52384 73.95103,18.52399 73.94823,18.5241 73.94549,18.52417 73.94161,18.52426 73.94192,18.52574 73.94262,18.52812 73.94323,18.53024 73.94166,18.53081 73.94186,18.53184 73.94182,18.53237 73.94194,18.53406 73.94101,18.53369 73.94053,18.53357 73.93873,18.53273 73.93723,18.53216 73.93667,18.53214 73.93613,18.53222 73.93488,18.53263 73.93452,18.5326 73.93401,18.53276 73.93351,18.533 73.93309,18.53292 73.93377,18.53603 73.93596,18.53585 73.93698,18.53576 73.93799,18.53576 73.93831,18.53578 73.93898,18.53597 73.93931,18.53612 73.93978,18.53651 73.94033,18.5372 73.94069,18.53779 73.9414,18.53944 73.94145,18.53958 73.94159,18.53997 73.94205,18.54098 73.94233,18.54161 73.94284,18.54267 73.94352,18.5437 73.94391,18.54414 73.94449,18.54461 73.94508,18.545 73.94568,18.54532 73.94612,18.54551 73.94667,18.54564 73.94722,18.54568 73.94956,18.54566 73.95119,18.54578 73.95349,18.54579 73.95383,18.54585 73.95437,18.54593 73.95546,18.54631 73.95681,18.54677 73.95838,18.54688 73.95972,18.5467 73.96085,18.54628 73.96104,18.54589
            </coordinates>
          </LinearRing>
        </outerBoundaryIs>
      </Polygon>

      </MultiGeometry>
    </Placemark>
  </Document>
</kml>
