<?xml version="1.0" encoding="UTF-8"?>
<kml xmlns="http://www.opengis.net/kml/2.2">
  <Document>
    <name>8 Kalas - Phulenagar</name>
    <description>Part of OS-Bhugol open geographic data project</description>
    <Placemark>
      <name>8 Kalas - Phulenagar</name>
      <ExtendedData>
        <Data name="ward_number"><value>8</value></Data>
        <Data name="ward_name_en"><value>8 Kalas - Phulenagar</value></Data>
        <Data name="ward_name_mr"><value>प्रभाग ०८ : कळस - फुलेंनगर</value></Data>
        <Data name="entity_type"><value>ward</value></Data>
        <Data name="parent_municipality"><value>Pune Municipal Corporation</value></Data>
        <Data name="parent_municipality_mr"><value>पुणे महानगरपालिका</value></Data>
        <Data name="district"><value>Pune</value></Data>
        <Data name="district_mr"><value>पुणे</value></Data>
        <Data name="state"><value>Maharashtra</value></Data>
        <Data name="state_mr"><value>महाराष्ट्र</value></Data>
        <Data name="country"><value>India</value></Data>
        <Data name="country_mr"><value>भारत</value></Data>
        <Data name="area_sq_km"><value>4.0463</value></Data>
        <Data name="perimeter_km"><value>11.9475</value></Data>
        <Data name="author"><value>Nikhil VJ</value></Data>
        <Data name="source_url"><value>http://www.pmc.gov.in/sites/default/files/final_ward_maps/8_F_Ward.pdf</value></Data>
        <Data name="created_date"><value>2025-11-02</value></Data>
        <Data name="data_year"><value>2022</value></Data>
      </ExtendedData>
      <MultiGeometry>
      <Polygon>
        <outerBoundaryIs>
          <LinearRing>
            <tessellate>1</tessellate>
            <coordinates>
              73.87663,18.58292 73.8766,18.5821 73.87535,18.58208 73.87581,18.58139 73.87622,18.58055 73.8764,18.5799 73.87646,18.57908 73.87654,18.57775 73.87664,18.57626 73.87677,18.57545 73.87817,18.57276 73.87811,18.57265 73.87838,18.57207 73.87881,18.57086 73.87899,18.56979 73.87921,18.56893 73.8797,18.56974 73.88014,18.57041 73.88077,18.57073 73.88152,18.57135 73.88174,18.57136 73.88246,18.57122 73.88251,18.57154 73.88262,18.57203 73.8828,18.57218 73.88321,18.57249 73.88379,18.57307 73.8838,18.57317 73.88379,18.57337 73.88449,18.57348 73.88513,18.5735 73.88514,18.57341 73.88507,18.57221 73.88482,18.57218 73.8848,18.57205 73.88491,18.57142 73.88509,18.5706 73.88525,18.57006 73.88541,18.56909 73.88538,18.5677 73.88541,18.5669 73.88535,18.56615 73.88525,18.56552 73.88509,18.5653 73.8849,18.56493 73.88492,18.5647 73.88631,18.56404 73.88701,18.56362 73.88863,18.56277 73.89204,18.56106 73.89053,18.55581 73.88965,18.55273 73.88664,18.55307 73.88626,18.55315 73.88514,18.55329 73.88412,18.55343 73.88326,18.55342 73.8825,18.55336 73.88131,18.55315 73.8797,18.55288 73.87931,18.55282 73.87887,18.55274 73.87754,18.55256 73.87613,18.55238 73.87443,18.55218 73.87294,18.55208 73.8738,18.5532 73.87424,18.55399 73.87437,18.55471 73.8746,18.55539 73.87526,18.55667 73.87555,18.55722 73.87556,18.55745 73.87498,18.558 73.87268,18.55852 73.87253,18.56033 73.87233,18.56104 73.87226,18.56221 73.87215,18.56301 73.87207,18.56411 73.87158,18.56532 73.87142,18.56602 73.8719,18.56795 73.87212,18.56857 73.87229,18.56879 73.87267,18.57031 73.87282,18.57245 73.87269,18.57285 73.87174,18.57438 73.87097,18.57547 73.8706,18.57576 73.87052,18.57609 73.87167,18.57871 73.87182,18.57898 73.87193,18.57908 73.87225,18.57908 73.87235,18.57909 73.87235,18.57917 73.8723,18.57923 73.87205,18.57931 73.87183,18.57929 73.87168,18.57937 73.87165,18.58098 73.87188,18.58099 73.87191,18.58208 73.87166,18.58207 73.8717,18.58224 73.87185,18.58241 73.87205,18.58248 73.87252,18.5825 73.87239,18.5828 73.87344,18.58295 73.87337,18.5824 73.87512,18.58227 73.87511,18.58296 73.87663,18.58292
            </coordinates>
          </LinearRing>
        </outerBoundaryIs>
      </Polygon>

      </MultiGeometry>
    </Placemark>
  </Document>
</kml>
