<?xml version="1.0" encoding="UTF-8"?>
<kml xmlns="http://www.opengis.net/kml/2.2">
  <Document>
    <name>Ward 15</name>
    <description>Part of OS-Bhugol open geographic data project</description>
    <Placemark>
      <name>Ward 15</name>
      <ExtendedData>
        <Data name="ward_number"><value>15</value></Data>
        <Data name="ward_name_en"><value>Ward 15</value></Data>
        <Data name="ward_name_mr"><value>प्रभाग १५</value></Data>
        <Data name="entity_type"><value>ward</value></Data>
        <Data name="parent_municipality"><value>Pune Municipal Corporation</value></Data>
        <Data name="parent_municipality_mr"><value>पुणे महानगरपालिका</value></Data>
        <Data name="district"><value>Pune</value></Data>
        <Data name="district_mr"><value>पुणे</value></Data>
        <Data name="state"><value>Maharashtra</value></Data>
        <Data name="state_mr"><value>महाराष्ट्र</value></Data>
        <Data name="country"><value>India</value></Data>
        <Data name="country_mr"><value>भारत</value></Data>
        <Data name="area_sq_km"><value>30.9207</value></Data>
        <Data name="perimeter_km"><value>26.0626</value></Data>
        <Data name="author"><value>Parisar</value></Data>
        <Data name="source_url"><value>https://data.opencity.in/dataset/pune-wards-info/resource/2badcc86-489c-4b7e-b7dd-a273ef01b798</value></Data>
        <Data name="created_date"><value>2025-11-02</value></Data>
        <Data name="data_year"><value>2025</value></Data>
      </ExtendedData>
      <MultiGeometry>
      <Polygon>
        <outerBoundaryIs>
          <LinearRing>
            <tessellate>1</tessellate>
            <coordinates>
              73.957129425666,18.4947874241302 73.9578980751205,18.4978614679106 73.9584096022178,18.5011142097152 73.958643667073,18.5039678534934 73.9570421827328,18.5041431786188 73.9563586537438,18.5041317371843 73.9555618373018,18.5042347590268 73.9542498635932,18.5044116581882 73.954202868799,18.504204233499 73.9540502096953,18.5041803716154 73.9512115974139,18.5041262944474 73.9478762108679,18.5037701755013 73.9456172017678,18.5036271631156 73.9439038321149,18.5034910613505 73.9438906997775,18.5036959684727 73.9438902090661,18.5054286711962 73.9439536670282,18.5062771410772 73.9441098711737,18.506504345799 73.9443654764856,18.5067173511248 73.9447488853529,18.5070084580741 73.9449831911215,18.5072427638427 73.9450825931873,18.507555170335 73.9450612926437,18.508187085927 73.9447018537178,18.5092805028941 73.944875666053,18.5099789750665 73.944898605768,18.510044335179 73.9433825375383,18.5100430513688 73.9392227315684,18.5101083187851 73.9386514724475,18.5100246333367 73.9378909424622,18.5099903185125 73.9371544759307,18.5097629818677 73.9355697006938,18.5099217464286 73.9322531616542,18.5102756698863 73.9326005023115,18.5110910537093 73.9327425052624,18.5117016672982 73.932760894169,18.5118970398601 73.9323778606917,18.5119337434575 73.9324322252403,18.5138079996121 73.9325028299967,18.514514840175 73.932904878225,18.5159485929694 73.9325469207355,18.5194959498125 73.932359458538,18.5205321977928 73.9320460774532,18.5214665751993 73.9320750896456,18.5235451882859 73.9321305597776,18.5262521260349 73.9323413455767,18.5292918849126 73.9321602922637,18.5316318327429 73.9326573025925,18.532277947969 73.9329484104409,18.5328388623237 73.9332182160479,18.5340813908437 73.9336690911558,18.5358046132923 73.9374862141177,18.5355402836573 73.9386679691516,18.5356815806405 73.9393359181181,18.5360155546742 73.9400976951526,18.5367669508342 73.9407341120897,18.5378714199301 73.9419388627884,18.5408443106165 73.9429582560189,18.5429134114248 73.9438188820359,18.5439410235594 73.9448208050363,18.5446860444256 73.9456685860366,18.5451870063754 73.9469536174156,18.545456240913 73.9494938766412,18.5454151356 73.9520261417931,18.5455739666653 73.9535515061972,18.5454736140161 73.9544546818382,18.5456542491443 73.9556789873954,18.5462162246993 73.9571240684211,18.5465574247854 73.957946961583,18.5466377072646 73.9596128198758,18.5465172844451 73.9607172376116,18.5460586376414 73.9607168063228,18.5456934738643 73.9610159575737,18.5455616471825 73.96220031869,18.5449686383921 73.9637264740842,18.544302960291 73.9657717086175,18.5437662444497 73.9671028216983,18.5434338519834 73.9695477546254,18.5427849585591 73.9704240516937,18.5424803331018 73.970930525451,18.5419358906435 73.9717288171786,18.541278762908 73.9724122284417,18.540806802592 73.9726121891013,18.5409928930076 73.9746538974596,18.5383667844996 73.9760149934972,18.5339811838846 73.9782684643182,18.5320397319482 73.9797314031817,18.530183399944 73.9849602315295,18.5267513567898 73.9894643996623,18.5238447263532 73.9911395947167,18.5225578216862 73.9916506128856,18.5216217641332 73.9919279629052,18.5205990353172 73.9919279629052,18.5185189088206 73.9918496112707,18.5173880131464 73.9915722612509,18.5164006465728 73.9912061589371,18.513360887695 73.9911285006798,18.5117189747509 73.9911728768269,18.5107981714988 73.9914169447362,18.5101658132018 73.9918607053075,18.5096887705204 73.9927593204864,18.5088567195621 73.9970083257737,18.505972277199 73.9978403767321,18.5053621069758 73.9972759136527,18.5041257909726 73.9970345077364,18.503678479878 73.9966936997546,18.5033021711583 73.9961895874796,18.5030039640618 73.9958061786123,18.5026489557848 73.9951742636815,18.5017827359845 73.9931649174271,18.4995319829147 73.9928596101829,18.4992550771601 73.9925330024962,18.499013671244 73.9922444514204,18.4987018322238 73.9920081581501,18.498361024242 73.9919081877129,18.4979384220207 73.9915292718584,18.4965042335835 73.9919294881555,18.4944979657087 73.9919294881555,18.4941074566938 73.9917377841714,18.4938376501875 73.9914324769274,18.4937240478267 73.9896308093145,18.4929700984914 73.9890982973734,18.4918717916862 73.9894481315697,18.4913918006553 73.9895715147542,18.4906773315137 73.9896698595973,18.4894412936256 73.9893735717025,18.4888226825967 73.987980919544,18.488171387099 73.9877661509967,18.4880361031234 73.9875812853214,18.4875969337471 73.9873617686308,18.4866746879996 73.9872134469189,18.4863966779704 73.987064022307,18.4863064544523 73.9867357430323,18.4863494107271 73.9860692875237,18.4865246919014 73.9858163514447,18.4865054530816 73.9855644152071,18.4863163120513 73.9853782186519,18.4856585809075 73.985254484437,18.4852801885294 73.9850819913573,18.485033168327 73.9848724000919,18.4849748133564 73.9846381768228,18.4850250660974 73.984402637704,18.4852985146347 73.9839674110859,18.4858684966035 73.9837750710259,18.4859361423947 73.9835950641923,18.4859466226212 73.9833916044414,18.4858654062773 73.9832788916897,18.4856530443867 73.9831569848532,18.4849656102261 73.9825768211325,18.484466523508 73.9815949862346,18.4833547307487 73.9817237479411,18.4828804003266 73.9816370811879,18.4822396268621 73.9813513920635,18.4819455219135 73.9806570631727,18.4817014138718 73.9803517484204,18.4816024768421 73.9802032582053,18.4813555808733 73.9800806148992,18.4801612836503 73.9799227265549,18.4799189873493 73.9791941306038,18.4795126521604 73.9779877966035,18.4806507794218 73.9771392554375,18.4811902570374 73.976628116891,18.4814106997405 73.9764060621295,18.4814323924242 73.9758671421963,18.4812806764511 73.974232837713,18.4807510254585 73.9738314282172,18.4806744502874 73.9735314712576,18.480684271273 73.9732730548296,18.4807687178381 73.9730021663923,18.4809332213325 73.9718932496737,18.4818200164698 73.9714065724709,18.4819604534969 73.9709565996159,18.4819809018141 73.969995874103,18.4818415432375 73.9674966041643,18.4813361024954 73.9668223348018,18.4812519439108 73.9663066315306,18.4812938416141 73.965949654113,18.481434972291 73.9656014583168,18.4816745152717 73.9623942509029,18.4854997009863 73.9622493106666,18.4858501637013 73.9622378937351,18.4861899127139 73.962394900565,18.4865752960793 73.9631440142191,18.4882426854321 73.9633855873678,18.488592761834 73.9637401079453,18.4888629745329 73.9642631649958,18.4891609349423 73.9646616425429,18.489478245077 73.9659209686089,18.4909048227424 73.9660226669708,18.4911378810534 73.9660207892975,18.4914508543998 73.9658315760747,18.4917449202607 73.9653797815543,18.4920643782374 73.9647209387665,18.4925257810002 73.9612996725024,18.4925785794063 73.9590628170913,18.4929146304591 73.9588072143816,18.4930282315677 73.9568258244524,18.4931919792265 73.957129425666,18.4947874241302
            </coordinates>
          </LinearRing>
        </outerBoundaryIs>
      </Polygon>

      </MultiGeometry>
    </Placemark>
  </Document>
</kml>
