<?xml version="1.0" encoding="UTF-8"?>
<kml xmlns="http://www.opengis.net/kml/2.2">
  <Document>
    <name>Ward 14</name>
    <description>Part of OS-Bhugol open geographic data project</description>
    <Placemark>
      <name>Ward 14</name>
      <ExtendedData>
        <Data name="ward_number"><value>14</value></Data>
        <Data name="ward_name_en"><value>Ward 14</value></Data>
        <Data name="ward_name_mr"><value>प्रभाग १४</value></Data>
        <Data name="entity_type"><value>ward</value></Data>
        <Data name="parent_municipality"><value>Pune Municipal Corporation</value></Data>
        <Data name="parent_municipality_mr"><value>पुणे महानगरपालिका</value></Data>
        <Data name="district"><value>Pune</value></Data>
        <Data name="district_mr"><value>पुणे</value></Data>
        <Data name="state"><value>Maharashtra</value></Data>
        <Data name="state_mr"><value>महाराष्ट्र</value></Data>
        <Data name="country"><value>India</value></Data>
        <Data name="country_mr"><value>भारत</value></Data>
        <Data name="area_sq_km"><value>11.8928</value></Data>
        <Data name="perimeter_km"><value>16.4065</value></Data>
        <Data name="author"><value>Parisar</value></Data>
        <Data name="source_url"><value>https://data.opencity.in/dataset/pune-wards-info/resource/2badcc86-489c-4b7e-b7dd-a273ef01b798</value></Data>
        <Data name="created_date"><value>2025-11-02</value></Data>
        <Data name="data_year"><value>2025</value></Data>
      </ExtendedData>
      <MultiGeometry>
      <Polygon>
        <outerBoundaryIs>
          <LinearRing>
            <tessellate>1</tessellate>
            <coordinates>
              73.9008395835801,18.5411547332046 73.903917491699,18.5409758463582 73.9055942281913,18.5411402640121 73.9101482817179,18.5405109679069 73.9116590959907,18.5398927343622 73.9148175051238,18.5395763555644 73.9160344533275,18.5396078866946 73.9166973867751,18.5392658970036 73.9176789626142,18.5390192696236 73.9224306475564,18.5388137466572 73.9256420933081,18.5379538706746 73.9316956107639,18.5359528710281 73.9336690911558,18.5358046132923 73.9332182160479,18.5340813908437 73.9329484104409,18.5328388614244 73.9326573034918,18.5322779488683 73.9321602913645,18.5316318336423 73.9323413455767,18.5292918849126 73.9321305597776,18.5262521260349 73.9320750896973,18.5235451883117 73.9320460774532,18.5214665751993 73.932359458538,18.5205321977928 73.9325469207355,18.5194959498125 73.932904878225,18.5159485929694 73.9325028299967,18.514514840175 73.9288760017041,18.5145831039878 73.9288524749272,18.5131161441604 73.9287882441892,18.5117382190325 73.9287844992693,18.5116148343678 73.9261671929443,18.5117465086198 73.9260453904344,18.5091749876549 73.9259149474217,18.5089223502305 73.925169226699,18.5089551584563 73.9235015232137,18.5089464270945 73.9222694330537,18.5090778372145 73.9220262399932,18.5091350556084 73.9219025155861,18.5092735355158 73.9214458767031,18.5104613287678 73.9206191673383,18.5100737812109 73.9202516897586,18.5109437130495 73.9194376181406,18.5125851879019 73.9186699324354,18.5140846311721 73.9182819116254,18.5140895118641 73.9176579813858,18.5145582706618 73.9168896236854,18.5149741638875 73.9161009140765,18.5152898675828 73.915164022645,18.5153995752608 73.9151567258024,18.5159014158178 73.9143579569543,18.5159679800382 73.9133151201968,18.5157460993031 73.9108300622576,18.5148031088764 73.9101145953586,18.5143032629786 73.9100958802098,18.5150070147823 73.9095638439948,18.5148131916674 73.9090859237856,18.5147925514045 73.9087099753401,18.514951342826 73.9083615220054,18.5152086563312 73.9080780448512,18.5153890839183 73.9077413824409,18.5155016002116 73.907435003641,18.5155685066436 73.9072248981098,18.515590184723 73.9070995347757,18.5155851851616 73.9069483068189,18.5155124797172 73.9067563636154,18.5154572235721 73.9062521442153,18.5151741711235 73.9009397528753,18.5230258525369 73.898616945116,18.5261980426056 73.8983097837584,18.5264044424896 73.8979915961352,18.5266154413496 73.8970712722215,18.5272297313671 73.8969505688138,18.5265197139137 73.8940753346092,18.5280008199819 73.8870445058993,18.531233336849 73.88680043799,18.5297134574102 73.8854411999514,18.530020095651 73.885689705869,18.5314898266729 73.8854321072708,18.5371189549541 73.8852639182489,18.5413677173597 73.8851890327479,18.5424355116896 73.8850527359951,18.5432655814415 73.8887436139267,18.5436471907652 73.8909445697362,18.5436640827313 73.892591461327,18.5434103839822 73.8945995854027,18.5427331468173 73.8978830155887,18.5418801461519 73.9008395835801,18.5411547332046
            </coordinates>
          </LinearRing>
        </outerBoundaryIs>
      </Polygon>

      </MultiGeometry>
    </Placemark>
  </Document>
</kml>
