<?xml version="1.0" encoding="UTF-8"?>
<kml xmlns="http://www.opengis.net/kml/2.2">
  <Document>
    <name>Ward 12</name>
    <description>Part of OS-Bhugol open geographic data project</description>
    <Placemark>
      <name>Ward 12</name>
      <ExtendedData>
        <Data name="ward_number"><value>12</value></Data>
        <Data name="ward_name_en"><value>Ward 12</value></Data>
        <Data name="ward_name_mr"><value>प्रभाग १२</value></Data>
        <Data name="entity_type"><value>ward</value></Data>
        <Data name="parent_municipality"><value>Pune Municipal Corporation</value></Data>
        <Data name="parent_municipality_mr"><value>पुणे महानगरपालिका</value></Data>
        <Data name="district"><value>Pune</value></Data>
        <Data name="district_mr"><value>पुणे</value></Data>
        <Data name="state"><value>Maharashtra</value></Data>
        <Data name="state_mr"><value>महाराष्ट्र</value></Data>
        <Data name="country"><value>India</value></Data>
        <Data name="country_mr"><value>भारत</value></Data>
        <Data name="area_sq_km"><value>5.4605</value></Data>
        <Data name="perimeter_km"><value>12.8197</value></Data>
        <Data name="author"><value>Parisar</value></Data>
        <Data name="source_url"><value>https://data.opencity.in/dataset/pune-wards-info/resource/2badcc86-489c-4b7e-b7dd-a273ef01b798</value></Data>
        <Data name="created_date"><value>2025-11-02</value></Data>
        <Data name="data_year"><value>2025</value></Data>
      </ExtendedData>
      <MultiGeometry>
      <Polygon>
        <outerBoundaryIs>
          <LinearRing>
            <tessellate>1</tessellate>
            <coordinates>
              73.8347225120493,18.5379834653937 73.8368884594831,18.5362008947302 73.8429498839523,18.5320861618605 73.8444612324808,18.5315844874785 73.8447164076844,18.5316253491085 73.8484993165625,18.535224905955 73.8486723592401,18.5352259605497 73.8488221552219,18.5350067834511 73.8489191655776,18.534056270408 73.8490828302059,18.5329961173073 73.8495387279843,18.5316601159089 73.8496880041802,18.5314195539029 73.8499886989541,18.5314062928992 73.8508252130061,18.5317081889743 73.8516593928703,18.532162873925 73.8525908751503,18.5308794308148 73.8535441807415,18.5300284360616 73.8538558308261,18.5302504168089 73.8543904824662,18.530395145301 73.8552233428272,18.5303058684786 73.8535393193632,18.531993500622 73.8542231364341,18.5323995106205 73.8557795445046,18.5326300145974 73.8561039537105,18.5322512422666 73.8565443183467,18.5318608883457 73.8569839461936,18.531581065663 73.8578225335586,18.5313282173273 73.8585439403685,18.5312711666612 73.8597410677715,18.5313152395705 73.860474421837,18.5317098058076 73.8605125117431,18.5304655253637 73.8606140856716,18.528522924993 73.860478627087,18.5280532072897 73.857837056535,18.5250683978883 73.8549767357878,18.5224411895094 73.8531103160883,18.5216920821239 73.8516374945748,18.5212603931528 73.8493779834573,18.5209810646244 73.8485985756639,18.5205793176816 73.8461259436575,18.5181853592669 73.8457606201566,18.517685025044 73.844981330624,18.5161989142487 73.8448634447922,18.515956937263 73.8445408085115,18.5155846655999 73.8442119678082,18.5151317337426 73.8431323784566,18.5139156443915 73.8429369082774,18.5137390887518 73.8423669203381,18.5144417593709 73.8414956470989,18.5176780330826 73.8388253093689,18.5180288658839 73.8367274984852,18.5181172711185 73.8366823671287,18.5169393800222 73.8363838551206,18.515937204575 73.8361315005293,18.5139982866087 73.8340057365558,18.5143017549291 73.8321573164659,18.5148095116882 73.8316125351958,18.5148947833894 73.8250424180363,18.5162588091157 73.8262678229017,18.5171329582195 73.8269001479236,18.5192236292672 73.8274468143191,18.5195116407498 73.8287615066148,18.5219574986825 73.829425100893,18.5229133742425 73.8298625937857,18.5290561877683 73.830214059006,18.537395948952 73.8311044223217,18.5366688249579 73.8314361431553,18.5365182447762 73.833816101589,18.5363599677466 73.8347225120493,18.5379834653937
            </coordinates>
          </LinearRing>
        </outerBoundaryIs>
      </Polygon>

      </MultiGeometry>
    </Placemark>
  </Document>
</kml>
