<?xml version="1.0" encoding="UTF-8"?>
<kml xmlns="http://www.opengis.net/kml/2.2">
  <Document>
    <name>57 Sukhsagarnagar - Rajiv Gandhinagar</name>
    <description>Part of OS-Bhugol open geographic data project</description>
    <Placemark>
      <name>57 Sukhsagarnagar - Rajiv Gandhinagar</name>
      <ExtendedData>
        <Data name="ward_number"><value>57</value></Data>
        <Data name="ward_name_en"><value>57 Sukhsagarnagar - Rajiv Gandhinagar</value></Data>
        <Data name="ward_name_mr"><value>प्रभाग ५७ : सुखसागरनगर - राजीव गांधीनगर</value></Data>
        <Data name="entity_type"><value>ward</value></Data>
        <Data name="parent_municipality"><value>Pune Municipal Corporation</value></Data>
        <Data name="parent_municipality_mr"><value>पुणे महानगरपालिका</value></Data>
        <Data name="district"><value>Pune</value></Data>
        <Data name="district_mr"><value>पुणे</value></Data>
        <Data name="state"><value>Maharashtra</value></Data>
        <Data name="state_mr"><value>महाराष्ट्र</value></Data>
        <Data name="country"><value>India</value></Data>
        <Data name="country_mr"><value>भारत</value></Data>
        <Data name="area_sq_km"><value>2.8743</value></Data>
        <Data name="perimeter_km"><value>12.1175</value></Data>
        <Data name="author"><value>Nikhil VJ</value></Data>
        <Data name="source_url"><value>http://www.pmc.gov.in/sites/default/files/final_ward_maps/57_F_Ward.pdf</value></Data>
        <Data name="created_date"><value>2025-11-02</value></Data>
        <Data name="data_year"><value>2022</value></Data>
      </ExtendedData>
      <MultiGeometry>
      <Polygon>
        <outerBoundaryIs>
          <LinearRing>
            <tessellate>1</tessellate>
            <coordinates>
              73.87781,18.46127 73.87779,18.46097 73.87784,18.45992 73.87808,18.45814 73.87602,18.45799 73.87549,18.45795 73.87553,18.45674 73.87527,18.45676 73.87511,18.45675 73.87486,18.45659 73.87358,18.45652 73.87372,18.45588 73.87378,18.45447 73.87388,18.45445 73.87425,18.45119 73.87438,18.44983 73.87428,18.44979 73.87368,18.44968 73.87288,18.44969 73.87198,18.44976 73.87148,18.44972 73.87105,18.4496 73.87043,18.44935 73.8698,18.44906 73.86926,18.44882 73.86871,18.4486 73.86817,18.44844 73.86767,18.44834 73.86767,18.44686 73.86761,18.44666 73.86754,18.4461 73.86781,18.44614 73.86774,18.44482 73.86775,18.44455 73.86784,18.44435 73.86788,18.44363 73.86781,18.44349 73.86765,18.44328 73.86765,18.44295 73.8678,18.44251 73.86778,18.44237 73.86757,18.44234 73.86739,18.44227 73.86737,18.44198 73.8675,18.4419 73.86764,18.44175 73.86797,18.44158 73.86825,18.44146 73.86852,18.44128 73.86881,18.44102 73.86909,18.44076 73.86932,18.44058 73.86951,18.44023 73.86957,18.44008 73.86956,18.43971 73.86956,18.4396 73.86968,18.43943 73.86939,18.43945 73.86938,18.4394 73.86944,18.43907 73.86948,18.43878 73.86952,18.43757 73.86925,18.43725 73.86916,18.43694 73.86912,18.43653 73.86894,18.43591 73.86888,18.43545 73.86851,18.43541 73.86845,18.43532 73.8684,18.43518 73.86781,18.43509 73.8677,18.43502 73.86751,18.4347 73.86742,18.43417 73.86738,18.43353 73.86744,18.43316 73.86755,18.43298 73.86642,18.43272 73.86642,18.43247 73.86529,18.43229 73.86489,18.43338 73.86467,18.43358 73.86455,18.43374 73.86429,18.43446 73.86327,18.43438 73.86318,18.43441 73.86306,18.43488 73.86301,18.43535 73.86215,18.43559 73.86136,18.43559 73.86131,18.43569 73.86132,18.43607 73.86137,18.43622 73.86149,18.43642 73.86163,18.43661 73.86166,18.43685 73.86165,18.43731 73.86154,18.43811 73.86134,18.43915 73.86187,18.43998 73.86239,18.44094 73.86308,18.44238 73.86335,18.44289 73.86351,18.44303 73.86369,18.44325 73.86406,18.44368 73.86422,18.44389 73.86424,18.44419 73.86422,18.44472 73.86419,18.44522 73.86405,18.44559 73.86389,18.44591 73.86374,18.4463 73.86376,18.44648 73.86395,18.44717 73.86401,18.44811 73.86393,18.4482 73.86375,18.44834 73.8632,18.44891 73.86283,18.44947 73.86276,18.45022 73.86309,18.45149 73.8638,18.45318 73.86417,18.45386 73.86507,18.45529 73.86437,18.45568 73.86278,18.45661 73.86295,18.45681 73.86307,18.45721 73.86309,18.45764 73.863,18.45786 73.86281,18.45812 73.86271,18.45839 73.86272,18.4592 73.86289,18.45938 73.8629,18.45942 73.86308,18.45929 73.86341,18.45966 73.86342,18.45984 73.86342,18.46004 73.86334,18.46031 73.8633,18.46038 73.86337,18.46152 73.86329,18.46166 73.86318,18.46183 73.86315,18.46213 73.86304,18.46271 73.86291,18.4633 73.8628,18.46362 73.86233,18.46418 73.86219,18.46429 73.8621,18.46448 73.86199,18.46488 73.86192,18.46515 73.86188,18.46539 73.86174,18.4657 73.86161,18.46594 73.86155,18.4661 73.86144,18.46645 73.86143,18.46653 73.86183,18.46658 73.86237,18.46667 73.86314,18.46681 73.86374,18.46687 73.86448,18.46689 73.86457,18.46692 73.86462,18.46667 73.86463,18.46655 73.86464,18.46568 73.86469,18.46484 73.86525,18.46486 73.86625,18.46484 73.8666,18.46479 73.86764,18.46459 73.86777,18.46455 73.8676,18.46448 73.86744,18.46437 73.86735,18.46424 73.86733,18.46404 73.86732,18.46342 73.86677,18.46337 73.86644,18.46334 73.86616,18.46333 73.86592,18.46331 73.86573,18.46331 73.86541,18.46325 73.86508,18.46316 73.86524,18.46271 73.86535,18.46248 73.86572,18.46207 73.86631,18.46143 73.86638,18.46135 73.86648,18.4613 73.86663,18.46125 73.86676,18.46121 73.86694,18.46118 73.86727,18.46112 73.86765,18.46107 73.8682,18.46101 73.86888,18.46101 73.86962,18.46104 73.87005,18.46107 73.87024,18.46109 73.87047,18.46112 73.87066,18.46114 73.87103,18.46117 73.87163,18.46119 73.87245,18.46122 73.87316,18.46124 73.87474,18.46124 73.87615,18.46123 73.87771,18.46125 73.87781,18.46127
            </coordinates>
          </LinearRing>
        </outerBoundaryIs>
      </Polygon>

      </MultiGeometry>
    </Placemark>
  </Document>
</kml>
