{
  "type": "FeatureCollection",
  "features": [
    {
      "type": "Feature",
      "properties": {
        "ward_number": 35,
        "ward_name_en": "Ward 35",
        "ward_name_mr": "प्रभाग ३५",
        "entity_type": "ward",
        "parent_municipality": "Pune Municipal Corporation",
        "parent_municipality_mr": "पुणे महानगरपालिका",
        "district": "Pune",
        "district_mr": "पुणे",
        "state": "Maharashtra",
        "state_mr": "महाराष्ट्र",
        "country": "India",
        "country_mr": "भारत",
        "area_sq_km": 6.6338,
        "perimeter_km": 14.759,
        "author": "Parisar",
        "added_by": "mahanvyakti",
        "source_url": "https://data.opencity.in/dataset/pune-wards-info/resource/2badcc86-489c-4b7e-b7dd-a273ef01b798",
        "created_date": "2025-11-02",
        "data_year": 2025
      },
      "geometry": {
        "type": "Polygon",
        "coordinates": [
          [
            [
              73.8237013294513,
              18.4827801204014
            ],
            [
              73.8255088802622,
              18.4807512006366
            ],
            [
              73.8258436571992,
              18.4811096938921
            ],
            [
              73.8268326655146,
              18.4806257470957
            ],
            [
              73.8268298350085,
              18.4802792124021
            ],
            [
              73.8279836289121,
              18.4798222185892
            ],
            [
              73.8282813601718,
              18.4794945719679
            ],
            [
              73.8286308143242,
              18.4793731749889
            ],
            [
              73.8289491769051,
              18.479124065968
            ],
            [
              73.8296030965393,
              18.4790885052789
            ],
            [
              73.8308144835303,
              18.4787049161799
            ],
            [
              73.8317246446082,
              18.4783689635088
            ],
            [
              73.8324200153463,
              18.4798731804927
            ],
            [
              73.8324483938359,
              18.4802792775633
            ],
            [
              73.8352809326424,
              18.4795244749888
            ],
            [
              73.8355923643444,
              18.4795016382449
            ],
            [
              73.8364870023308,
              18.4799279084063
            ],
            [
              73.837233798777,
              18.4808296812836
            ],
            [
              73.8372728720585,
              18.4809439759214
            ],
            [
              73.8373294823766,
              18.4811656988334
            ],
            [
              73.8372878273295,
              18.4819574872134
            ],
            [
              73.8371229993816,
              18.4825505073409
            ],
            [
              73.8366433628746,
              18.4831852182763
            ],
            [
              73.835986568283,
              18.4832121214387
            ],
            [
              73.8352885118085,
              18.4833470560199
            ],
            [
              73.8337564767371,
              18.4833376277203
            ],
            [
              73.8317084196867,
              18.4841139520071
            ],
            [
              73.831529982317,
              18.484128320988
            ],
            [
              73.8311768616419,
              18.484177190914
            ],
            [
              73.8308482809122,
              18.4844325766806
            ],
            [
              73.8306948784389,
              18.4848672521096
            ],
            [
              73.8306683041371,
              18.4856776934375
            ],
            [
              73.8309240808671,
              18.48621297203
            ],
            [
              73.8313242272682,
              18.4866678480117
            ],
            [
              73.8325490442031,
              18.4873237598837
            ],
            [
              73.8334242851027,
              18.4876060013161
            ],
            [
              73.8340348896984,
              18.4878725855514
            ],
            [
              73.8347175758556,
              18.487912743878
            ],
            [
              73.8363305890856,
              18.4882473942021
            ],
            [
              73.8369664241612,
              18.4878859719602
            ],
            [
              73.8377907337555,
              18.4875689906165
            ],
            [
              73.8381762506336,
              18.4878003016426
            ],
            [
              73.8390843572573,
              18.4876032601823
            ],
            [
              73.8402727663751,
              18.4877119540435
            ],
            [
              73.8413116146394,
              18.4872171128796
            ],
            [
              73.8413116146394,
              18.4867284275749
            ],
            [
              73.8416795659593,
              18.4865933206253
            ],
            [
              73.8419970895941,
              18.4864077716015
            ],
            [
              73.8423211459042,
              18.4861071498251
            ],
            [
              73.8423436037745,
              18.4857343475621
            ],
            [
              73.8423840283004,
              18.4852402717212
            ],
            [
              73.8425097930926,
              18.4847147546823
            ],
            [
              73.8428556462712,
              18.4839871168122
            ],
            [
              73.8431296328264,
              18.482913624864
            ],
            [
              73.8437032995677,
              18.4817697061072
            ],
            [
              73.8439275203389,
              18.4816231004258
            ],
            [
              73.8441948600049,
              18.4816460969899
            ],
            [
              73.8444613740932,
              18.4817009115678
            ],
            [
              73.8450535272986,
              18.4819421601028
            ],
            [
              73.8441104676241,
              18.4800670061874
            ],
            [
              73.8437564908694,
              18.4765386474407
            ],
            [
              73.8439108900756,
              18.4746227002775
            ],
            [
              73.84359226657,
              18.4721427783667
            ],
            [
              73.8441357511641,
              18.4718418409283
            ],
            [
              73.8440372160448,
              18.4705311366028
            ],
            [
              73.8447109557462,
              18.4684537737228
            ],
            [
              73.8453917128573,
              18.4652043846747
            ],
            [
              73.8436582381373,
              18.4649166420894
            ],
            [
              73.8417966819713,
              18.4647916318284
            ],
            [
              73.8421914510748,
              18.4631248283483
            ],
            [
              73.8398776645227,
              18.4629493751136
            ],
            [
              73.838724499836,
              18.4647131165172
            ],
            [
              73.8374050936703,
              18.4647271522364
            ],
            [
              73.8370541881005,
              18.4649868233832
            ],
            [
              73.8364225573553,
              18.4655131821876
            ],
            [
              73.8350891145711,
              18.4654851098501
            ],
            [
              73.8349908609396,
              18.4653166749247
            ],
            [
              73.8347382081019,
              18.465064022087
            ],
            [
              73.8344715195452,
              18.4650219131309
            ],
            [
              73.8336784721839,
              18.4650008591025
            ],
            [
              73.8328629343504,
              18.464978205361
            ],
            [
              73.8328031189975,
              18.4655700810375
            ],
            [
              73.8261289785442,
              18.464830911341
            ],
            [
              73.8259549165417,
              18.4663514022548
            ],
            [
              73.8243142668266,
              18.4659421602208
            ],
            [
              73.8240443779974,
              18.4663756439703
            ],
            [
              73.8235097329251,
              18.4664890751949
            ],
            [
              73.8231743394201,
              18.466741719413
            ],
            [
              73.821688209119,
              18.4661168966346
            ],
            [
              73.8207110829287,
              18.4658773202314
            ],
            [
              73.8200638404564,
              18.466191700439
            ],
            [
              73.8193850453096,
              18.4662405411351
            ],
            [
              73.8187287840767,
              18.466247065622
            ],
            [
              73.8180716507609,
              18.4663809458834
            ],
            [
              73.817634449817,
              18.4668500599944
            ],
            [
              73.8174245086342,
              18.4667132797941
            ],
            [
              73.816806915407,
              18.4662851746211
            ],
            [
              73.8161542308826,
              18.4654500166986
            ],
            [
              73.8157465038847,
              18.4664031476939
            ],
            [
              73.8147646418865,
              18.4673279027984
            ],
            [
              73.8139335681171,
              18.467927709407
            ],
            [
              73.8135063904253,
              18.4683208854687
            ],
            [
              73.8134266218581,
              18.4686978238477
            ],
            [
              73.8138675799804,
              18.4702858258398
            ],
            [
              73.8139269719194,
              18.4706279171598
            ],
            [
              73.8137460216218,
              18.4709036950559
            ],
            [
              73.813572136173,
              18.4710498990749
            ],
            [
              73.8132571399602,
              18.4710656022214
            ],
            [
              73.813071837693,
              18.4710762244777
            ],
            [
              73.8130084358565,
              18.4713173883332
            ],
            [
              73.8128018145088,
              18.4717344060211
            ],
            [
              73.8125418965832,
              18.4718211529019
            ],
            [
              73.8117765925161,
              18.4708795719723
            ],
            [
              73.8115677308372,
              18.4707250777024
            ],
            [
              73.8111772668266,
              18.4709406217877
            ],
            [
              73.8104084397187,
              18.4714071337373
            ],
            [
              73.8100193949683,
              18.4714164746782
            ],
            [
              73.8092356182572,
              18.4713644176693
            ],
            [
              73.8079193307004,
              18.4715328922109
            ],
            [
              73.8070098609143,
              18.4718740026103
            ],
            [
              73.8072811092361,
              18.4720850967498
            ],
            [
              73.8085403345688,
              18.4728387951744
            ],
            [
              73.8093399901486,
              18.4746403161978
            ],
            [
              73.8112050680596,
              18.4783216748056
            ],
            [
              73.8118007448086,
              18.4789842817992
            ],
            [
              73.8122893338856,
              18.479318932123
            ],
            [
              73.813179502632,
              18.4797338982009
            ],
            [
              73.8152677194298,
              18.4805705231112
            ],
            [
              73.8165197277033,
              18.481192136308
            ],
            [
              73.8175165668362,
              18.4817618766094
            ],
            [
              73.8185004377452,
              18.4822236937685
            ],
            [
              73.8199461249139,
              18.482732362009
            ],
            [
              73.8213826111187,
              18.4828444696965
            ],
            [
              73.8223761029748,
              18.4827608066659
            ],
            [
              73.8234218841127,
              18.4826980600676
            ],
            [
              73.8237013294513,
              18.4827801204014
            ]
          ]
        ]
      }
    }
  ]
}