{
  "type": "FeatureCollection",
  "features": [
    {
      "type": "Feature",
      "properties": {
        "ward_number": 29,
        "ward_name_en": "Ward 29",
        "ward_name_mr": "प्रभाग २९",
        "entity_type": "ward",
        "parent_municipality": "Pune Municipal Corporation",
        "parent_municipality_mr": "पुणे महानगरपालिका",
        "district": "Pune",
        "district_mr": "पुणे",
        "state": "Maharashtra",
        "state_mr": "महाराष्ट्र",
        "country": "India",
        "country_mr": "भारत",
        "area_sq_km": 5.1325,
        "perimeter_km": 11.5928,
        "author": "Parisar",
        "added_by": "mahanvyakti",
        "source_url": "https://data.opencity.in/dataset/pune-wards-info/resource/2badcc86-489c-4b7e-b7dd-a273ef01b798",
        "created_date": "2025-11-02",
        "data_year": 2025
      },
      "geometry": {
        "type": "Polygon",
        "coordinates": [
          [
            [
              73.8423669203381,
              18.5144417593709
            ],
            [
              73.8429369082774,
              18.5137390887518
            ],
            [
              73.8415936537243,
              18.5125258285043
            ],
            [
              73.8410930254228,
              18.5120690196696
            ],
            [
              73.8400847882825,
              18.5103918559994
            ],
            [
              73.8393673882944,
              18.5095484268186
            ],
            [
              73.8378065591255,
              18.5081039330501
            ],
            [
              73.8373745688814,
              18.5077111082811
            ],
            [
              73.8370395237552,
              18.5072581773231
            ],
            [
              73.8365990016427,
              18.5063523145078
            ],
            [
              73.836449317582,
              18.5059226508097
            ],
            [
              73.8364687060661,
              18.5048271623438
            ],
            [
              73.8367983219852,
              18.5017733668474
            ],
            [
              73.8366625981006,
              18.500813602266
            ],
            [
              73.8362845087232,
              18.4996502518576
            ],
            [
              73.8357900848446,
              18.4985741518757
            ],
            [
              73.8348503157895,
              18.4977143631274
            ],
            [
              73.8332900927637,
              18.4964570965179
            ],
            [
              73.8325762531915,
              18.4956940262584
            ],
            [
              73.8306240813365,
              18.4928519212792
            ],
            [
              73.8279762470063,
              18.4889474255834
            ],
            [
              73.8277047983378,
              18.4884820857797
            ],
            [
              73.8265511426213,
              18.4890637609839
            ],
            [
              73.8266965611975,
              18.4894321547703
            ],
            [
              73.8270358718082,
              18.4897811600726
            ],
            [
              73.8267256443731,
              18.4900138308736
            ],
            [
              73.8253296240629,
              18.4900235246661
            ],
            [
              73.8245637518299,
              18.4902852788221
            ],
            [
              73.8211820790465,
              18.4918382113236
            ],
            [
              73.818362714121,
              18.4927672292295
            ],
            [
              73.8184031062555,
              18.4940436187495
            ],
            [
              73.8180961254971,
              18.4946252641254
            ],
            [
              73.8176437354149,
              18.4939628337686
            ],
            [
              73.8162027495243,
              18.493628590326
            ],
            [
              73.8150013837831,
              18.4931977275918
            ],
            [
              73.8146354973051,
              18.4934245548242
            ],
            [
              73.8137127085944,
              18.4940204138635
            ],
            [
              73.8133240176432,
              18.4944173407529
            ],
            [
              73.8131964934731,
              18.4947795998554
            ],
            [
              73.8137059532591,
              18.4970860331435
            ],
            [
              73.8137733398248,
              18.4975867531501
            ],
            [
              73.8137580199884,
              18.4979858829359
            ],
            [
              73.8136610784095,
              18.4995692505311
            ],
            [
              73.8137095490461,
              18.5000539555876
            ],
            [
              73.8145635988361,
              18.5016602672422
            ],
            [
              73.8149340176528,
              18.5018616613701
            ],
            [
              73.8156286560378,
              18.5022393280827
            ],
            [
              73.8163359530079,
              18.5023912280253
            ],
            [
              73.8173135675013,
              18.5025922081361
            ],
            [
              73.8186210460019,
              18.5029632320151
            ],
            [
              73.8195483077665,
              18.5033184362337
            ],
            [
              73.8204953216326,
              18.5038753459312
            ],
            [
              73.82114156175,
              18.5043490976188
            ],
            [
              73.8223146332148,
              18.5049194913314
            ],
            [
              73.8217013402596,
              18.5055532650671
            ],
            [
              73.821636207819,
              18.5071204502651
            ],
            [
              73.8220322333387,
              18.5072890190471
            ],
            [
              73.8224931466162,
              18.5067209116694
            ],
            [
              73.8236957238651,
              18.5066972489237
            ],
            [
              73.8239322370098,
              18.5067754444472
            ],
            [
              73.8227066367197,
              18.5081695282179
            ],
            [
              73.8230249327697,
              18.5080618376909
            ],
            [
              73.823343736671,
              18.5085059651528
            ],
            [
              73.8236871154068,
              18.5091221885096
            ],
            [
              73.8237014706974,
              18.5094418391657
            ],
            [
              73.8236300026641,
              18.5098689970945
            ],
            [
              73.8234445402738,
              18.5104834637701
            ],
            [
              73.8233307912733,
              18.5118036343243
            ],
            [
              73.824057607504,
              18.5120665841952
            ],
            [
              73.8240044946118,
              18.5133014443063
            ],
            [
              73.8241708071371,
              18.5136415858905
            ],
            [
              73.8243601647899,
              18.5147544204801
            ],
            [
              73.8245540568244,
              18.5148513664974
            ],
            [
              73.8246235015734,
              18.5154176390129
            ],
            [
              73.824687035978,
              18.5156916318635
            ],
            [
              73.8250424180363,
              18.5162588091157
            ],
            [
              73.8316125351958,
              18.5148947833894
            ],
            [
              73.8321573164659,
              18.5148095116882
            ],
            [
              73.8340057365558,
              18.5143017549291
            ],
            [
              73.8361315005293,
              18.5139982866087
            ],
            [
              73.8363838551206,
              18.515937204575
            ],
            [
              73.8366823671287,
              18.5169393800222
            ],
            [
              73.8367274984852,
              18.5181172711185
            ],
            [
              73.8388253093689,
              18.5180288658839
            ],
            [
              73.8414956470989,
              18.5176780330826
            ],
            [
              73.8423669203381,
              18.5144417593709
            ]
          ]
        ]
      }
    }
  ]
}