{
  "type": "FeatureCollection",
  "features": [
    {
      "type": "Feature",
      "properties": {
        "ward_number": 34,
        "ward_name_en": "34 Warje - Kondhave Dhavde",
        "ward_name_mr": "प्रभाग ३४ : वारजे - कोंढवे धावडे",
        "entity_type": "ward",
        "parent_municipality": "Pune Municipal Corporation",
        "parent_municipality_mr": "पुणे महानगरपालिका",
        "district": "Pune",
        "district_mr": "पुणे",
        "state": "Maharashtra",
        "state_mr": "महाराष्ट्र",
        "country": "India",
        "country_mr": "भारत",
        "area_sq_km": 28.0447,
        "perimeter_km": 29.8953,
        "author": "Nikhil VJ",
        "added_by": "mahanvyakti",
        "source_url": "http://www.pmc.gov.in/sites/default/files/final_ward_maps/34_F_Ward.pdf",
        "created_date": "2025-11-02",
        "data_year": 2022
      },
      "geometry": {
        "type": "Polygon",
        "coordinates": [
          [
            [
              73.80156,
              18.49354
            ],
            [
              73.80243,
              18.49318
            ],
            [
              73.80217,
              18.49107
            ],
            [
              73.80169,
              18.48732
            ],
            [
              73.80236,
              18.48717
            ],
            [
              73.80208,
              18.48579
            ],
            [
              73.80328,
              18.4855
            ],
            [
              73.80334,
              18.48544
            ],
            [
              73.80296,
              18.4837
            ],
            [
              73.80211,
              18.48328
            ],
            [
              73.8018,
              18.48293
            ],
            [
              73.80123,
              18.48346
            ],
            [
              73.80113,
              18.4834
            ],
            [
              73.801,
              18.48218
            ],
            [
              73.80103,
              18.48036
            ],
            [
              73.79938,
              18.4793
            ],
            [
              73.79889,
              18.47877
            ],
            [
              73.79809,
              18.47803
            ],
            [
              73.79694,
              18.47697
            ],
            [
              73.79592,
              18.47599
            ],
            [
              73.79482,
              18.47516
            ],
            [
              73.79437,
              18.47479
            ],
            [
              73.793,
              18.47355
            ],
            [
              73.79066,
              18.47163
            ],
            [
              73.79021,
              18.47128
            ],
            [
              73.78814,
              18.47032
            ],
            [
              73.78779,
              18.47011
            ],
            [
              73.78674,
              18.46929
            ],
            [
              73.7866,
              18.46948
            ],
            [
              73.78634,
              18.46956
            ],
            [
              73.78607,
              18.46953
            ],
            [
              73.78576,
              18.46941
            ],
            [
              73.78533,
              18.4692
            ],
            [
              73.785,
              18.46931
            ],
            [
              73.78483,
              18.46953
            ],
            [
              73.78473,
              18.46978
            ],
            [
              73.78457,
              18.47007
            ],
            [
              73.7842,
              18.47019
            ],
            [
              73.78378,
              18.47015
            ],
            [
              73.78349,
              18.46994
            ],
            [
              73.78337,
              18.46968
            ],
            [
              73.78337,
              18.46904
            ],
            [
              73.78347,
              18.46754
            ],
            [
              73.78346,
              18.46722
            ],
            [
              73.78324,
              18.467
            ],
            [
              73.78283,
              18.46676
            ],
            [
              73.78254,
              18.46666
            ],
            [
              73.78239,
              18.46647
            ],
            [
              73.78226,
              18.46647
            ],
            [
              73.78147,
              18.4668
            ],
            [
              73.78058,
              18.46731
            ],
            [
              73.78017,
              18.46749
            ],
            [
              73.77947,
              18.46749
            ],
            [
              73.77931,
              18.46753
            ],
            [
              73.7789,
              18.46777
            ],
            [
              73.77859,
              18.46816
            ],
            [
              73.77806,
              18.46893
            ],
            [
              73.77791,
              18.4693
            ],
            [
              73.77776,
              18.46946
            ],
            [
              73.77737,
              18.4695
            ],
            [
              73.77719,
              18.46945
            ],
            [
              73.77686,
              18.46923
            ],
            [
              73.77669,
              18.46918
            ],
            [
              73.77641,
              18.46936
            ],
            [
              73.77619,
              18.46961
            ],
            [
              73.77594,
              18.46965
            ],
            [
              73.77563,
              18.46949
            ],
            [
              73.77558,
              18.46916
            ],
            [
              73.77572,
              18.46878
            ],
            [
              73.77604,
              18.46827
            ],
            [
              73.77629,
              18.46773
            ],
            [
              73.77631,
              18.46689
            ],
            [
              73.77613,
              18.46636
            ],
            [
              73.77578,
              18.46605
            ],
            [
              73.77533,
              18.46587
            ],
            [
              73.77515,
              18.46553
            ],
            [
              73.77488,
              18.46522
            ],
            [
              73.7746,
              18.46506
            ],
            [
              73.77427,
              18.46507
            ],
            [
              73.77395,
              18.46517
            ],
            [
              73.77357,
              18.46513
            ],
            [
              73.77344,
              18.46499
            ],
            [
              73.7735,
              18.46448
            ],
            [
              73.77341,
              18.46407
            ],
            [
              73.77319,
              18.46358
            ],
            [
              73.77245,
              18.46352
            ],
            [
              73.77243,
              18.46316
            ],
            [
              73.7697,
              18.4632
            ],
            [
              73.76906,
              18.46318
            ],
            [
              73.76885,
              18.46291
            ],
            [
              73.76882,
              18.4623
            ],
            [
              73.76903,
              18.46208
            ],
            [
              73.76927,
              18.46173
            ],
            [
              73.76972,
              18.4613
            ],
            [
              73.77026,
              18.46094
            ],
            [
              73.77049,
              18.46073
            ],
            [
              73.77049,
              18.46057
            ],
            [
              73.77028,
              18.46029
            ],
            [
              73.76992,
              18.46032
            ],
            [
              73.76981,
              18.46025
            ],
            [
              73.77034,
              18.45991
            ],
            [
              73.7714,
              18.45946
            ],
            [
              73.77184,
              18.45948
            ],
            [
              73.77244,
              18.45918
            ],
            [
              73.77282,
              18.4581
            ],
            [
              73.77237,
              18.45758
            ],
            [
              73.77207,
              18.45707
            ],
            [
              73.77114,
              18.45528
            ],
            [
              73.77114,
              18.45501
            ],
            [
              73.77033,
              18.45298
            ],
            [
              73.77013,
              18.45187
            ],
            [
              73.77019,
              18.44922
            ],
            [
              73.7708,
              18.44747
            ],
            [
              73.77088,
              18.44677
            ],
            [
              73.77081,
              18.44646
            ],
            [
              73.77061,
              18.44645
            ],
            [
              73.77031,
              18.44546
            ],
            [
              73.77013,
              18.44268
            ],
            [
              73.7689,
              18.44066
            ],
            [
              73.76588,
              18.43568
            ],
            [
              73.76248,
              18.43287
            ],
            [
              73.76222,
              18.43284
            ],
            [
              73.75964,
              18.43247
            ],
            [
              73.75927,
              18.43241
            ],
            [
              73.75835,
              18.43224
            ],
            [
              73.75607,
              18.4322
            ],
            [
              73.75301,
              18.43213
            ],
            [
              73.75192,
              18.43206
            ],
            [
              73.75089,
              18.43154
            ],
            [
              73.75075,
              18.43175
            ],
            [
              73.75056,
              18.43221
            ],
            [
              73.75028,
              18.43287
            ],
            [
              73.74956,
              18.43472
            ],
            [
              73.74918,
              18.43529
            ],
            [
              73.74797,
              18.43645
            ],
            [
              73.74769,
              18.4367
            ],
            [
              73.74698,
              18.43685
            ],
            [
              73.74629,
              18.43701
            ],
            [
              73.74583,
              18.43743
            ],
            [
              73.74514,
              18.43813
            ],
            [
              73.7443,
              18.43913
            ],
            [
              73.74349,
              18.43997
            ],
            [
              73.74262,
              18.44067
            ],
            [
              73.74211,
              18.44102
            ],
            [
              73.74151,
              18.44122
            ],
            [
              73.74108,
              18.44134
            ],
            [
              73.74071,
              18.44162
            ],
            [
              73.73976,
              18.44236
            ],
            [
              73.73921,
              18.44294
            ],
            [
              73.73902,
              18.44334
            ],
            [
              73.73829,
              18.44393
            ],
            [
              73.73777,
              18.44442
            ],
            [
              73.73734,
              18.44508
            ],
            [
              73.73715,
              18.4456
            ],
            [
              73.73776,
              18.44658
            ],
            [
              73.73844,
              18.44741
            ],
            [
              73.73844,
              18.44748
            ],
            [
              73.73854,
              18.44799
            ],
            [
              73.73878,
              18.44866
            ],
            [
              73.73901,
              18.44898
            ],
            [
              73.73969,
              18.44983
            ],
            [
              73.73991,
              18.45026
            ],
            [
              73.74003,
              18.45076
            ],
            [
              73.74026,
              18.4507
            ],
            [
              73.74081,
              18.4519
            ],
            [
              73.74106,
              18.45192
            ],
            [
              73.74152,
              18.45289
            ],
            [
              73.7419,
              18.45299
            ],
            [
              73.74236,
              18.45381
            ],
            [
              73.74261,
              18.4543
            ],
            [
              73.74289,
              18.45446
            ],
            [
              73.74305,
              18.45492
            ],
            [
              73.74313,
              18.45537
            ],
            [
              73.7433,
              18.45542
            ],
            [
              73.74347,
              18.4556
            ],
            [
              73.74357,
              18.45575
            ],
            [
              73.74376,
              18.45579
            ],
            [
              73.74389,
              18.45605
            ],
            [
              73.74411,
              18.45646
            ],
            [
              73.74406,
              18.45665
            ],
            [
              73.74389,
              18.45687
            ],
            [
              73.74352,
              18.4574
            ],
            [
              73.74333,
              18.45782
            ],
            [
              73.74318,
              18.4581
            ],
            [
              73.74311,
              18.45837
            ],
            [
              73.74319,
              18.45859
            ],
            [
              73.74312,
              18.45863
            ],
            [
              73.74281,
              18.45867
            ],
            [
              73.74246,
              18.4588
            ],
            [
              73.74231,
              18.45899
            ],
            [
              73.74238,
              18.45927
            ],
            [
              73.74241,
              18.45953
            ],
            [
              73.74224,
              18.45963
            ],
            [
              73.74172,
              18.45987
            ],
            [
              73.74174,
              18.46
            ],
            [
              73.74209,
              18.46003
            ],
            [
              73.74214,
              18.46015
            ],
            [
              73.74219,
              18.46027
            ],
            [
              73.74212,
              18.4606
            ],
            [
              73.74179,
              18.46085
            ],
            [
              73.74175,
              18.46112
            ],
            [
              73.74142,
              18.46149
            ],
            [
              73.74124,
              18.4617
            ],
            [
              73.74123,
              18.46187
            ],
            [
              73.74108,
              18.46194
            ],
            [
              73.74028,
              18.46193
            ],
            [
              73.73981,
              18.46264
            ],
            [
              73.73939,
              18.46306
            ],
            [
              73.73844,
              18.46369
            ],
            [
              73.73817,
              18.46392
            ],
            [
              73.73782,
              18.46405
            ],
            [
              73.73755,
              18.46411
            ],
            [
              73.73739,
              18.4641
            ],
            [
              73.73732,
              18.46416
            ],
            [
              73.73722,
              18.46433
            ],
            [
              73.73708,
              18.46432
            ],
            [
              73.73696,
              18.46429
            ],
            [
              73.73679,
              18.46433
            ],
            [
              73.73668,
              18.46447
            ],
            [
              73.73666,
              18.46465
            ],
            [
              73.73653,
              18.46473
            ],
            [
              73.73638,
              18.46472
            ],
            [
              73.73629,
              18.46463
            ],
            [
              73.7361,
              18.4645
            ],
            [
              73.73593,
              18.46453
            ],
            [
              73.73567,
              18.46463
            ],
            [
              73.73554,
              18.46475
            ],
            [
              73.73554,
              18.46493
            ],
            [
              73.73556,
              18.4651
            ],
            [
              73.73555,
              18.46534
            ],
            [
              73.73551,
              18.46552
            ],
            [
              73.7355,
              18.46576
            ],
            [
              73.73547,
              18.46595
            ],
            [
              73.7353,
              18.46609
            ],
            [
              73.73515,
              18.46627
            ],
            [
              73.73508,
              18.46648
            ],
            [
              73.73485,
              18.46672
            ],
            [
              73.73461,
              18.46717
            ],
            [
              73.73452,
              18.4675
            ],
            [
              73.73461,
              18.46807
            ],
            [
              73.73452,
              18.4683
            ],
            [
              73.73412,
              18.46872
            ],
            [
              73.73391,
              18.46908
            ],
            [
              73.73385,
              18.46947
            ],
            [
              73.73358,
              18.46993
            ],
            [
              73.73355,
              18.47018
            ],
            [
              73.73372,
              18.47048
            ],
            [
              73.73354,
              18.47065
            ],
            [
              73.73351,
              18.4709
            ],
            [
              73.73323,
              18.47118
            ],
            [
              73.73256,
              18.47201
            ],
            [
              73.73227,
              18.47276
            ],
            [
              73.73262,
              18.47273
            ],
            [
              73.73267,
              18.47306
            ],
            [
              73.73265,
              18.47339
            ],
            [
              73.73265,
              18.4745
            ],
            [
              73.7328,
              18.47537
            ],
            [
              73.73295,
              18.47622
            ],
            [
              73.73399,
              18.47867
            ],
            [
              73.73438,
              18.47883
            ],
            [
              73.73496,
              18.47904
            ],
            [
              73.73584,
              18.47924
            ],
            [
              73.73679,
              18.47938
            ],
            [
              73.73699,
              18.47924
            ],
            [
              73.73742,
              18.47928
            ],
            [
              73.73747,
              18.48043
            ],
            [
              73.73735,
              18.48232
            ],
            [
              73.73718,
              18.48234
            ],
            [
              73.73713,
              18.48284
            ],
            [
              73.73708,
              18.48403
            ],
            [
              73.73708,
              18.4844
            ],
            [
              73.73707,
              18.48469
            ],
            [
              73.73697,
              18.48488
            ],
            [
              73.73702,
              18.48538
            ],
            [
              73.73723,
              18.48581
            ],
            [
              73.73729,
              18.486
            ],
            [
              73.73726,
              18.48691
            ],
            [
              73.73757,
              18.48713
            ],
            [
              73.73761,
              18.48736
            ],
            [
              73.73819,
              18.48766
            ],
            [
              73.73883,
              18.48778
            ],
            [
              73.73938,
              18.48787
            ],
            [
              73.74037,
              18.48806
            ],
            [
              73.74123,
              18.48819
            ],
            [
              73.74226,
              18.48821
            ],
            [
              73.74286,
              18.48833
            ],
            [
              73.74296,
              18.48783
            ],
            [
              73.74356,
              18.4866
            ],
            [
              73.74431,
              18.4854
            ],
            [
              73.74469,
              18.48516
            ],
            [
              73.74456,
              18.4849
            ],
            [
              73.74456,
              18.4844
            ],
            [
              73.74472,
              18.48423
            ],
            [
              73.74523,
              18.48421
            ],
            [
              73.74536,
              18.48405
            ],
            [
              73.74603,
              18.48399
            ],
            [
              73.74695,
              18.48424
            ],
            [
              73.74756,
              18.48454
            ],
            [
              73.74814,
              18.48508
            ],
            [
              73.74843,
              18.48554
            ],
            [
              73.74855,
              18.48612
            ],
            [
              73.74901,
              18.48644
            ],
            [
              73.74935,
              18.48643
            ],
            [
              73.74979,
              18.48663
            ],
            [
              73.74996,
              18.48694
            ],
            [
              73.75011,
              18.48736
            ],
            [
              73.7502,
              18.48789
            ],
            [
              73.75042,
              18.48805
            ],
            [
              73.75051,
              18.48827
            ],
            [
              73.75051,
              18.48856
            ],
            [
              73.75061,
              18.48874
            ],
            [
              73.75078,
              18.48887
            ],
            [
              73.7512,
              18.48892
            ],
            [
              73.7522,
              18.48874
            ],
            [
              73.7527,
              18.48862
            ],
            [
              73.75307,
              18.48835
            ],
            [
              73.7532,
              18.48811
            ],
            [
              73.75391,
              18.48802
            ],
            [
              73.75436,
              18.48819
            ],
            [
              73.75493,
              18.48796
            ],
            [
              73.7556,
              18.48733
            ],
            [
              73.75608,
              18.48691
            ],
            [
              73.75649,
              18.48698
            ],
            [
              73.7567,
              18.48687
            ],
            [
              73.75671,
              18.48662
            ],
            [
              73.75721,
              18.48619
            ],
            [
              73.75828,
              18.48554
            ],
            [
              73.75972,
              18.48502
            ],
            [
              73.76004,
              18.48502
            ],
            [
              73.76021,
              18.48441
            ],
            [
              73.76003,
              18.48376
            ],
            [
              73.76022,
              18.48347
            ],
            [
              73.76066,
              18.48345
            ],
            [
              73.76212,
              18.48358
            ],
            [
              73.76242,
              18.48343
            ],
            [
              73.76317,
              18.48299
            ],
            [
              73.76385,
              18.48284
            ],
            [
              73.76487,
              18.48283
            ],
            [
              73.76571,
              18.48286
            ],
            [
              73.76607,
              18.48316
            ],
            [
              73.76665,
              18.48376
            ],
            [
              73.76737,
              18.48409
            ],
            [
              73.76861,
              18.48444
            ],
            [
              73.76907,
              18.48482
            ],
            [
              73.76991,
              18.48535
            ],
            [
              73.77043,
              18.48581
            ],
            [
              73.77082,
              18.48619
            ],
            [
              73.77119,
              18.48636
            ],
            [
              73.77153,
              18.4867
            ],
            [
              73.77219,
              18.4875
            ],
            [
              73.77267,
              18.48794
            ],
            [
              73.77319,
              18.48826
            ],
            [
              73.77404,
              18.48879
            ],
            [
              73.77403,
              18.48927
            ],
            [
              73.77472,
              18.48977
            ],
            [
              73.77477,
              18.49065
            ],
            [
              73.77581,
              18.49169
            ],
            [
              73.77676,
              18.49355
            ],
            [
              73.7772,
              18.49453
            ],
            [
              73.77685,
              18.49573
            ],
            [
              73.77704,
              18.49589
            ],
            [
              73.77754,
              18.49621
            ],
            [
              73.77968,
              18.49791
            ],
            [
              73.78043,
              18.49787
            ],
            [
              73.78062,
              18.49784
            ],
            [
              73.78087,
              18.49794
            ],
            [
              73.7811,
              18.49813
            ],
            [
              73.78288,
              18.49978
            ],
            [
              73.7831,
              18.49997
            ],
            [
              73.7832,
              18.50037
            ],
            [
              73.78469,
              18.50036
            ],
            [
              73.78554,
              18.49982
            ],
            [
              73.78561,
              18.49973
            ],
            [
              73.78578,
              18.49904
            ],
            [
              73.7863,
              18.49902
            ],
            [
              73.78653,
              18.49899
            ],
            [
              73.7878,
              18.49823
            ],
            [
              73.78841,
              18.49777
            ],
            [
              73.78864,
              18.49767
            ],
            [
              73.79036,
              18.49693
            ],
            [
              73.79148,
              18.49643
            ],
            [
              73.79192,
              18.49644
            ],
            [
              73.79221,
              18.49634
            ],
            [
              73.7923,
              18.49616
            ],
            [
              73.79232,
              18.49605
            ],
            [
              73.79276,
              18.49555
            ],
            [
              73.79329,
              18.49519
            ],
            [
              73.79369,
              18.49494
            ],
            [
              73.79379,
              18.49471
            ],
            [
              73.79383,
              18.49463
            ],
            [
              73.7942,
              18.49453
            ],
            [
              73.7945,
              18.49431
            ],
            [
              73.79541,
              18.49365
            ],
            [
              73.79604,
              18.49335
            ],
            [
              73.79658,
              18.493
            ],
            [
              73.79703,
              18.49266
            ],
            [
              73.79735,
              18.49259
            ],
            [
              73.79771,
              18.49253
            ],
            [
              73.79801,
              18.49239
            ],
            [
              73.79838,
              18.49242
            ],
            [
              73.79868,
              18.49246
            ],
            [
              73.79931,
              18.49242
            ],
            [
              73.79986,
              18.49238
            ],
            [
              73.79996,
              18.49216
            ],
            [
              73.80018,
              18.49314
            ],
            [
              73.80091,
              18.49339
            ],
            [
              73.80156,
              18.49354
            ]
          ]
        ]
      }
    }
  ]
}
