{
  "type": "FeatureCollection",
  "features": [
    {
      "type": "Feature",
      "properties": {
        "ward_number": 3,
        "ward_name_en": "Ward 03",
        "ward_name_mr": "प्रभाग ०३",
        "entity_type": "ward",
        "parent_municipality": "Pune Municipal Corporation",
        "parent_municipality_mr": "पुणे महानगरपालिका",
        "district": "Pune",
        "district_mr": "पुणे",
        "state": "Maharashtra",
        "state_mr": "महाराष्ट्र",
        "country": "India",
        "country_mr": "भारत",
        "area_sq_km": 39.8391,
        "perimeter_km": 44.7678,
        "author": "Parisar",
        "added_by": "mahanvyakti",
        "source_url": "https://data.opencity.in/dataset/pune-wards-info/resource/2badcc86-489c-4b7e-b7dd-a273ef01b798",
        "created_date": "2025-11-02",
        "data_year": 2025
      },
      "geometry": {
        "type": "Polygon",
        "coordinates": [
          [
            [
              73.9569507618683,
              18.6200570919612
            ],
            [
              73.9572943262723,
              18.6197135275575
            ],
            [
              73.9582884692376,
              18.619720837247
            ],
            [
              73.9593849514544,
              18.6197573865942
            ],
            [
              73.9599770515997,
              18.6200059223355
            ],
            [
              73.9607451733511,
              18.6203009494295
            ],
            [
              73.9631685440931,
              18.6203570887088
            ],
            [
              73.9640559627126,
              18.6194065125007
            ],
            [
              73.9656056573752,
              18.6187266942817
            ],
            [
              73.9655617974391,
              18.6185293272667
            ],
            [
              73.9654229097396,
              18.6182734818358
            ],
            [
              73.9646904362147,
              18.6178901206326
            ],
            [
              73.9643708729176,
              18.6176436623252
            ],
            [
              73.9642960196456,
              18.6174003894165
            ],
            [
              73.9642898790747,
              18.6170819718556
            ],
            [
              73.9657884041116,
              18.6102984045478
            ],
            [
              73.965919396663,
              18.6095875920938
            ],
            [
              73.9660003905057,
              18.608134680671
            ],
            [
              73.9657816458696,
              18.6072037270096
            ],
            [
              73.9679991417573,
              18.6038575713509
            ],
            [
              73.9720565868972,
              18.6031630568014
            ],
            [
              73.9732782799531,
              18.6031864173729
            ],
            [
              73.9750461042823,
              18.6030496216767
            ],
            [
              73.9765014026413,
              18.6028263280414
            ],
            [
              73.981138152593,
              18.6029879576805
            ],
            [
              73.9822910255818,
              18.6036283730971
            ],
            [
              73.9829486990788,
              18.6036336339131
            ],
            [
              73.9834169614629,
              18.6037599079839
            ],
            [
              73.9838273494341,
              18.6039493175053
            ],
            [
              73.9840904180432,
              18.6040913746173
            ],
            [
              73.98591611714,
              18.6055382542471
            ],
            [
              73.9903024653363,
              18.6062991816773
            ],
            [
              73.9932702137843,
              18.6071459355409
            ],
            [
              73.9955760133918,
              18.6081478997134
            ],
            [
              73.9981867111747,
              18.609722525622
            ],
            [
              73.9989948590074,
              18.6104229209458
            ],
            [
              74.0003796548987,
              18.6112468530406
            ],
            [
              74.0022721080886,
              18.612999221404
            ],
            [
              74.0043437764664,
              18.6138706384565
            ],
            [
              74.0053884893188,
              18.6123833116895
            ],
            [
              74.0055042399917,
              18.6113468187804
            ],
            [
              74.0077061286141,
              18.6084695019979
            ],
            [
              74.0086768528921,
              18.6078322169568
            ],
            [
              74.0090714568374,
              18.6060012558216
            ],
            [
              74.0100737494971,
              18.6042110705998
            ],
            [
              74.0108218583539,
              18.6033461767084
            ],
            [
              74.0112128387191,
              18.6033126901978
            ],
            [
              74.0116046205787,
              18.6029827703146
            ],
            [
              74.0099593095451,
              18.6012810652244
            ],
            [
              74.0097861055562,
              18.6011019229894
            ],
            [
              74.0095470041171,
              18.6008849665587
            ],
            [
              74.0085830849653,
              18.6000103193014
            ],
            [
              74.0075186800863,
              18.5995525161927
            ],
            [
              74.0027683169203,
              18.5968368529363
            ],
            [
              74.0016884267519,
              18.5957874616799
            ],
            [
              74.0010458178759,
              18.5949258537781
            ],
            [
              73.9997797797774,
              18.5932283398324
            ],
            [
              73.9997797588628,
              18.593228310246
            ],
            [
              73.9983938725829,
              18.5911579969958
            ],
            [
              73.9980021882558,
              18.5903559954817
            ],
            [
              73.9956972711345,
              18.5874786046994
            ],
            [
              73.9936151978997,
              18.5854271852556
            ],
            [
              73.9890988206141,
              18.5827006908265
            ],
            [
              73.9865376764029,
              18.5813375852645
            ],
            [
              73.9858712310865,
              18.581131417532
            ],
            [
              73.9857462034112,
              18.5843105904193
            ],
            [
              73.9854782561623,
              18.5843561769188
            ],
            [
              73.9843331406933,
              18.5842110961787
            ],
            [
              73.9835586504514,
              18.583799438633
            ],
            [
              73.9830070703385,
              18.5851022610678
            ],
            [
              73.9820627017837,
              18.585495385563
            ],
            [
              73.9810924430961,
              18.5853419681133
            ],
            [
              73.9806077550962,
              18.5851911718292
            ],
            [
              73.9800956969985,
              18.5847438756851
            ],
            [
              73.9799802077534,
              18.5845672924801
            ],
            [
              73.9795062814262,
              18.584240593418
            ],
            [
              73.9794059627566,
              18.5831472559798
            ],
            [
              73.9784892980526,
              18.5805214373091
            ],
            [
              73.9775480939539,
              18.5803866823044
            ],
            [
              73.9749719207881,
              18.579307104702
            ],
            [
              73.9736380406975,
              18.5790683244223
            ],
            [
              73.9733031764163,
              18.578937426813
            ],
            [
              73.9728214221635,
              18.5786200835689
            ],
            [
              73.9727045073782,
              18.5785430690935
            ],
            [
              73.9724809602477,
              18.5783958125953
            ],
            [
              73.972464774669,
              18.5783878262124
            ],
            [
              73.9722907140177,
              18.5783019386184
            ],
            [
              73.9720065107217,
              18.5781617026049
            ],
            [
              73.9709067374891,
              18.5777165420032
            ],
            [
              73.9706116166739,
              18.5775970838318
            ],
            [
              73.9692749255588,
              18.5769984330753
            ],
            [
              73.9674697622773,
              18.5768125995591
            ],
            [
              73.9665481791973,
              18.5766501148373
            ],
            [
              73.9646864917172,
              18.5761768560241
            ],
            [
              73.9621607016722,
              18.5753531980359
            ],
            [
              73.9600997687073,
              18.574580733184
            ],
            [
              73.9572548128877,
              18.573320587783
            ],
            [
              73.9547970602072,
              18.5717746623823
            ],
            [
              73.9540939466784,
              18.5698856435077
            ],
            [
              73.9486125518279,
              18.5674104996949
            ],
            [
              73.9468973980964,
              18.5661537061288
            ],
            [
              73.9447386708531,
              18.5650891282608
            ],
            [
              73.9437998074152,
              18.5645042721545
            ],
            [
              73.9436114623992,
              18.564476113482
            ],
            [
              73.9434576621416,
              18.564548052051
            ],
            [
              73.9434179714623,
              18.5646820069691
            ],
            [
              73.9434576621416,
              18.5648035584376
            ],
            [
              73.9446474418261,
              18.5661220221137
            ],
            [
              73.9449342671029,
              18.5663080711607
            ],
            [
              73.9452249675582,
              18.5664747389181
            ],
            [
              73.9479120123297,
              18.5674536743477
            ],
            [
              73.9465796334435,
              18.5696278735276
            ],
            [
              73.9451140172982,
              18.5713902470625
            ],
            [
              73.9435636130705,
              18.5736855723314
            ],
            [
              73.9467128716017,
              18.5737521914107
            ],
            [
              73.9467056041804,
              18.5762461625304
            ],
            [
              73.9412869406398,
              18.5764399628342
            ],
            [
              73.9434000938394,
              18.5756720281417
            ],
            [
              73.9433879808707,
              18.5741700739899
            ],
            [
              73.940722845383,
              18.5737654393237
            ],
            [
              73.9377325636071,
              18.573453163233
            ],
            [
              73.9373540470518,
              18.5755350047368
            ],
            [
              73.9373279837996,
              18.5756216589127
            ],
            [
              73.9345233643619,
              18.575618384481
            ],
            [
              73.9345446980794,
              18.5752098719381
            ],
            [
              73.9360310705776,
              18.573242254227
            ],
            [
              73.9345942822005,
              18.5726378387653
            ],
            [
              73.9341218935107,
              18.5721412241382
            ],
            [
              73.9338372481906,
              18.5724077004551
            ],
            [
              73.9336913556715,
              18.5725729445859
            ],
            [
              73.933584687983,
              18.5729326383307
            ],
            [
              73.9321899438109,
              18.5745368418019
            ],
            [
              73.9313914861283,
              18.5746492453664
            ],
            [
              73.9308876040797,
              18.5738701671746
            ],
            [
              73.9308604724329,
              18.5730058170649
            ],
            [
              73.9304806230824,
              18.5726569763385
            ],
            [
              73.9313410980133,
              18.5718236339537
            ],
            [
              73.9310852813607,
              18.571579445535
            ],
            [
              73.930155038824,
              18.5723662749837
            ],
            [
              73.9286730073535,
              18.5710101369085
            ],
            [
              73.9281099004515,
              18.5713177374237
            ],
            [
              73.9273085928174,
              18.5697308306134
            ],
            [
              73.9274236619726,
              18.5682167634928
            ],
            [
              73.9301853198967,
              18.5682046514236
            ],
            [
              73.9302034889,
              18.5679321190721
            ],
            [
              73.9305736471562,
              18.567978631109
            ],
            [
              73.9308488441989,
              18.568160804078
            ],
            [
              73.9312441978614,
              18.5681297954537
            ],
            [
              73.9313837339723,
              18.567978631109
            ],
            [
              73.9325560119505,
              18.5680720859582
            ],
            [
              73.9341602495959,
              18.5683520206294
            ],
            [
              73.9341502752151,
              18.5674143011291
            ],
            [
              73.9342571497479,
              18.5654773125281
            ],
            [
              73.9344078833172,
              18.5632809063889
            ],
            [
              73.9300354285702,
              18.5628878824176
            ],
            [
              73.9279462190478,
              18.5626527359576
            ],
            [
              73.9279761485908,
              18.5608221218578
            ],
            [
              73.9281525518055,
              18.557321593303
            ],
            [
              73.9264640655754,
              18.5576093839528
            ],
            [
              73.9260690800717,
              18.557686612253
            ],
            [
              73.9244469778286,
              18.5579122517464
            ],
            [
              73.9243051845043,
              18.5577506232422
            ],
            [
              73.9226164979611,
              18.5583802212128
            ],
            [
              73.9220014919701,
              18.5578964137179
            ],
            [
              73.921377285247,
              18.5578140905497
            ],
            [
              73.9213580737549,
              18.5570872969125
            ],
            [
              73.9213484484943,
              18.5567231598479
            ],
            [
              73.9206489750761,
              18.5545702749491
            ],
            [
              73.9191147134002,
              18.554670654336
            ],
            [
              73.9182061418466,
              18.5551732340085
            ],
            [
              73.9183849953972,
              18.5563108236826
            ],
            [
              73.9186824979392,
              18.5578774274346
            ],
            [
              73.9187716465376,
              18.5594236158063
            ],
            [
              73.9186211006163,
              18.5609394902099
            ],
            [
              73.9181800747507,
              18.5608275297668
            ],
            [
              73.9125286109067,
              18.5589244321168
            ],
            [
              73.9092181219189,
              18.5574569822541
            ],
            [
              73.9079740168875,
              18.5566863298104
            ],
            [
              73.9068168547141,
              18.5556854518222
            ],
            [
              73.9061150054819,
              18.5552191402134
            ],
            [
              73.9057471862863,
              18.5550605848978
            ],
            [
              73.9055860991928,
              18.5559346640522
            ],
            [
              73.9063614122012,
              18.5562740447282
            ],
            [
              73.9063316992486,
              18.5594277350021
            ],
            [
              73.9068484748773,
              18.5646610131953
            ],
            [
              73.906554594419,
              18.5665379684525
            ],
            [
              73.9065645284801,
              18.566658171632
            ],
            [
              73.9061211804219,
              18.566705818736
            ],
            [
              73.9059308457589,
              18.5680133931114
            ],
            [
              73.9066865542758,
              18.5680139811564
            ],
            [
              73.9070004452917,
              18.5704430209523
            ],
            [
              73.9054578420566,
              18.5705219812395
            ],
            [
              73.9050109553845,
              18.5702555270162
            ],
            [
              73.9050404574395,
              18.5696125765829
            ],
            [
              73.9049450984143,
              18.5694311952139
            ],
            [
              73.9013368888863,
              18.5694700128309
            ],
            [
              73.900885822223,
              18.5700139237038
            ],
            [
              73.9008317963504,
              18.5702074479155
            ],
            [
              73.9009866919823,
              18.5704128521714
            ],
            [
              73.9008639795,
              18.5709151450795
            ],
            [
              73.900757516846,
              18.5713509206086
            ],
            [
              73.9006516207758,
              18.5715288676632
            ],
            [
              73.9004972692338,
              18.571581788269
            ],
            [
              73.9003250274782,
              18.5715892625345
            ],
            [
              73.8997709911385,
              18.5724373358145
            ],
            [
              73.8998201933841,
              18.5734736168066
            ],
            [
              73.8991913278828,
              18.5754143502527
            ],
            [
              73.8974763335606,
              18.5750353473564
            ],
            [
              73.8956838848096,
              18.5747504165971
            ],
            [
              73.8960479815145,
              18.5790139861011
            ],
            [
              73.896254708603,
              18.5832303546813
            ],
            [
              73.8971369395622,
              18.5830683834124
            ],
            [
              73.8979305835819,
              18.583600612084
            ],
            [
              73.8982350310322,
              18.5841053881002
            ],
            [
              73.8982805244908,
              18.5845351394706
            ],
            [
              73.8983179113712,
              18.5848883113144
            ],
            [
              73.8993378236493,
              18.5867796328511
            ],
            [
              73.899931645125,
              18.587372395233
            ],
            [
              73.9001416925851,
              18.5881969879008
            ],
            [
              73.9001709951954,
              18.5886476912381
            ],
            [
              73.9002110276169,
              18.588743388097
            ],
            [
              73.9003491221143,
              18.5887637838218
            ],
            [
              73.9004556311078,
              18.588746966775
            ],
            [
              73.9016061728866,
              18.5886207052815
            ],
            [
              73.9044685105058,
              18.5882831409086
            ],
            [
              73.9044861621347,
              18.5874475844096
            ],
            [
              73.9050837100452,
              18.5852631979384
            ],
            [
              73.9064802222844,
              18.5855082011426
            ],
            [
              73.9104468071745,
              18.5861221763974
            ],
            [
              73.9118348127266,
              18.586703595295
            ],
            [
              73.9120806765821,
              18.5868139843779
            ],
            [
              73.9123064711667,
              18.5869896012891
            ],
            [
              73.9123666802333,
              18.5871601989754
            ],
            [
              73.914587438511,
              18.5899071126664
            ],
            [
              73.9173851294798,
              18.5920406563597
            ],
            [
              73.9186457286869,
              18.5926644952519
            ],
            [
              73.9210859801138,
              18.5930801622748
            ],
            [
              73.9212993360675,
              18.5928140086139
            ],
            [
              73.9221842749333,
              18.5934043928347
            ],
            [
              73.9226121536949,
              18.5935443082209
            ],
            [
              73.9236328853338,
              18.5944902279504
            ],
            [
              73.9247006303905,
              18.5958956760061
            ],
            [
              73.9246306462632,
              18.596458497002
            ],
            [
              73.9246654534065,
              18.5971796509634
            ],
            [
              73.9249192405908,
              18.5977838973879
            ],
            [
              73.9258297664768,
              18.5996867164523
            ],
            [
              73.9261850571645,
              18.6001804920031
            ],
            [
              73.926507775401,
              18.6000804912569
            ],
            [
              73.926846708721,
              18.5996309401532
            ],
            [
              73.9269205670948,
              18.5984867576908
            ],
            [
              73.9272540726022,
              18.5984772110942
            ],
            [
              73.9274229173083,
              18.5999359393261
            ],
            [
              73.9276008248439,
              18.6027421965177
            ],
            [
              73.928252149761,
              18.6026746841224
            ],
            [
              73.9288073793377,
              18.6026167972026
            ],
            [
              73.9298946535308,
              18.6027959400692
            ],
            [
              73.9307876247664,
              18.6031590277248
            ],
            [
              73.9315759832839,
              18.6038302817483
            ],
            [
              73.9322985378647,
              18.6048530714532
            ],
            [
              73.9327697149376,
              18.6055363025624
            ],
            [
              73.93355878319,
              18.6067008037423
            ],
            [
              73.9349578963742,
              18.6079812355489
            ],
            [
              73.9353318291306,
              18.6086764499817
            ],
            [
              73.9360983241576,
              18.6092592367825
            ],
            [
              73.9369200442667,
              18.609776893621
            ],
            [
              73.9367525969649,
              18.6108089153204
            ],
            [
              73.9371518066833,
              18.6112149420675
            ],
            [
              73.9378549478101,
              18.6114789546445
            ],
            [
              73.9388360340695,
              18.6116563682499
            ],
            [
              73.9396717213977,
              18.6120996704102
            ],
            [
              73.9409026047947,
              18.6122192107494
            ],
            [
              73.9416680298182,
              18.612842510483
            ],
            [
              73.9423267849432,
              18.6131240382177
            ],
            [
              73.9426265670533,
              18.6133387218557
            ],
            [
              73.9427372413547,
              18.6141024377646
            ],
            [
              73.9428708868211,
              18.6146069787185
            ],
            [
              73.9432555490059,
              18.6152962938062
            ],
            [
              73.9442857519633,
              18.6167745503206
            ],
            [
              73.9449697540551,
              18.6173679756296
            ],
            [
              73.9455055610309,
              18.6176755581459
            ],
            [
              73.9458741886486,
              18.6181526335096
            ],
            [
              73.9463789955798,
              18.6183191364681
            ],
            [
              73.9466515400031,
              18.6187928928462
            ],
            [
              73.9470968342324,
              18.6191404457076
            ],
            [
              73.9474304281588,
              18.6194475394448
            ],
            [
              73.9476461881426,
              18.6199976259856
            ],
            [
              73.9476783063792,
              18.6205991826054
            ],
            [
              73.9508703142136,
              18.6201434394683
            ],
            [
              73.9516584099077,
              18.6200406442604
            ],
            [
              73.9522980248341,
              18.6199606927318
            ],
            [
              73.9528691087226,
              18.6201320180783
            ],
            [
              73.954026810489,
              18.6206638114858
            ],
            [
              73.9547285586762,
              18.6205614731336
            ],
            [
              73.9563513520333,
              18.6202398386977
            ],
            [
              73.9569507618683,
              18.6200570919612
            ]
          ]
        ]
      }
    }
  ]
}