<?xml version="1.0" encoding="UTF-8"?>
<kml xmlns="http://www.opengis.net/kml/2.2">
  <Document>
    <name>Ward 02</name>
    <description>Part of OS-Bhugol open geographic data project</description>
    <Placemark>
      <name>Ward 02</name>
      <ExtendedData>
        <Data name="ward_number"><value>2</value></Data>
        <Data name="ward_name_en"><value>Ward 02</value></Data>
        <Data name="ward_name_mr"><value>प्रभाग ०२</value></Data>
        <Data name="entity_type"><value>ward</value></Data>
        <Data name="parent_municipality"><value>Pune Municipal Corporation</value></Data>
        <Data name="parent_municipality_mr"><value>पुणे महानगरपालिका</value></Data>
        <Data name="district"><value>Pune</value></Data>
        <Data name="district_mr"><value>पुणे</value></Data>
        <Data name="state"><value>Maharashtra</value></Data>
        <Data name="state_mr"><value>महाराष्ट्र</value></Data>
        <Data name="country"><value>India</value></Data>
        <Data name="country_mr"><value>भारत</value></Data>
        <Data name="area_sq_km"><value>7.1048</value></Data>
        <Data name="perimeter_km"><value>18.1413</value></Data>
        <Data name="author"><value>Parisar</value></Data>
        <Data name="source_url"><value>https://data.opencity.in/dataset/pune-wards-info/resource/2badcc86-489c-4b7e-b7dd-a273ef01b798</value></Data>
        <Data name="created_date"><value>2025-11-02</value></Data>
        <Data name="data_year"><value>2025</value></Data>
      </ExtendedData>
      <MultiGeometry>
      <Polygon>
        <outerBoundaryIs>
          <LinearRing>
            <tessellate>1</tessellate>
            <coordinates>
              73.8962547089497,18.5832303544111 73.8960479819348,18.5790139859415 73.8956838847801,18.5747504163516 73.8974763331652,18.5750353474152 73.8991913274676,18.5754143503476 73.8998201931845,18.5734736166453 73.8997709911071,18.5724373356156 73.9003250274782,18.5715892625345 73.9004972692338,18.571581788269 73.9006516207758,18.5715288676633 73.900757516846,18.5713509206086 73.9009866919823,18.5704128521714 73.9008317963504,18.5702074479155 73.900885822223,18.5700139237038 73.9013368888863,18.5694700128309 73.9049450984143,18.5694311952139 73.9050404574395,18.5696125765829 73.9050109553845,18.5702555270162 73.9054578420566,18.5705219812395 73.9061322961064,18.570487459939 73.9070004452917,18.5704430209523 73.9066865542758,18.5680139811564 73.9059308457589,18.5680133931114 73.9061211804219,18.566705818736 73.9065645284801,18.566658171632 73.906554594419,18.5665379684525 73.9068484748773,18.5646610131953 73.9063316992486,18.5594277350021 73.9063709789376,18.5569437166793 73.9063575097913,18.5560008773387 73.9068451440642,18.5556688537091 73.9068168547141,18.5556854518222 73.9067130719797,18.5555956857064 73.9057471863181,18.5550605848248 73.9027210456663,18.5542202591208 73.9010728813972,18.5537092772118 73.9009474238366,18.5568846525528 73.9009264697657,18.5569680005518 73.9008035574374,18.5570284953955 73.9007073099643,18.5570251524198 73.8994088510089,18.5566476558764 73.8993136332785,18.5581686856225 73.8993718312755,18.5587479776838 73.8973161406602,18.5590475982917 73.8972387459013,18.5579258692525 73.8971634531792,18.5578391769618 73.8970702120521,18.5578219384779 73.8966329801314,18.5578252811694 73.8953633569371,18.5579770606211 73.89448300967,18.5581629530785 73.8913953014339,18.559225584029 73.8918730181255,18.5608324220786 73.8925381279324,18.56217193079 73.893275786948,18.5636015021077 73.8940963219845,18.5647815901034 73.8938244812845,18.5649816439123 73.88838274234,18.5677206017248 73.8881401906783,18.5677571600588 73.8879973650374,18.5677034289012 73.8878770619215,18.5675095034409 73.8877982295663,18.5671689781381 73.88780113501,18.5667207333178 73.8881319459966,18.5662441246927 73.8881854113804,18.5659971222988 73.888124810535,18.5657445018688 73.8869209425844,18.5636607907212 73.8848376065566,18.5646991025142 73.8849402818455,18.5625381018701 73.8850149748402,18.556886963123 73.8827430429272,18.5557866863459 73.8812142815345,18.5552825140115 73.8805995609717,18.5544093967787 73.8797314058025,18.5532894465697 73.8796145659186,18.5529025108809 73.8727105958175,18.5520247461452 73.873993056934,18.5540470894017 73.8742890094303,18.5549924936087 73.8745905530117,18.5557024517069 73.8753218843976,18.5571125014408 73.8753582934506,18.5574622783616 73.875220234926,18.5576609484941 73.8747454477443,18.5580077783364 73.8743537902953,18.5581121644449 73.8725215142566,18.558568589269 73.871817804648,18.5643100716526 73.8712811441096,18.5657727353235 73.8712022232041,18.5660831570122 73.8712337912067,18.5664619766389 73.8718309581324,18.5685569923115 73.8721351322307,18.5691077928905 73.8725050728509,18.5706944290047 73.8726122738375,18.5727019739171 73.8712360136129,18.5749865243452 73.8726938647461,18.5769488015079 73.8748058697403,18.5768939242803 73.8748196509379,18.5758196017013 73.8765441336512,18.5758116990203 73.8766143918409,18.5752897749032 73.8771601957865,18.5743151247434 73.8780703897368,18.5725550363859 73.8817797793134,18.5729792043269 73.8838499259958,18.5733148429405 73.8847866474782,18.5747628187631 73.884621492692,18.5753766138808 73.8846141324179,18.576508309471 73.8850127648901,18.5772115062589 73.8849450944642,18.5775240802939 73.8850842668778,18.5778008810767 73.8852077620793,18.5778624428276 73.885315576826,18.5778931634572 73.8857005267433,18.5779715170794 73.886300098625,18.5782202021417 73.8868110949156,18.5784791080297 73.8870427464193,18.5787107601815 73.8873663785857,18.5790207655953 73.8876583102748,18.5795224114835 73.8877788560678,18.5795070977885 73.8886040580476,18.5794964179135 73.8907491819012,18.5806035802461 73.8929941648881,18.5809761816011 73.8934039167232,18.5814257239866 73.8938541832273,18.5815494758128 73.8943196239929,18.5819053799721 73.8946770499566,18.5821957632821 73.8947349634352,18.5825330205209 73.8948916693945,18.5828566529507 73.8951549929765,18.5830588969909 73.8954103254642,18.5832550012935 73.8961417754839,18.583251087644 73.8962547089497,18.5832303544111
            </coordinates>
          </LinearRing>
        </outerBoundaryIs>
      </Polygon>

      </MultiGeometry>
    </Placemark>
  </Document>
</kml>
