<?xml version="1.0" encoding="UTF-8"?>
<kml xmlns="http://www.opengis.net/kml/2.2">
  <Document>
    <name>58 Katraj - Gokulnagar</name>
    <description>Part of OS-Bhugol open geographic data project</description>
    <Placemark>
      <name>58 Katraj - Gokulnagar</name>
      <ExtendedData>
        <Data name="ward_number"><value>58</value></Data>
        <Data name="ward_name_en"><value>58 Katraj - Gokulnagar</value></Data>
        <Data name="ward_name_mr"><value>प्रभाग ५८ : कात्रज - गोकुळनगर</value></Data>
        <Data name="entity_type"><value>ward</value></Data>
        <Data name="parent_municipality"><value>Pune Municipal Corporation</value></Data>
        <Data name="parent_municipality_mr"><value>पुणे महानगरपालिका</value></Data>
        <Data name="district"><value>Pune</value></Data>
        <Data name="district_mr"><value>पुणे</value></Data>
        <Data name="state"><value>Maharashtra</value></Data>
        <Data name="state_mr"><value>महाराष्ट्र</value></Data>
        <Data name="country"><value>India</value></Data>
        <Data name="country_mr"><value>भारत</value></Data>
        <Data name="area_sq_km"><value>20.482</value></Data>
        <Data name="perimeter_km"><value>27.5886</value></Data>
        <Data name="author"><value>Nikhil VJ</value></Data>
        <Data name="source_url"><value>http://www.pmc.gov.in/sites/default/files/final_ward_maps/58_F_Ward.pdf</value></Data>
        <Data name="created_date"><value>2025-11-02</value></Data>
        <Data name="data_year"><value>2022</value></Data>
      </ExtendedData>
      <MultiGeometry>
      <Polygon>
        <outerBoundaryIs>
          <LinearRing>
            <tessellate>1</tessellate>
            <coordinates>
              73.8629,18.45942 73.86289,18.45938 73.86272,18.4592 73.86271,18.45839 73.86281,18.45812 73.863,18.45786 73.86309,18.45764 73.86307,18.45721 73.86295,18.45681 73.86278,18.45661 73.86437,18.45568 73.86507,18.45529 73.86417,18.45386 73.8638,18.45318 73.86309,18.45149 73.86276,18.45022 73.86283,18.44947 73.8632,18.44891 73.86375,18.44834 73.86393,18.4482 73.86401,18.44811 73.86395,18.44717 73.86376,18.44648 73.86374,18.4463 73.86389,18.44591 73.86405,18.44559 73.86419,18.44522 73.86422,18.44472 73.86424,18.44419 73.86422,18.44389 73.86406,18.44368 73.86369,18.44325 73.86351,18.44303 73.86335,18.44289 73.86308,18.44238 73.86239,18.44094 73.86187,18.43998 73.86134,18.43915 73.86154,18.43811 73.86165,18.43731 73.86166,18.43685 73.86163,18.43661 73.86149,18.43642 73.86137,18.43622 73.86132,18.43607 73.86131,18.43569 73.86136,18.43559 73.86215,18.43559 73.86301,18.43535 73.86306,18.43488 73.86318,18.43441 73.86327,18.43438 73.86429,18.43446 73.86455,18.43374 73.86467,18.43358 73.86489,18.43338 73.86529,18.43229 73.86642,18.43247 73.86642,18.43272 73.86755,18.43298 73.86744,18.43316 73.86738,18.43353 73.86742,18.43417 73.86751,18.4347 73.8677,18.43502 73.86781,18.43509 73.8684,18.43518 73.86845,18.43532 73.86851,18.43541 73.86888,18.43545 73.86894,18.43591 73.86912,18.43653 73.86916,18.43694 73.86925,18.43725 73.86952,18.43757 73.86948,18.43878 73.86944,18.43907 73.86938,18.4394 73.86939,18.43945 73.86968,18.43943 73.86956,18.4396 73.86956,18.43971 73.86957,18.44008 73.86951,18.44023 73.86932,18.44058 73.86909,18.44076 73.86881,18.44102 73.86852,18.44128 73.86825,18.44146 73.86797,18.44158 73.86764,18.44175 73.8675,18.4419 73.86737,18.44198 73.86739,18.44227 73.86757,18.44234 73.86778,18.44237 73.8678,18.44251 73.86765,18.44295 73.86765,18.44328 73.86781,18.44349 73.86788,18.44363 73.86784,18.44435 73.86775,18.44455 73.86774,18.44482 73.86781,18.44614 73.86754,18.4461 73.86761,18.44666 73.86767,18.44686 73.86767,18.44834 73.86817,18.44844 73.86871,18.4486 73.86926,18.44882 73.8698,18.44906 73.87043,18.44935 73.87105,18.4496 73.87148,18.44972 73.87198,18.44976 73.87288,18.44969 73.87368,18.44968 73.87428,18.44979 73.87438,18.44983 73.87522,18.44999 73.87533,18.45 73.87551,18.44873 73.87578,18.44773 73.87613,18.44656 73.8767,18.44659 73.8769,18.44596 73.87756,18.44462 73.87765,18.44438 73.87756,18.44434 73.87689,18.4441 73.87723,18.44321 73.87726,18.44301 73.87714,18.44218 73.87802,18.43963 73.87809,18.4393 73.87828,18.43839 73.88019,18.43821 73.88058,18.43819 73.8809,18.43789 73.88181,18.43721 73.88185,18.43703 73.88176,18.4355 73.88176,18.43524 73.88159,18.43468 73.88156,18.43441 73.88156,18.43381 73.88145,18.43349 73.88143,18.43319 73.88134,18.43279 73.88095,18.43193 73.88011,18.43035 73.87977,18.42945 73.87954,18.42881 73.87909,18.42851 73.88073,18.42702 73.88099,18.42612 73.88125,18.42525 73.88235,18.42339 73.88261,18.42258 73.88277,18.42208 73.88323,18.42123 73.88545,18.41857 73.888,18.41559 73.88832,18.41523 73.8891,18.4127 73.88941,18.41182 73.89085,18.41033 73.89172,18.40938 73.89093,18.40798 73.88996,18.40564 73.88572,18.4011 73.88328,18.40126 73.87701,18.39525 73.8761,18.39635 73.87297,18.39729 73.8721,18.40062 73.86918,18.40041 73.86604,18.39911 73.85982,18.40081 73.85152,18.40187 73.85102,18.40186 73.85048,18.40239 73.85001,18.40463 73.84901,18.40912 73.84881,18.40988 73.84767,18.41316 73.84783,18.41398 73.84792,18.41682 73.84782,18.41744 73.84778,18.41917 73.84799,18.4193 73.84839,18.41958 73.84871,18.41988 73.84915,18.42085 73.84955,18.42175 73.85013,18.42325 73.8488,18.42404 73.84862,18.42407 73.84823,18.42415 73.84754,18.42444 73.84749,18.42479 73.8472,18.42514 73.84661,18.42571 73.84656,18.42607 73.846,18.42646 73.84412,18.42776 73.84242,18.42931 73.84239,18.42954 73.84275,18.43016 73.84349,18.43164 73.84364,18.43213 73.84359,18.43262 73.84359,18.43285 73.84388,18.43378 73.84407,18.43456 73.84437,18.4351 73.84522,18.43588 73.84613,18.43654 73.84626,18.43754 73.84641,18.43833 73.84667,18.43948 73.84695,18.44018 73.84642,18.44021 73.84645,18.4404 73.84672,18.4406 73.84618,18.44074 73.8457,18.44082 73.84561,18.44101 73.84535,18.44111 73.84505,18.44129 73.84484,18.44159 73.84456,18.44195 73.84455,18.44222 73.84439,18.44259 73.84439,18.44305 73.84541,18.44365 73.8458,18.44361 73.84576,18.44269 73.84651,18.44246 73.84742,18.44243 73.84774,18.44372 73.84795,18.44396 73.8482,18.44441 73.84842,18.44483 73.84872,18.44568 73.84882,18.44608 73.84882,18.44658 73.84889,18.44724 73.84914,18.44815 73.84953,18.44988 73.84997,18.44992 73.85108,18.44988 73.852,18.44977 73.85205,18.4501 73.85239,18.45005 73.85605,18.44898 73.85724,18.44863 73.85855,18.44815 73.85841,18.44851 73.85829,18.44913 73.85819,18.44992 73.85813,18.45049 73.85806,18.45103 73.85806,18.45118 73.85811,18.45145 73.85839,18.45339 73.85848,18.45387 73.85861,18.45468 73.85866,18.45503 73.85866,18.45533 73.85863,18.45563 73.85856,18.45605 73.85842,18.45682 73.8583,18.45742 73.85821,18.45785 73.85812,18.45822 73.85804,18.45865 73.85799,18.459 73.858,18.46015 73.85805,18.46035 73.85859,18.46037 73.85914,18.46032 73.85959,18.46028 73.85973,18.46025 73.85982,18.4601 73.85992,18.46004 73.86092,18.46001 73.86179,18.45993 73.86267,18.45984 73.86272,18.45981 73.86278,18.45956 73.8628,18.45949 73.8629,18.45942
            </coordinates>
          </LinearRing>
        </outerBoundaryIs>
      </Polygon>

      </MultiGeometry>
    </Placemark>
  </Document>
</kml>
