<?xml version="1.0" encoding="UTF-8"?>
<kml xmlns="http://www.opengis.net/kml/2.2">
  <Document>
    <name>Ward 01</name>
    <description>Part of OS-Bhugol open geographic data project</description>
    <Placemark>
      <name>Ward 01</name>
      <ExtendedData>
        <Data name="ward_number"><value>1</value></Data>
        <Data name="ward_name_en"><value>Ward 01</value></Data>
        <Data name="ward_name_mr"><value>प्रभाग ०१</value></Data>
        <Data name="entity_type"><value>ward</value></Data>
        <Data name="parent_municipality"><value>Pune Municipal Corporation</value></Data>
        <Data name="parent_municipality_mr"><value>पुणे महानगरपालिका</value></Data>
        <Data name="district"><value>Pune</value></Data>
        <Data name="district_mr"><value>पुणे</value></Data>
        <Data name="state"><value>Maharashtra</value></Data>
        <Data name="state_mr"><value>महाराष्ट्र</value></Data>
        <Data name="country"><value>India</value></Data>
        <Data name="country_mr"><value>भारत</value></Data>
        <Data name="area_sq_km"><value>23.327</value></Data>
        <Data name="perimeter_km"><value>27.0317</value></Data>
        <Data name="author"><value>Parisar</value></Data>
        <Data name="source_url"><value>https://data.opencity.in/dataset/pune-wards-info/resource/2badcc86-489c-4b7e-b7dd-a273ef01b798</value></Data>
        <Data name="created_date"><value>2025-11-02</value></Data>
        <Data name="data_year"><value>2025</value></Data>
      </ExtendedData>
      <MultiGeometry>
      <Polygon>
        <outerBoundaryIs>
          <LinearRing>
            <tessellate>1</tessellate>
            <coordinates>
              73.9045061852123,18.6168176260326 73.9058658594916,18.6163690803846 73.9058668404523,18.6171871941517 73.9071120282841,18.6172725660372 73.9072799608508,18.6174451184048 73.9104943952941,18.61808234322 73.9114905642284,18.6185032140065 73.9139056698717,18.6186473959597 73.9156055401023,18.618494410514 73.9187478261967,18.6190746139575 73.919338579663,18.619213262895 73.9219641543209,18.6201018380518 73.9236326378738,18.620868350093 73.9264187637183,18.6210770665434 73.929475490939,18.6207638171951 73.9330805400887,18.6202247065265 73.9347229096322,18.6199669362294 73.9359728500522,18.6202629560293 73.9394126642574,18.6203800456586 73.9408175757945,18.6196065743007 73.9411428885188,18.6194618954066 73.9420300813377,18.6195726972008 73.9426948606163,18.6197555002324 73.9430195139836,18.6199936925292 73.943291765564,18.6201462889774 73.943548237765,18.6201998211474 73.9439308255633,18.6201811315251 73.944625679927,18.6200287525579 73.9461916258215,18.6205020647965 73.9470046878744,18.6206083586671 73.9476783063792,18.6205991826054 73.9476461878849,18.6199976259455 73.947430428179,18.6194475393816 73.9470968346141,18.6191404453809 73.94665154035,18.6187928931663 73.9463789957488,18.6183191363146 73.9458741887872,18.6181526337585 73.9455055608217,18.6176755578773 73.9449697543969,18.6173679753017 73.9442857516074,18.6167745503586 73.9432555494296,18.6152962937359 73.9428708863994,18.6146069791333 73.9427372414075,18.6141024382048 73.9426265672137,18.6133387217194 73.9423267851532,18.6131240379121 73.9416680295833,18.6128425103074 73.9409026046227,18.6122192105396 73.9396717215434,18.612099670675 73.9388360343578,18.611656368312 73.9378549482313,18.6114789548109 73.9371518070824,18.6112149423865 73.936752596746,18.610808915322 73.9369200438159,18.6097768931941 73.9360983237455,18.6092592364622 73.9353318295502,18.6086764503289 73.9349578968458,18.6079812356045 73.9335587836248,18.606700803918 73.9327697145202,18.605536302788 73.9322985373936,18.604853071709 73.9315759830627,18.6038302815863 73.9307876245804,18.6031590276994 73.9298946539328,18.6027959396823 73.9288073795701,18.6026167973909 73.9282521496119,18.6026746842114 73.9276008244643,18.6027421967934 73.9274229170273,18.599935939156 73.9272540721852,18.5984772112154 73.9269205675236,18.5984867577986 73.9268467089398,18.5996309402482 73.9265077752068,18.6000804912347 73.9261850571108,18.6001804920461 73.9258297661306,18.5996867162667 73.9249192402291,18.5977838973607 73.9246654534779,18.5971796510663 73.924630646352,18.5964584965579 73.9247006300076,18.5958956756464 73.9236328855697,18.5944902277026 73.9226121538878,18.5935443085156 73.9221842750415,18.5934043928404 73.9212993360746,18.5928140084375 73.9210859800756,18.5930801621823 73.9186457284875,18.5926644950376 73.917385129181,18.592040655986 73.9145874380914,18.5899071123582 73.9123666805859,18.5871601993427 73.9123064708182,18.5869896016924 73.9120806766878,18.5868139845135 73.9118348123896,18.5867035952509 73.9104468073527,18.5861221763406 73.9064802226502,18.5855082015203 73.9050837101355,18.5852631977949 73.9044861618303,18.5874475843312 73.9044685104171,18.5882831406604 73.9016061729051,18.5886207052868 73.9006080279382,18.5887229042387 73.9003491221143,18.5887637838218 73.9002110276169,18.588743388097 73.9001709951954,18.5886476912381 73.9001612276586,18.5884062934158 73.9001416925851,18.5881969879008 73.899931645125,18.587372395233 73.8993378236493,18.5867796328511 73.8990996727453,18.586359951606 73.8985936873241,18.5852951144157 73.8983179113712,18.5848883113144 73.8982350310322,18.5841053881002 73.8979305835819,18.583600612084 73.8971369395622,18.5830683834124 73.8961417755875,18.5832510880481 73.8954103249976,18.5832550017277 73.8951549931538,18.5830588967742 73.8948916690155,18.5828566526125 73.8947349630481,18.5825330207824 73.8946770503058,18.582195763324 73.8943196237516,18.5819053803291 73.8938541832241,18.5815494754281 73.8934039169574,18.5814257242179 73.8929941651487,18.5809761819054 73.8907491821291,18.5806035801913 73.888604058031,18.5794964176257 73.8877788563094,18.5795070979742 73.8876583102829,18.5795224116302 73.8873663786555,18.5790207652961 73.8870427468254,18.5787107599936 73.8868110949562,18.5784791081244 73.886300098371,18.5782202023007 73.885700526658,18.5779715172718 73.8853155763528,18.5778931638386 73.8852077624093,18.5778624429525 73.8850842664976,18.57780088089 73.8849450943676,18.5775240806456 73.8850127650784,18.5772115061715 73.8846141325005,18.5765083090674 73.8846214927716,18.5753766139485 73.8847866475128,18.5747628189974 73.8838499260333,18.5733148430057 73.8827249145948,18.5731324447107 73.8817797793134,18.5729792043269 73.8780703897368,18.5725550363859 73.8771601957865,18.5743151247434 73.8766143918409,18.5752897749032 73.8765441336512,18.5758116990203 73.8748196509379,18.5758196017013 73.8748058697403,18.5768939242803 73.8726938647461,18.5769488015079 73.8712360136129,18.5749865243452 73.8710581931811,18.575281695394 73.8704026197852,18.5759525383789 73.8679576868977,18.5782485786091 73.8663093932639,18.5799871875587 73.8647144429174,18.5820922054911 73.8641158991295,18.5826221391005 73.8633341508504,18.5829394370056 73.8623011400857,18.5831252171552 73.8608678734537,18.5829898368116 73.8601762561294,18.5864832398098 73.8597583420739,18.5873396686909 73.8601497683972,18.5878547023327 73.8625570017043,18.5877081020476 73.8625110157708,18.5887013816635 73.8626351761724,18.5894555387423 73.8630306485457,18.5906833435615 73.8635407970702,18.5921450980179 73.8635857047167,18.5927935613738 73.8641807276585,18.5944214547864 73.8685902592333,18.6017519807694 73.8724530155943,18.5997792153386 73.8728760791678,18.5996274646359 73.8731703841061,18.5996274646359 73.874370597725,18.5997930109388 73.8772824667125,18.5994061783526 73.8837670975736,18.5991578404621 73.886554950051,18.5993374701483 73.8878770245052,18.6072196204892 73.888631469367,18.6097703613131 73.8890858608239,18.6108938375807 73.8897287411885,18.6112744972203 73.8909758517543,18.6136483503911 73.8912425663914,18.6149359358448 73.8919415410694,18.6171110361456 73.891849571001,18.6179939518594 73.8931832008441,18.6215729010686 73.8968585924503,18.6205245937352 73.8975721990978,18.6200825355807 73.8983552720783,18.6198488773239 73.8990625645857,18.6194762855023 73.9005655592533,18.6188700354239 73.9019422522333,18.6180364421281 73.9033189452132,18.6173165195419 73.9045061852123,18.6168176260326
            </coordinates>
          </LinearRing>
        </outerBoundaryIs>
      </Polygon>

      </MultiGeometry>
    </Placemark>
  </Document>
</kml>
