<?xml version="1.0" encoding="UTF-8"?>
<kml xmlns="http://www.opengis.net/kml/2.2">
  <Document>
    <name>Ward 04</name>
    <description>Part of OS-Bhugol open geographic data project</description>
    <Placemark>
      <name>Ward 04</name>
      <ExtendedData>
        <Data name="ward_number"><value>4</value></Data>
        <Data name="ward_name_en"><value>Ward 04</value></Data>
        <Data name="ward_name_mr"><value>प्रभाग ०४</value></Data>
        <Data name="entity_type"><value>ward</value></Data>
        <Data name="parent_municipality"><value>Pune Municipal Corporation</value></Data>
        <Data name="parent_municipality_mr"><value>पुणे महानगरपालिका</value></Data>
        <Data name="district"><value>Pune</value></Data>
        <Data name="district_mr"><value>पुणे</value></Data>
        <Data name="state"><value>Maharashtra</value></Data>
        <Data name="state_mr"><value>महाराष्ट्र</value></Data>
        <Data name="country"><value>India</value></Data>
        <Data name="country_mr"><value>भारत</value></Data>
        <Data name="area_sq_km"><value>25.9933</value></Data>
        <Data name="perimeter_km"><value>36.7588</value></Data>
        <Data name="author"><value>Parisar</value></Data>
        <Data name="source_url"><value>https://data.opencity.in/dataset/pune-wards-info/resource/2badcc86-489c-4b7e-b7dd-a273ef01b798</value></Data>
        <Data name="created_date"><value>2025-11-02</value></Data>
        <Data name="data_year"><value>2025</value></Data>
      </ExtendedData>
      <MultiGeometry>
      <Polygon>
        <outerBoundaryIs>
          <LinearRing>
            <tessellate>1</tessellate>
            <coordinates>
              74.0157297340402,18.5904163870067 74.0079774179237,18.5784796288319 74.0051675113716,18.5762481455357 74.0008827742208,18.5635669015913 73.9992796975999,18.5636737734259 73.9977834919147,18.5640026096328 73.9961393099812,18.5641588065837 73.9959337879141,18.563813528072 73.9937305837995,18.5637888659635 73.9924727847913,18.5643889916588 73.9917329035507,18.5648575834109 73.9911327769562,18.5653426174679 73.9897352224028,18.5670443452204 73.9851637400147,18.5682403230326 73.9852005699505,18.5688506434425 73.9825254861624,18.5689844796502 73.9823528469065,18.5680555168487 73.9809799553607,18.5680637375514 73.9793871543937,18.5648144240464 73.9785393733935,18.5623866870959 73.9775929412613,18.5608622220141 73.9762775964339,18.5599168178069 73.9755294935914,18.5586919025094 73.9754196620878,18.5582016074183 73.9753404129298,18.5557817008649 73.9753512641497,18.5530770221869 73.9756038108673,18.5528402603698 73.9755511969304,18.5527560784304 73.9752039453061,18.5521878489902 73.9751020062527,18.5505038783515 73.9743210196993,18.5503476805011 73.9724379184752,18.5461889293758 73.970613390096,18.5429981887156 73.9704240516937,18.5424803331018 73.9695477555245,18.5427849594585 73.966573974045,18.5435742048048 73.9651516012695,18.5439146779397 73.9637264740842,18.544302960291 73.96220031869,18.5449686383921 73.9610159575737,18.5455616471825 73.9607168063228,18.5456934738643 73.9607172376116,18.5460586376414 73.9596128198758,18.5465172835459 73.9579469624824,18.5466377072646 73.9571240684211,18.5465574247854 73.9556789864962,18.5462162246991 73.9544546818382,18.5456542491443 73.9535515061972,18.5454736140161 73.9520261417931,18.5455739666653 73.9494938775405,18.5454151364994 73.9482023066132,18.5454360394654 73.9469536165162,18.5454562409128 73.9456685860366,18.545187005476 73.9448208050363,18.5446860444256 73.9438188820359,18.5439410244588 73.9432295953391,18.5432374002903 73.9429582562313,18.5429134113051 73.9419388629819,18.5408443109127 73.9407341119253,18.5378714198122 73.9400976954514,18.5367669508909 73.9393359179772,18.5360155543006 73.9386679687569,18.5356815807746 73.9374862137423,18.5355402834068 73.9336690912835,18.5358046133871 73.9316956116633,18.5359528710281 73.9315559624645,18.5359990347525 73.9319050907731,18.5369764875521 73.9319747885061,18.537913250464 73.9319472876056,18.5388234123924 73.9317749300691,18.5397334284551 73.9312932360941,18.5423626746979 73.9307111894699,18.544751072604 73.9289827113832,18.5501323962932 73.9286292121686,18.552600209732 73.9282046812046,18.5562870892867 73.9279761486183,18.5608221214262 73.9279462193427,18.5626527362349 73.9300354289919,18.5628878819703 73.9344078833172,18.5632809063889 73.9342571497479,18.5654773116287 73.9341502752151,18.5674143011291 73.9341602486966,18.56835201973 73.9325560119505,18.5680720859582 73.9313837339723,18.567978631109 73.9312441969623,18.568129796353 73.9308488441989,18.568160804078 73.9305736480555,18.567978631109 73.9302034889,18.5679321190721 73.9301853198967,18.5682046514236 73.9274236619726,18.5682167643922 73.9273085928174,18.569730829714 73.9281098995524,18.5713177374237 73.9286730073535,18.5710101369085 73.9301550379248,18.5723662749837 73.9310852813607,18.5715794446356 73.9313410980133,18.5718236339537 73.9304806230824,18.5726569763385 73.9308604724329,18.5730058170649 73.9308876040797,18.5738701680738 73.9313914861283,18.5746492462658 73.9321899438109,18.5745368409027 73.933584687983,18.5729326383307 73.9336913547723,18.5725729436865 73.9338372490899,18.5724076995558 73.9341218926113,18.5721412250376 73.9345942822005,18.572637837866 73.9360310705776,18.573242254227 73.9345446980794,18.5752098719381 73.9345233643619,18.5756183853802 73.9373279837996,18.5756216589127 73.9373540470518,18.5755350047368 73.9377325636071,18.573453163233 73.940722845383,18.573765440223 73.9433879808707,18.5741700739899 73.9434000938394,18.5756720281417 73.9412869406398,18.5764399628342 73.9467056041804,18.576246161631 73.9467128707026,18.5737521914107 73.9435636130705,18.5736855732307 73.9451140172982,18.5713902470625 73.9465796343426,18.5696278744269 73.9479120123297,18.5674536743477 73.9452249675582,18.5664747389181 73.9449342671029,18.5663080711607 73.9446474418261,18.5661220221137 73.9434576621416,18.5648035584376 73.9434179723617,18.5646820069691 73.9434576621416,18.564548052051 73.9436114623992,18.5644761125826 73.9437998074152,18.5645042721545 73.9447386699537,18.5650891282608 73.9468973980964,18.5661537061288 73.9486125518279,18.5674104996949 73.9540939457791,18.5698856444071 73.9547970599866,18.5717746607808 73.9572548126701,18.5733205877645 73.960099768937,18.5745807330696 73.9621607008064,18.5753532003459 73.9646864917206,18.5761768559696 73.9665481793264,18.5766501146733 73.9674697624221,18.576812599674 73.9692749255586,18.5769984331025 73.9706116226121,18.5775970866221 73.9709067372717,18.5777165425402 73.9720065106392,18.578161702539 73.9722907139554,18.5783019387446 73.9724647746106,18.5783878263305 73.9727045071693,18.5785430694106 73.9728214220444,18.5786200837493 73.973303176214,18.5789374266993 73.9736380408689,18.5790683242319 73.9749719209962,18.5793071046826 73.9775480940646,18.5803866824856 73.9784892982727,18.580521437189 73.9794059625654,18.5831472558216 73.9795062812566,18.5842405933612 73.979980207896,18.5845672925738 73.9800956972087,18.584743875692 73.9806077553273,18.5851911716402 73.9810924432103,18.5853419681595 73.9820627016681,18.585495385392 73.9830070703306,18.5851022608564 73.9835586505969,18.5837994386878 73.9843331406535,18.5842110963166 73.9854782562305,18.5843561767982 73.9857462035366,18.5843105903631 73.9858712309938,18.5811314175711 73.9865376765656,18.5813375853414 73.9890988206619,18.5827006910089 73.9936151978546,18.5854271851583 73.9956972713304,18.5874786048097 73.9980021880933,18.5903559953321 73.998393872601,18.591157996945 73.9997797790374,18.5932283403841 74.0010458152182,18.5949258557602 74.0016884265474,18.5957874617957 74.0027683167652,18.5968368531237 74.0053862820608,18.598333502947 74.0075186798845,18.5995525161165 74.0085830850215,18.6000103192355 74.0095470037317,18.6008849669835 74.0099593088419,18.6012810659042 74.0116046213143,18.6029827709139 74.0118126361444,18.6028075977927 74.0131963789099,18.6018447647241 74.0132595158141,18.6016395709095 74.0133279137523,18.6013712401906 74.0135383695002,18.6011502623748 74.0149557855811,18.6006409610116 74.0154137356556,18.5977349951741 74.0157673005206,18.5962803282746 74.0158784207525,18.5959402325557 74.0160535196543,18.5957348282998 74.0163464738108,18.5955159548976 74.0179000544441,18.5950858631222 74.0182946580721,18.5947652476181 74.0183110994778,18.5945103995354 74.0181302395191,18.5943459809823 74.0166915805522,18.5940335870804 74.0167655686762,18.5933265886512 74.0171683930071,18.592315417023 74.0167326849655,18.5913453498082 74.0157297340402,18.5904163870067
            </coordinates>
          </LinearRing>
        </outerBoundaryIs>
      </Polygon>

      </MultiGeometry>
    </Placemark>
  </Document>
</kml>
