{
  "type": "FeatureCollection",
  "features": [
    {
      "type": "Feature",
      "properties": {
        "ward_number": 6,
        "ward_name_en": "Ward 06",
        "ward_name_mr": "प्रभाग ०६",
        "entity_type": "ward",
        "parent_municipality": "Pune Municipal Corporation",
        "parent_municipality_mr": "पुणे महानगरपालिका",
        "district": "Pune",
        "district_mr": "पुणे",
        "state": "Maharashtra",
        "state_mr": "महाराष्ट्र",
        "country": "India",
        "country_mr": "भारत",
        "area_sq_km": 2.6368,
        "perimeter_km": 8.6194,
        "author": "Parisar",
        "added_by": "mahanvyakti",
        "source_url": "https://data.opencity.in/dataset/pune-wards-info/resource/2badcc86-489c-4b7e-b7dd-a273ef01b798",
        "created_date": "2025-11-02",
        "data_year": 2025
      },
      "geometry": {
        "type": "Polygon",
        "coordinates": [
          [
            [
              73.8850527367078,
              18.5432655784942
            ],
            [
              73.8846342373477,
              18.5449987258743
            ],
            [
              73.8845245354121,
              18.5451217368011
            ],
            [
              73.8843790487308,
              18.5451653942126
            ],
            [
              73.8840884597301,
              18.5451933557877
            ],
            [
              73.8839708711061,
              18.5460968950564
            ],
            [
              73.8841022126069,
              18.5473173510689
            ],
            [
              73.8842438067675,
              18.5479731928771
            ],
            [
              73.8843643934472,
              18.5481207498189
            ],
            [
              73.8845176431597,
              18.5482298567222
            ],
            [
              73.884735864583,
              18.5483161607956
            ],
            [
              73.8847989805431,
              18.5485793077375
            ],
            [
              73.8847637093946,
              18.5490196335919
            ],
            [
              73.884217410289,
              18.5495419550917
            ],
            [
              73.8828164838856,
              18.5494022838864
            ],
            [
              73.882127497147,
              18.5494368487627
            ],
            [
              73.8815221540876,
              18.5490700166633
            ],
            [
              73.8811977423732,
              18.549114466647
            ],
            [
              73.8792145855531,
              18.5487935591973
            ],
            [
              73.8787687836559,
              18.5488140979468
            ],
            [
              73.8786219260803,
              18.5489677990938
            ],
            [
              73.8785429338994,
              18.5498229067272
            ],
            [
              73.8794042857793,
              18.5526336483243
            ],
            [
              73.8796145664888,
              18.5529025120607
            ],
            [
              73.8797314058025,
              18.5532894465697
            ],
            [
              73.8805995609717,
              18.5544093967787
            ],
            [
              73.8812142815345,
              18.5552825140115
            ],
            [
              73.8827430429272,
              18.5557866863459
            ],
            [
              73.8850149748402,
              18.556886963123
            ],
            [
              73.8849402818455,
              18.5625381018701
            ],
            [
              73.8848376065566,
              18.5646991025142
            ],
            [
              73.8869209425844,
              18.5636607907212
            ],
            [
              73.888124810535,
              18.5657445018688
            ],
            [
              73.8881854113804,
              18.5659971222988
            ],
            [
              73.8881319459966,
              18.5662441246927
            ],
            [
              73.88780113501,
              18.5667207333178
            ],
            [
              73.8877982295663,
              18.5671689781381
            ],
            [
              73.8878770619215,
              18.5675095034409
            ],
            [
              73.8879973650374,
              18.5677034289012
            ],
            [
              73.8881401906783,
              18.5677571600588
            ],
            [
              73.88838274234,
              18.5677206017248
            ],
            [
              73.8938244812845,
              18.5649816439123
            ],
            [
              73.8940963223938,
              18.5647815898187
            ],
            [
              73.8940491576913,
              18.5647137621187
            ],
            [
              73.8919533713916,
              18.5609942501807
            ],
            [
              73.8918730190247,
              18.5608324220786
            ],
            [
              73.8913953061133,
              18.5592255826379
            ],
            [
              73.89448300967,
              18.5581629530785
            ],
            [
              73.8947749240112,
              18.5581013149037
            ],
            [
              73.8946626594676,
              18.5577494248442
            ],
            [
              73.8957266909094,
              18.5566465268232
            ],
            [
              73.8969413643359,
              18.5565357502633
            ],
            [
              73.8969312976309,
              18.5564973366705
            ],
            [
              73.896779547933,
              18.5557288647376
            ],
            [
              73.8967731073008,
              18.5534056928597
            ],
            [
              73.8969007231396,
              18.5523875198963
            ],
            [
              73.8961338025775,
              18.5520366051638
            ],
            [
              73.8951762593514,
              18.5514264456872
            ],
            [
              73.8942339725725,
              18.5506601361058
            ],
            [
              73.8926066828804,
              18.548854331456
            ],
            [
              73.8914800379173,
              18.5475528459849
            ],
            [
              73.8904779994455,
              18.5466711158734
            ],
            [
              73.8895563343748,
              18.5460271769105
            ],
            [
              73.8886452952289,
              18.5457761071993
            ],
            [
              73.8886231911075,
              18.5455940368354
            ],
            [
              73.8887436139267,
              18.5436471907652
            ],
            [
              73.8850527367078,
              18.5432655784942
            ]
          ]
        ]
      }
    }
  ]
}