<?xml version="1.0" encoding="UTF-8"?>
<kml xmlns="http://www.opengis.net/kml/2.2">
  <Document>
    <name>Ward 13</name>
    <description>Part of OS-Bhugol open geographic data project</description>
    <Placemark>
      <name>Ward 13</name>
      <ExtendedData>
        <Data name="ward_number"><value>13</value></Data>
        <Data name="ward_name_en"><value>Ward 13</value></Data>
        <Data name="ward_name_mr"><value>प्रभाग १३</value></Data>
        <Data name="entity_type"><value>ward</value></Data>
        <Data name="parent_municipality"><value>Pune Municipal Corporation</value></Data>
        <Data name="parent_municipality_mr"><value>पुणे महानगरपालिका</value></Data>
        <Data name="district"><value>Pune</value></Data>
        <Data name="district_mr"><value>पुणे</value></Data>
        <Data name="state"><value>Maharashtra</value></Data>
        <Data name="state_mr"><value>महाराष्ट्र</value></Data>
        <Data name="country"><value>India</value></Data>
        <Data name="country_mr"><value>भारत</value></Data>
        <Data name="area_sq_km"><value>5.1107</value></Data>
        <Data name="perimeter_km"><value>13.5274</value></Data>
        <Data name="author"><value>Parisar</value></Data>
        <Data name="source_url"><value>https://data.opencity.in/dataset/pune-wards-info/resource/2badcc86-489c-4b7e-b7dd-a273ef01b798</value></Data>
        <Data name="created_date"><value>2025-11-02</value></Data>
        <Data name="data_year"><value>2025</value></Data>
      </ExtendedData>
      <MultiGeometry>
      <Polygon>
        <outerBoundaryIs>
          <LinearRing>
            <tessellate>1</tessellate>
            <coordinates>
              73.8787687836559,18.5488140979468 73.8792145855531,18.5487935591973 73.8811977423732,18.549114466647 73.8815221540876,18.5490700166633 73.882127497147,18.5494368487627 73.8828164838856,18.5494022838864 73.884217410289,18.5495419550917 73.8847637093946,18.5490196335919 73.8847989805431,18.5485793077375 73.884735864583,18.5483161607956 73.8845176431597,18.5482298567222 73.8843643934472,18.5481207498189 73.8842438067675,18.5479731928771 73.8841022126069,18.5473173510689 73.8839708711061,18.5460968950564 73.8840884597301,18.5451933557877 73.8843790487308,18.5451653942126 73.8845245354121,18.5451217368011 73.8846342373477,18.5449987258743 73.8850527363515,18.5432655799679 73.8851890327479,18.542435512589 73.8852639178725,18.5413677158043 73.8854321072708,18.5371189549541 73.885689705869,18.5314898266729 73.8835028551727,18.5313833275786 73.8816213106751,18.5309644179736 73.8795049855668,18.5302189087758 73.8792490146804,18.5303810479971 73.879066191052,18.5264808101414 73.8785786613761,18.5246119460845 73.8804678384201,18.5240973315268 73.8787547135593,18.520820049106 73.8772650396499,18.5215851994974 73.8766835586994,18.5196431216328 73.8765151323057,18.5191646313325 73.8724568341907,18.5204347567206 73.8720068158103,18.520107009441 73.8689841062684,18.5200720540167 73.8689683852493,18.5219964162068 73.8690432219694,18.5221086094471 73.8700306832221,18.5219234655007 73.870166640467,18.522418409716 73.8707369493972,18.5226567152228 73.8701589610673,18.5238196046911 73.8699447137777,18.5241528772535 73.8696531014097,18.5243671236439 73.8690282155798,18.5246646877252 73.8658799831748,18.526313196297 73.8633323551325,18.5278426771233 73.8620652056418,18.5271285223451 73.8610594381723,18.5261882185288 73.8603214773403,18.525587138827 73.8610772923189,18.524408782956 73.8608295365154,18.5238712486339 73.8607880594316,18.5234053948279 73.861386759316,18.5223198802089 73.8611159718226,18.5221724893458 73.8609166068161,18.5220639742732 73.8557125877203,18.5217689832245 73.8551613317589,18.5214668980752 73.8547461178405,18.522348630371 73.8549767355063,18.5224411899408 73.8578370568391,18.525068397845 73.8604786267958,18.5280532076736 73.8606140854228,18.5285229245575 73.8606111260183,18.5285795331206 73.8605125117431,18.5304655262631 73.8604744218572,18.5317098057629 73.8610076847569,18.5321922821482 73.8626582599708,18.5347570218192 73.8633057943271,18.53575396977 73.8640127477901,18.536615316144 73.8645246796703,18.5370703668041 73.8661336108776,18.5382323718266 73.8678806806491,18.5391262223974 73.8700300414245,18.5400425967743 73.872233117357,18.5406817632233 73.8740520192309,18.5412138613043 73.8776952936793,18.5424461909116 73.8776436342071,18.5430381047596 73.8775180613383,18.5434476393216 73.8773912880071,18.5437677068963 73.8772195472682,18.5442013025141 73.8770373949653,18.5449100702817 73.8785429338994,18.5498229067272 73.8786219260803,18.5489677990938 73.8787687836559,18.5488140979468
            </coordinates>
          </LinearRing>
        </outerBoundaryIs>
      </Polygon>

      </MultiGeometry>
    </Placemark>
  </Document>
</kml>
