<?xml version="1.0" encoding="UTF-8"?>
<kml xmlns="http://www.opengis.net/kml/2.2">
  <Document>
    <name>51 Vadgaon Bk - Manikbaug</name>
    <description>Part of OS-Bhugol open geographic data project</description>
    <Placemark>
      <name>51 Vadgaon Bk - Manikbaug</name>
      <ExtendedData>
        <Data name="ward_number"><value>51</value></Data>
        <Data name="ward_name_en"><value>51 Vadgaon Bk - Manikbaug</value></Data>
        <Data name="ward_name_mr"><value>प्रभाग ५१ : वडगाव बु. - माणिकबाग</value></Data>
        <Data name="entity_type"><value>ward</value></Data>
        <Data name="parent_municipality"><value>Pune Municipal Corporation</value></Data>
        <Data name="parent_municipality_mr"><value>पुणे महानगरपालिका</value></Data>
        <Data name="district"><value>Pune</value></Data>
        <Data name="district_mr"><value>पुणे</value></Data>
        <Data name="state"><value>Maharashtra</value></Data>
        <Data name="state_mr"><value>महाराष्ट्र</value></Data>
        <Data name="country"><value>India</value></Data>
        <Data name="country_mr"><value>भारत</value></Data>
        <Data name="area_sq_km"><value>6.0929</value></Data>
        <Data name="perimeter_km"><value>13.1964</value></Data>
        <Data name="author"><value>Nikhil VJ</value></Data>
        <Data name="source_url"><value>http://www.pmc.gov.in/sites/default/files/final_ward_maps/51_F_Ward.pdf</value></Data>
        <Data name="created_date"><value>2025-11-02</value></Data>
        <Data name="data_year"><value>2022</value></Data>
      </ExtendedData>
      <MultiGeometry>
      <Polygon>
        <outerBoundaryIs>
          <LinearRing>
            <tessellate>1</tessellate>
            <coordinates>
              73.84038,18.48767 73.8405,18.48768 73.84116,18.4873 73.84139,18.4873 73.84136,18.48674 73.84169,18.48662 73.84206,18.48648 73.8422,18.48643 73.84238,18.48615 73.84243,18.48592 73.84244,18.48553 73.84254,18.48511 73.8426,18.48483 73.84285,18.48424 73.84297,18.48399 73.8431,18.48334 73.84321,18.48293 73.84385,18.48169 73.84427,18.48167 73.84447,18.48172 73.84495,18.4819 73.84525,18.48204 73.84527,18.48199 73.84445,18.48059 73.84424,18.48014 73.84404,18.47803 73.84392,18.47685 73.84392,18.4759 73.84397,18.4753 73.84405,18.47469 73.84383,18.47288 73.84372,18.47217 73.84426,18.47187 73.84421,18.47067 73.84421,18.4705 73.84447,18.46968 73.8446,18.46939 73.84478,18.46862 73.84482,18.46841 73.84509,18.46728 73.84554,18.46522 73.84458,18.46504 73.84196,18.46479 73.84207,18.46399 73.84214,18.46389 73.8423,18.46308 73.83992,18.46293 73.83892,18.4647 73.83745,18.46475 73.83731,18.46483 73.83706,18.46498 73.83699,18.46512 73.83659,18.46545 73.83513,18.46548 73.83488,18.46502 73.83471,18.46498 73.83405,18.46496 73.83295,18.46498 73.83202,18.46483 73.83152,18.46428 73.83142,18.46271 73.83136,18.46238 73.83136,18.46161 73.83029,18.46181 73.8288,18.46176 73.82809,18.46167 73.82799,18.46173 73.82781,18.46179 73.82734,18.46171 73.8268,18.46149 73.82575,18.46113 73.8252,18.46101 73.82423,18.46068 73.82314,18.46035 73.82251,18.46022 73.82005,18.45986 73.81941,18.45973 73.81717,18.45927 73.81684,18.45927 73.81653,18.45917 73.81612,18.45909 73.81577,18.4591 73.81548,18.45911 73.81525,18.45929 73.81485,18.4596 73.81448,18.45977 73.81345,18.45974 73.81263,18.45968 73.81276,18.46037 73.81279,18.46061 73.8128,18.46096 73.81315,18.46118 73.81377,18.46151 73.81441,18.46204 73.8147,18.46239 73.81491,18.46283 73.81539,18.46375 73.81596,18.46486 73.81651,18.4657 73.81686,18.46617 73.81752,18.4666 73.81786,18.46685 73.81877,18.4677 73.82009,18.46935 73.82115,18.47194 73.82165,18.47327 73.82183,18.47362 73.8223,18.47456 73.82254,18.47512 73.82281,18.4758 73.82339,18.47708 73.82371,18.47768 73.82417,18.47855 73.82475,18.47972 73.82489,18.4799 73.82504,18.48008 73.82558,18.47973 73.82643,18.47918 73.82627,18.47892 73.82625,18.47885 73.82635,18.47883 73.8265,18.4788 73.82667,18.47854 73.82684,18.47848 73.82708,18.47841 73.82735,18.47835 73.82767,18.47819 73.82771,18.47825 73.82772,18.47843 73.82777,18.47864 73.82799,18.4791 73.82814,18.47963 73.8282,18.47953 73.82831,18.47943 73.82855,18.47936 73.82865,18.47931 73.82893,18.47909 73.82907,18.47908 73.8295,18.47907 73.83017,18.47887 73.83095,18.47862 73.83176,18.47827 73.83211,18.47894 73.83247,18.47988 73.83248,18.48025 73.83239,18.48065 73.83218,18.48118 73.83201,18.4815 73.83182,18.48168 73.83158,18.48181 73.83136,18.48196 73.83114,18.48214 73.83086,18.48238 73.83013,18.48316 73.8297,18.48368 73.82953,18.48402 73.82931,18.4848 73.82929,18.48496 73.82931,18.48551 73.82935,18.48575 73.82941,18.48612 73.82953,18.48648 73.82968,18.48673 73.82988,18.48697 73.83019,18.48722 73.83027,18.48729 73.83145,18.48667 73.83169,18.48683 73.83208,18.48705 73.83239,18.48721 73.83289,18.48739 73.83314,18.48749 73.8337,18.48762 73.83419,18.48788 73.83477,18.48787 73.83636,18.48826 73.83698,18.48795 73.83795,18.48758 73.83832,18.4878 73.83909,18.48759 73.83919,18.48758 73.84038,18.48767
            </coordinates>
          </LinearRing>
        </outerBoundaryIs>
      </Polygon>

      </MultiGeometry>
    </Placemark>
  </Document>
</kml>
