<?xml version="1.0" encoding="UTF-8"?>
<kml xmlns="http://www.opengis.net/kml/2.2">
  <Document>
    <name>Ward 10</name>
    <description>Part of OS-Bhugol open geographic data project</description>
    <Placemark>
      <name>Ward 10</name>
      <ExtendedData>
        <Data name="ward_number"><value>10</value></Data>
        <Data name="ward_name_en"><value>Ward 10</value></Data>
        <Data name="ward_name_mr"><value>प्रभाग १०</value></Data>
        <Data name="entity_type"><value>ward</value></Data>
        <Data name="parent_municipality"><value>Pune Municipal Corporation</value></Data>
        <Data name="parent_municipality_mr"><value>पुणे महानगरपालिका</value></Data>
        <Data name="district"><value>Pune</value></Data>
        <Data name="district_mr"><value>पुणे</value></Data>
        <Data name="state"><value>Maharashtra</value></Data>
        <Data name="state_mr"><value>महाराष्ट्र</value></Data>
        <Data name="country"><value>India</value></Data>
        <Data name="country_mr"><value>भारत</value></Data>
        <Data name="area_sq_km"><value>15.0364</value></Data>
        <Data name="perimeter_km"><value>20.5477</value></Data>
        <Data name="author"><value>Parisar</value></Data>
        <Data name="source_url"><value>https://data.opencity.in/dataset/pune-wards-info/resource/2badcc86-489c-4b7e-b7dd-a273ef01b798</value></Data>
        <Data name="created_date"><value>2025-11-02</value></Data>
        <Data name="data_year"><value>2025</value></Data>
      </ExtendedData>
      <MultiGeometry>
      <Polygon>
        <outerBoundaryIs>
          <LinearRing>
            <tessellate>1</tessellate>
            <coordinates>
              73.8020685586158,18.4975981217639 73.8019991926511,18.4959438179546 73.801679557961,18.4935465654775 73.8015156176517,18.493541364043 73.801353411431,18.4935127395215 73.8011712546497,18.4934537556864 73.8001620534361,18.4931307578783 73.8000166420545,18.4923390729898 73.7985706068481,18.492476406661 73.7981989997841,18.4923633088199 73.7979645887947,18.4924515556947 73.7977656560603,18.4925264458388 73.7972701637871,18.4925783232312 73.7951960933251,18.493765397755 73.7941310352192,18.4945460956259 73.7938098306592,18.494718531635 73.7932055725792,18.495259580865 73.7929159881824,18.4953590189036 73.7921353442709,18.4962264051246 73.7921016349825,18.496386887345 73.7913856685138,18.4964590633352 73.7885776127668,18.4977112163996 73.7864691468338,18.4990845468145 73.7857501685355,18.4991653311152 73.7854554678956,18.4998920642674 73.7845765370776,18.5004349337252 73.7832216256776,18.5004417200095 73.7831408422761,18.5000620343355 73.7808901962256,18.4980204581777 73.7806627082174,18.4979377349388 73.7797165647678,18.4979635859508 73.7775101896436,18.4962894161237 73.7768719947468,18.4958531819789 73.7772597590308,18.4946414201655 73.7759429779861,18.4919593882154 73.7753532538497,18.4912727234576 73.7748120004736,18.4906345285607 73.7747958432536,18.4898590008923 73.7740768649554,18.489333904736 73.7740768649554,18.4888330426109 73.7726550646797,18.487976731541 73.7713544399555,18.4865145391147 73.7705304424261,18.4859490499089 73.7690844072197,18.4848665431565 73.7683815852421,18.4863287355828 73.7659706530233,18.4897392768463 73.765706183094,18.4909552492855 73.7653683374788,18.4914666047002 73.7651280377288,18.4920562622868 73.7650611641414,18.4926709731869 73.7651703589251,18.4935974700473 73.7654383811765,18.4941268964393 73.7661861962361,18.4947684134317 73.7670961482688,18.4964383825254 73.7658604743814,18.4971983995866 73.7648884799195,18.4981342026314 73.764014719304,18.4993130042918 73.7618846039914,18.5012776740255 73.7610948580413,18.5020412452075 73.7604324282141,18.5024694007423 73.760254703292,18.5028733213468 73.7601739198905,18.5036488490152 73.7603031740524,18.5040931617702 73.760626310356,18.5041820237814 73.7610408294707,18.5041330619912 73.7614577533727,18.5041462982131 73.7617853359246,18.5043779222033 73.7619937978756,18.5046293996271 73.7619143841416,18.5049569830783 73.7617754092079,18.5052978009529 73.7619110755358,18.5056783265936 73.7621493167377,18.5057875204777 73.7624748906538,18.5058120238563 73.7620018567006,18.5076552675766 73.7618963797142,18.5084928799425 73.7611642443345,18.5096841507032 73.7596793746036,18.5120463423648 73.7591601788993,18.5130221913213 73.7586886337735,18.5132393506155 73.7582481116612,18.5139032355459 73.75696377276,18.5152558248964 73.7561385692397,18.5157459832907 73.7539545728453,18.5158886877128 73.7536443454103,18.5159693461085 73.7532720737474,18.5163974593753 73.7527695065077,18.5171233903322 73.7523196773113,18.5183511133135 73.7503435322282,18.5221304512594 73.7492701472996,18.5227074733713 73.7480249747729,18.5237800830847 73.7476371907038,18.5244102308476 73.7475014668192,18.5247301520749 73.747482077436,18.5253990786047 73.74778260928,18.5269017405232 73.7476856641621,18.5288697413455 73.7472507826676,18.5291694614497 73.7472530653206,18.5295938049068 73.7475431969048,18.5298043939854 73.7481254324264,18.5299550908932 73.7485372009625,18.5301510284324 73.7487876154369,18.5302531552514 73.7494158772418,18.5307596580624 73.7554414056654,18.5288364286782 73.7568557852525,18.5287291942203 73.7581905588499,18.5284263609832 73.7595437238428,18.5283784437777 73.7608732983408,18.5283267873452 73.7613807675634,18.5281731310827 73.7640101302305,18.5281275522427 73.7646011450628,18.5281855160373 73.7655156079898,18.5283306024497 73.7667323756887,18.5281221514741 73.7680656197979,18.5280755113861 73.769911627364,18.5280628047319 73.7704558671518,18.5280910773143 73.7708333411373,18.5282369722716 73.7722985605894,18.5280888360906 73.7752077524893,18.5279995149426 73.7757922489569,18.5279723882106 73.7777882187067,18.5272878913918 73.7784053283815,18.5272770432474 73.7787290411886,18.5269625779489 73.7791983857659,18.5265847517672 73.7796252663126,18.5263451443611 73.7803491271063,18.5260209931594 73.7810654417593,18.5257955168448 73.7834565938646,18.5243972323168 73.78315071288,18.5241170383849 73.7827438359484,18.5232256465803 73.7840720964098,18.5221367533711 73.7839073797203,18.5213705759977 73.7843280554844,18.5197362954555 73.7850726189186,18.5182678427846 73.7864387603367,18.5166101640106 73.7872984654399,18.5167605884118 73.7877718482958,18.5167660392951 73.7881539804857,18.5166890724533 73.7901964347178,18.5162667761909 73.7908265833803,18.5160147169058 73.7914567311434,18.5159759390385 73.7921644364397,18.5160728850557 73.7926491656266,18.5170714266052 73.7931424257824,18.5173529575731 73.7936139709082,18.5179113664165 73.7941776754666,18.5184514180625 73.7957368266181,18.5171943359949 73.7957616556872,18.5162683789912 73.7960817331882,18.5154438177419 73.7968329258512,18.5149218436959 73.7974287244197,18.5147554516928 73.7986826959983,18.5120069724038 73.7987160182297,18.508641306751 73.7989422139121,18.507615349369 73.801341501709,18.5073729955674 73.802747144765,18.5069609972523 73.8024240093607,18.5054664912857 73.8019328419272,18.5028235582607 73.8019010479568,18.5024134646911 73.8023146588243,18.5023388135705 73.8020685586172,18.4997469757424 73.8020685586158,18.4975981217639
            </coordinates>
          </LinearRing>
        </outerBoundaryIs>
      </Polygon>

      </MultiGeometry>
    </Placemark>
  </Document>
</kml>
