<?xml version="1.0" encoding="UTF-8"?>
<kml xmlns="http://www.opengis.net/kml/2.2">
  <Document>
    <name>49 Balajinagar - Shankar Maharaj Math</name>
    <description>Part of OS-Bhugol open geographic data project</description>
    <Placemark>
      <name>49 Balajinagar - Shankar Maharaj Math</name>
      <ExtendedData>
        <Data name="ward_number"><value>49</value></Data>
        <Data name="ward_name_en"><value>49 Balajinagar - Shankar Maharaj Math</value></Data>
        <Data name="ward_name_mr"><value>प्रभाग ४९ : बालाजीनगर - शंकर महाराज मठ</value></Data>
        <Data name="entity_type"><value>ward</value></Data>
        <Data name="parent_municipality"><value>Pune Municipal Corporation</value></Data>
        <Data name="parent_municipality_mr"><value>पुणे महानगरपालिका</value></Data>
        <Data name="district"><value>Pune</value></Data>
        <Data name="district_mr"><value>पुणे</value></Data>
        <Data name="state"><value>Maharashtra</value></Data>
        <Data name="state_mr"><value>महाराष्ट्र</value></Data>
        <Data name="country"><value>India</value></Data>
        <Data name="country_mr"><value>भारत</value></Data>
        <Data name="area_sq_km"><value>1.4977</value></Data>
        <Data name="perimeter_km"><value>7.2687</value></Data>
        <Data name="author"><value>Nikhil VJ</value></Data>
        <Data name="source_url"><value>http://www.pmc.gov.in/sites/default/files/final_ward_maps/49_F_Ward.pdf</value></Data>
        <Data name="created_date"><value>2025-11-02</value></Data>
        <Data name="data_year"><value>2022</value></Data>
      </ExtendedData>
      <MultiGeometry>
      <Polygon>
        <outerBoundaryIs>
          <LinearRing>
            <tessellate>1</tessellate>
            <coordinates>
              73.86123,18.48093 73.86134,18.48018 73.86159,18.47868 73.86175,18.47821 73.86198,18.47769 73.86223,18.47666 73.86233,18.47631 73.86237,18.4755 73.86242,18.47461 73.86263,18.47367 73.86284,18.47294 73.86294,18.47269 73.86316,18.47257 73.86337,18.47204 73.86362,18.47154 73.86387,18.47067 73.86397,18.47018 73.86423,18.46865 73.86445,18.46761 73.86457,18.46692 73.86448,18.46689 73.86374,18.46687 73.86314,18.46681 73.86237,18.46667 73.86183,18.46658 73.86143,18.46653 73.86144,18.46645 73.86155,18.4661 73.86161,18.46594 73.86174,18.4657 73.86188,18.46539 73.86192,18.46515 73.86199,18.46488 73.8621,18.46448 73.86219,18.46429 73.86233,18.46418 73.8628,18.46362 73.86291,18.4633 73.86304,18.46271 73.86315,18.46213 73.86318,18.46183 73.86329,18.46166 73.86337,18.46152 73.8633,18.46038 73.86334,18.46031 73.86342,18.46004 73.86342,18.45984 73.86341,18.45966 73.86308,18.45929 73.8629,18.45942 73.8628,18.45949 73.86278,18.45956 73.86272,18.45981 73.86267,18.45984 73.86179,18.45993 73.86092,18.46001 73.85992,18.46004 73.85982,18.4601 73.85973,18.46025 73.85959,18.46028 73.85914,18.46032 73.85859,18.46037 73.85805,18.46035 73.85806,18.46058 73.85816,18.46239 73.8582,18.46328 73.85819,18.4642 73.85812,18.46496 73.85802,18.46589 73.85796,18.46662 73.85787,18.46746 73.85774,18.46837 73.85772,18.4685 73.8576,18.46914 73.85753,18.46951 73.8572,18.47055 73.85688,18.47172 73.85655,18.473 73.85643,18.47349 73.85639,18.4745 73.85632,18.47453 73.85629,18.47533 73.85631,18.47598 73.8565,18.47645 73.85677,18.47684 73.85707,18.47727 73.85715,18.4776 73.85718,18.47852 73.85716,18.48209 73.85724,18.48266 73.85738,18.48355 73.85746,18.48417 73.85754,18.4853 73.85748,18.48658 73.85744,18.48727 73.8575,18.48724 73.85764,18.4872 73.8579,18.48697 73.85841,18.48636 73.85925,18.48522 73.85942,18.48504 73.8595,18.48491 73.85955,18.48476 73.85957,18.48456 73.85965,18.48424 73.85972,18.48407 73.86008,18.48334 73.86033,18.4829 73.86055,18.48249 73.86073,18.48217 73.86099,18.48177 73.86104,18.48165 73.86111,18.48146 73.8612,18.48116 73.86123,18.48093
            </coordinates>
          </LinearRing>
        </outerBoundaryIs>
      </Polygon>

      </MultiGeometry>
    </Placemark>
  </Document>
</kml>
