{
  "type": "FeatureCollection",
  "features": [
    {
      "type": "Feature",
      "properties": {
        "ward_number": 41,
        "ward_name_en": "Ward 41",
        "ward_name_mr": "प्रभाग ४१",
        "entity_type": "ward",
        "parent_municipality": "Pune Municipal Corporation",
        "parent_municipality_mr": "पुणे महानगरपालिका",
        "district": "Pune",
        "district_mr": "पुणे",
        "state": "Maharashtra",
        "state_mr": "महाराष्ट्र",
        "country": "India",
        "country_mr": "भारत",
        "area_sq_km": 38.6264,
        "perimeter_km": 32.045,
        "author": "Parisar",
        "added_by": "mahanvyakti",
        "source_url": "https://data.opencity.in/dataset/pune-wards-info/resource/2badcc86-489c-4b7e-b7dd-a273ef01b798",
        "created_date": "2025-11-02",
        "data_year": 2025
      },
      "geometry": {
        "type": "Polygon",
        "coordinates": [
          [
            [
              73.9318409031534,
              18.4888554453583
            ],
            [
              73.9359728543571,
              18.4859076530705
            ],
            [
              73.9437214372743,
              18.4802753152765
            ],
            [
              73.9437213850867,
              18.480275331252
            ],
            [
              73.9442120626125,
              18.479918662777
            ],
            [
              73.9432020066263,
              18.4756192097544
            ],
            [
              73.9418476143322,
              18.4718213032792
            ],
            [
              73.941102441377,
              18.4689542776522
            ],
            [
              73.9405266049741,
              18.4673796755843
            ],
            [
              73.9402461770763,
              18.4668630437674
            ],
            [
              73.9396358320918,
              18.4664405946299
            ],
            [
              73.939143019211,
              18.4662457790653
            ],
            [
              73.9381462611105,
              18.4661790878162
            ],
            [
              73.938334499793,
              18.4642993942842
            ],
            [
              73.9388493659931,
              18.4619288337674
            ],
            [
              73.9388187255181,
              18.4599371526064
            ],
            [
              73.9385300550965,
              18.458066790231
            ],
            [
              73.9368285885066,
              18.4581527409986
            ],
            [
              73.9357281883998,
              18.4581192859739
            ],
            [
              73.9356439359626,
              18.458124669895
            ],
            [
              73.9356991475307,
              18.4562855593506
            ],
            [
              73.9347175756021,
              18.455961580831
            ],
            [
              73.9362201753967,
              18.4506465181585
            ],
            [
              73.9367943630468,
              18.4465292179916
            ],
            [
              73.9394559173296,
              18.4465790354114
            ],
            [
              73.940759986912,
              18.4463352486403
            ],
            [
              73.9418191616649,
              18.4464082048293
            ],
            [
              73.942790662555,
              18.4464583190291
            ],
            [
              73.9429623658108,
              18.4464551450037
            ],
            [
              73.9434873993048,
              18.4464454386828
            ],
            [
              73.9439850050395,
              18.4464084284235
            ],
            [
              73.9445253019551,
              18.4462827078472
            ],
            [
              73.9449497598932,
              18.4461062793276
            ],
            [
              73.9448074605284,
              18.4450200284073
            ],
            [
              73.944912126734,
              18.4443571356967
            ],
            [
              73.9446869204726,
              18.4437884372132
            ],
            [
              73.9446758364065,
              18.4437197098215
            ],
            [
              73.9450791977062,
              18.4436607173859
            ],
            [
              73.9452148284894,
              18.4434994436498
            ],
            [
              73.9453059110379,
              18.4429635829667
            ],
            [
              73.945296896678,
              18.4425221473014
            ],
            [
              73.9451298162845,
              18.4423884669405
            ],
            [
              73.9450822243779,
              18.4422058377106
            ],
            [
              73.9451694197869,
              18.4420382606503
            ],
            [
              73.9452825789194,
              18.4419137372969
            ],
            [
              73.9452925870806,
              18.4413097089503
            ],
            [
              73.9462845525353,
              18.4408794208367
            ],
            [
              73.9462740709698,
              18.4406782253575
            ],
            [
              73.9470528177309,
              18.4398119979364
            ],
            [
              73.9476029631581,
              18.4387524405237
            ],
            [
              73.9476057521028,
              18.4382943081528
            ],
            [
              73.9479361833845,
              18.4378659283692
            ],
            [
              73.9479961827105,
              18.4376260122966
            ],
            [
              73.9479039159854,
              18.4373964273308
            ],
            [
              73.9474829209627,
              18.4373158724477
            ],
            [
              73.9473897026367,
              18.4372427223922
            ],
            [
              73.9473916075055,
              18.4369298521404
            ],
            [
              73.9475451662933,
              18.4367072168892
            ],
            [
              73.9478976143739,
              18.436508032591
            ],
            [
              73.9481053164655,
              18.4360454491456
            ],
            [
              73.9489578336483,
              18.4357837754711
            ],
            [
              73.9493677725515,
              18.4354099167367
            ],
            [
              73.9499071956124,
              18.4352676355142
            ],
            [
              73.950161483429,
              18.4348444166308
            ],
            [
              73.9520830244266,
              18.4340666104534
            ],
            [
              73.953087123707,
              18.433458325221
            ],
            [
              73.9559670989441,
              18.4346063548976
            ],
            [
              73.9597405853911,
              18.4350979460171
            ],
            [
              73.9610388024403,
              18.4352010857448
            ],
            [
              73.9616888810515,
              18.4350911531459
            ],
            [
              73.9620823352184,
              18.4350671147798
            ],
            [
              73.9621568168035,
              18.434849273101
            ],
            [
              73.9613923451224,
              18.4342078027028
            ],
            [
              73.9594048418245,
              18.4331318601207
            ],
            [
              73.9581609456492,
              18.4316060211624
            ],
            [
              73.9585496267195,
              18.4258223594179
            ],
            [
              73.9579363423049,
              18.4230368367756
            ],
            [
              73.955885562023,
              18.4220702079673
            ],
            [
              73.9546028988689,
              18.4195041766753
            ],
            [
              73.954458625863,
              18.4191629133059
            ],
            [
              73.9525598140452,
              18.4140454147997
            ],
            [
              73.9521816584598,
              18.4130606617338
            ],
            [
              73.9486683802014,
              18.4137110401576
            ],
            [
              73.9484092205287,
              18.4139777904888
            ],
            [
              73.9441949777155,
              18.4119912251847
            ],
            [
              73.942190480795,
              18.4122594351888
            ],
            [
              73.9416871767246,
              18.4123090129223
            ],
            [
              73.9398085643836,
              18.4116470454559
            ],
            [
              73.9389321580657,
              18.4111985695653
            ],
            [
              73.9385820519144,
              18.4109448506034
            ],
            [
              73.9371477649276,
              18.4113564396735
            ],
            [
              73.9360283290888,
              18.4116259163432
            ],
            [
              73.9353627806935,
              18.4116102000875
            ],
            [
              73.9347726598962,
              18.4115829149813
            ],
            [
              73.9348540819857,
              18.4126383816409
            ],
            [
              73.9342640316535,
              18.4125991067239
            ],
            [
              73.9332055318477,
              18.4131686268867
            ],
            [
              73.9326131891086,
              18.4135009854169
            ],
            [
              73.9317837003964,
              18.413592233242
            ],
            [
              73.9308561091435,
              18.4132992865087
            ],
            [
              73.929126302919,
              18.4127500518745
            ],
            [
              73.9277842012012,
              18.4124667423995
            ],
            [
              73.9265537969648,
              18.4123998512816
            ],
            [
              73.9262133677891,
              18.4126137252408
            ],
            [
              73.9250227247031,
              18.4122113652153
            ],
            [
              73.9239058762542,
              18.4120611785725
            ],
            [
              73.9228095689637,
              18.4106283100678
            ],
            [
              73.9215830639284,
              18.4099379973068
            ],
            [
              73.9205518760959,
              18.4083893452322
            ],
            [
              73.9191257562095,
              18.407238565764
            ],
            [
              73.9190030892607,
              18.4067703084291
            ],
            [
              73.9176834742485,
              18.4069186515196
            ],
            [
              73.9145440027845,
              18.4068767706326
            ],
            [
              73.9135151853881,
              18.406715039128
            ],
            [
              73.9110750006977,
              18.4073124963917
            ],
            [
              73.9099366617611,
              18.4085887596264
            ],
            [
              73.9043977256753,
              18.4086528173057
            ],
            [
              73.9038300099533,
              18.4090571584508
            ],
            [
              73.9028610992149,
              18.4093512829494
            ],
            [
              73.9032787861846,
              18.4105851685044
            ],
            [
              73.9036446279129,
              18.4112010987893
            ],
            [
              73.9038445965289,
              18.4113557074663
            ],
            [
              73.9043500249802,
              18.4130822260765
            ],
            [
              73.9038145083825,
              18.4131626167233
            ],
            [
              73.9020197285176,
              18.4172589299579
            ],
            [
              73.9018651607856,
              18.4238038311566
            ],
            [
              73.9021308696217,
              18.4255557080443
            ],
            [
              73.9021516732863,
              18.4260775729716
            ],
            [
              73.9021570332194,
              18.4264996037835
            ],
            [
              73.9019268268026,
              18.4279402646861
            ],
            [
              73.9014407891763,
              18.4312942682859
            ],
            [
              73.9013428147055,
              18.4319271795248
            ],
            [
              73.9013702412205,
              18.4326715924803
            ],
            [
              73.9015903019338,
              18.4334631558985
            ],
            [
              73.90196173558,
              18.4344704306919
            ],
            [
              73.901979614881,
              18.4354526411159
            ],
            [
              73.9012757521576,
              18.4362569648933
            ],
            [
              73.9014781434457,
              18.4367933851242
            ],
            [
              73.9014579690651,
              18.4384755495561
            ],
            [
              73.9003603591665,
              18.441202594862
            ],
            [
              73.8997278022661,
              18.4419076943924
            ],
            [
              73.8993789495919,
              18.4424043967902
            ],
            [
              73.8992080766132,
              18.4427256597904
            ],
            [
              73.8988249851437,
              18.4436273768541
            ],
            [
              73.8980538667581,
              18.4443901703953
            ],
            [
              73.8979904705105,
              18.4489064096637
            ],
            [
              73.8979613387859,
              18.4510193226914
            ],
            [
              73.8982386335467,
              18.4528431992903
            ],
            [
              73.8985801945728,
              18.4544396645109
            ],
            [
              73.8983766047819,
              18.4548460943475
            ],
            [
              73.8990180539074,
              18.4566960614659
            ],
            [
              73.8992079655357,
              18.4584355082594
            ],
            [
              73.8992795940154,
              18.4590233646196
            ],
            [
              73.8991109348499,
              18.4598615856416
            ],
            [
              73.8997512287441,
              18.4599252458531
            ],
            [
              73.9004908758899,
              18.4601693083668
            ],
            [
              73.9012061632287,
              18.460293341096
            ],
            [
              73.9017839529194,
              18.4603086772257
            ],
            [
              73.9021124787313,
              18.460010865835
            ],
            [
              73.9026793819081,
              18.4597623868984
            ],
            [
              73.9034470503599,
              18.4595510342114
            ],
            [
              73.9044115303492,
              18.458891482287
            ],
            [
              73.9044939726597,
              18.458569705398
            ],
            [
              73.9058870948139,
              18.4582248051508
            ],
            [
              73.9083264022384,
              18.4577247938768
            ],
            [
              73.9084146339693,
              18.4594366226546
            ],
            [
              73.9079801761979,
              18.4597876798986
            ],
            [
              73.9076485946364,
              18.4601442385585
            ],
            [
              73.9075184029292,
              18.4603890151018
            ],
            [
              73.9073501512579,
              18.4608035993279
            ],
            [
              73.9059727670335,
              18.4624683044187
            ],
            [
              73.9043039566805,
              18.4633757072812
            ],
            [
              73.9039435760167,
              18.463403087689
            ],
            [
              73.9033922776575,
              18.4635128411352
            ],
            [
              73.9030975421651,
              18.4637370196457
            ],
            [
              73.9029715819281,
              18.4641242227344
            ],
            [
              73.9029160369784,
              18.4647671799248
            ],
            [
              73.9027961802691,
              18.4651046981861
            ],
            [
              73.9040883010315,
              18.4667464579153
            ],
            [
              73.9046531646495,
              18.4676934644117
            ],
            [
              73.9053803644611,
              18.4696685902391
            ],
            [
              73.9063194995751,
              18.4721436619942
            ],
            [
              73.9065169645763,
              18.4730214069531
            ],
            [
              73.9069886552646,
              18.4750285132199
            ],
            [
              73.9071494537969,
              18.475696839362
            ],
            [
              73.9077651543357,
              18.4771289229258
            ],
            [
              73.9100229737814,
              18.4830573563121
            ],
            [
              73.9108075998909,
              18.4835988740888
            ],
            [
              73.9115950327845,
              18.4839646589419
            ],
            [
              73.911442720905,
              18.484927650291
            ],
            [
              73.9116162334025,
              18.4852738685943
            ],
            [
              73.911493476112,
              18.4893576860269
            ],
            [
              73.9139002172522,
              18.4893309649664
            ],
            [
              73.9163010117331,
              18.4891888699623
            ],
            [
              73.9178411181302,
              18.489245154104
            ],
            [
              73.9282491460126,
              18.4885165448439
            ],
            [
              73.9285808917793,
              18.4886661315451
            ],
            [
              73.9287107559213,
              18.4889699669816
            ],
            [
              73.9286447134838,
              18.4892321877655
            ],
            [
              73.9282751686056,
              18.4897465546396
            ],
            [
              73.9282734859073,
              18.4900171706371
            ],
            [
              73.9307984825958,
              18.4898726314304
            ],
            [
              73.9311425314814,
              18.4895369134198
            ],
            [
              73.9318409031534,
              18.4888554453583
            ]
          ]
        ]
      }
    }
  ]
}