{
  "type": "FeatureCollection",
  "features": [
    {
      "type": "Feature",
      "properties": {
        "ward_number": 7,
        "ward_name_en": "Ward 07",
        "ward_name_mr": "प्रभाग ०७",
        "entity_type": "ward",
        "parent_municipality": "Pune Municipal Corporation",
        "parent_municipality_mr": "पुणे महानगरपालिका",
        "district": "Pune",
        "district_mr": "पुणे",
        "state": "Maharashtra",
        "state_mr": "महाराष्ट्र",
        "country": "India",
        "country_mr": "भारत",
        "area_sq_km": 10.8736,
        "perimeter_km": 27.9694,
        "author": "Parisar",
        "added_by": "mahanvyakti",
        "source_url": "https://data.opencity.in/dataset/pune-wards-info/resource/2badcc86-489c-4b7e-b7dd-a273ef01b798",
        "created_date": "2025-11-02",
        "data_year": 2025
      },
      "geometry": {
        "type": "Polygon",
        "coordinates": [
          [
            [
              73.8265132288277,
              18.5425490609133
            ],
            [
              73.8287979069832,
              18.542133469118
            ],
            [
              73.829787882737,
              18.5432906373976
            ],
            [
              73.8299492429566,
              18.5435757112299
            ],
            [
              73.8313063716352,
              18.5448084286014
            ],
            [
              73.831693359645,
              18.5451299268448
            ],
            [
              73.8342563881969,
              18.5463541843351
            ],
            [
              73.8344697272672,
              18.5454450639617
            ],
            [
              73.8375643742324,
              18.5445101613971
            ],
            [
              73.8407329118701,
              18.5442718884011
            ],
            [
              73.8480372081308,
              18.5444649451505
            ],
            [
              73.8476539909714,
              18.545844399829
            ],
            [
              73.8496314100137,
              18.5466411662358
            ],
            [
              73.8509137805999,
              18.5485710698697
            ],
            [
              73.8510407477304,
              18.549015455235
            ],
            [
              73.8520310925826,
              18.5502216448619
            ],
            [
              73.8529533844672,
              18.5515858426575
            ],
            [
              73.8542431282211,
              18.55133101457
            ],
            [
              73.8545656788477,
              18.5520523551123
            ],
            [
              73.8555179343559,
              18.5511794551659
            ],
            [
              73.8569066394402,
              18.5505247796365
            ],
            [
              73.8564305114178,
              18.5498899427071
            ],
            [
              73.8558655069307,
              18.5479997161821
            ],
            [
              73.8549259482165,
              18.5456381235053
            ],
            [
              73.8539935008716,
              18.5423115788046
            ],
            [
              73.8567156801951,
              18.5425066011114
            ],
            [
              73.8600046431657,
              18.5430733829904
            ],
            [
              73.8658654555576,
              18.5420434245841
            ],
            [
              73.8694002263782,
              18.542197816572
            ],
            [
              73.8732252554098,
              18.54284366348
            ],
            [
              73.873428077415,
              18.5428748672334
            ],
            [
              73.8734852843753,
              18.5430256844118
            ],
            [
              73.8734713070482,
              18.5439448869698
            ],
            [
              73.8734956848451,
              18.5462240423411
            ],
            [
              73.8728560134272,
              18.5462604459448
            ],
            [
              73.8717326874901,
              18.5461824382874
            ],
            [
              73.8698653062097,
              18.547260701762
            ],
            [
              73.8708029924658,
              18.5486556068471
            ],
            [
              73.8708959858408,
              18.5491360744487
            ],
            [
              73.8727105956589,
              18.5520247462354
            ],
            [
              73.8796145673917,
              18.5529025131773
            ],
            [
              73.8794042859861,
              18.552633648114
            ],
            [
              73.8770373949653,
              18.5449100702817
            ],
            [
              73.8772195472682,
              18.5442013025141
            ],
            [
              73.8775180613383,
              18.5434476393216
            ],
            [
              73.8776436342071,
              18.5430381047598
            ],
            [
              73.8776826987196,
              18.5427412088858
            ],
            [
              73.8776952936793,
              18.5424461909116
            ],
            [
              73.873960382767,
              18.5411828643549
            ],
            [
              73.8700300414245,
              18.5400425967743
            ],
            [
              73.8678806815529,
              18.5391262223517
            ],
            [
              73.8661336109495,
              18.538232371718
            ],
            [
              73.8645246806851,
              18.5370703666197
            ],
            [
              73.8640127478576,
              18.5366153161106
            ],
            [
              73.8633057941153,
              18.5357539695508
            ],
            [
              73.8626582599862,
              18.5347570217005
            ],
            [
              73.8610076846316,
              18.5321922818697
            ],
            [
              73.860474421837,
              18.5317098058076
            ],
            [
              73.8597410677715,
              18.5313152395705
            ],
            [
              73.8585439403685,
              18.5312711666612
            ],
            [
              73.8578225335586,
              18.5313282173273
            ],
            [
              73.8569839461936,
              18.531581065663
            ],
            [
              73.8565443183467,
              18.5318608883457
            ],
            [
              73.8561039537105,
              18.5322512422666
            ],
            [
              73.8557795445046,
              18.5326300145974
            ],
            [
              73.8542231364341,
              18.5323995106205
            ],
            [
              73.8535393193632,
              18.531993500622
            ],
            [
              73.8552233428272,
              18.5303058684786
            ],
            [
              73.8543904824662,
              18.530395145301
            ],
            [
              73.8538558308261,
              18.5302504168089
            ],
            [
              73.8535441807415,
              18.5300284360616
            ],
            [
              73.8525908751503,
              18.5308794308148
            ],
            [
              73.8516593928703,
              18.532162873925
            ],
            [
              73.8508252130061,
              18.5317081889743
            ],
            [
              73.8499886989541,
              18.5314062928992
            ],
            [
              73.8496880041802,
              18.5314195539029
            ],
            [
              73.8495387279843,
              18.5316601159089
            ],
            [
              73.8490828302059,
              18.5329961173073
            ],
            [
              73.8489191655776,
              18.534056270408
            ],
            [
              73.8488221552219,
              18.5350067834511
            ],
            [
              73.8486723592401,
              18.5352259605497
            ],
            [
              73.8484993165625,
              18.535224905955
            ],
            [
              73.8447164076844,
              18.5316253491085
            ],
            [
              73.8444612324808,
              18.5315844874785
            ],
            [
              73.8429498839523,
              18.5320861618605
            ],
            [
              73.8368884593378,
              18.5362008948851
            ],
            [
              73.8347225120493,
              18.5379834653937
            ],
            [
              73.833816101589,
              18.5363599677466
            ],
            [
              73.8314361431553,
              18.5365182447762
            ],
            [
              73.8311044223217,
              18.5366688249579
            ],
            [
              73.830214059006,
              18.537395948952
            ],
            [
              73.8298625938348,
              18.5290561878306
            ],
            [
              73.829425100893,
              18.5229133742425
            ],
            [
              73.8287615051923,
              18.5219574974261
            ],
            [
              73.8274468134198,
              18.51951164075
            ],
            [
              73.8269001470242,
              18.5192236256699
            ],
            [
              73.824534667441,
              18.5201736955597
            ],
            [
              73.8236427657012,
              18.5202900309602
            ],
            [
              73.8225763604108,
              18.5207359813804
            ],
            [
              73.8218007940715,
              18.5212788787173
            ],
            [
              73.819997600309,
              18.5223840618751
            ],
            [
              73.8180536410629,
              18.5234458131739
            ],
            [
              73.8176875738225,
              18.524196561822
            ],
            [
              73.8147637474491,
              18.5262780597847
            ],
            [
              73.8140807528246,
              18.5255752099281
            ],
            [
              73.8131396482763,
              18.5249080982305
            ],
            [
              73.8123216420303,
              18.5243918810806
            ],
            [
              73.8122965482472,
              18.5244441937446
            ],
            [
              73.810868290839,
              18.5274216799667
            ],
            [
              73.8105426769031,
              18.5293118300772
            ],
            [
              73.8100791330457,
              18.5301381100859
            ],
            [
              73.8080664224275,
              18.5341062993663
            ],
            [
              73.8075556048074,
              18.5344265128734
            ],
            [
              73.8072142473398,
              18.534708199424
            ],
            [
              73.806836902601,
              18.5351180726411
            ],
            [
              73.8046952741677,
              18.5350731146326
            ],
            [
              73.8038437627795,
              18.5377658835887
            ],
            [
              73.8049556162088,
              18.5378294179932
            ],
            [
              73.8060955599622,
              18.5382831871195
            ],
            [
              73.8115536138083,
              18.5395822623117
            ],
            [
              73.8154411437939,
              18.539911878231
            ],
            [
              73.81727448686,
              18.5400539632472
            ],
            [
              73.8166998050835,
              18.5438480724424
            ],
            [
              73.8163830812081,
              18.5473767457012
            ],
            [
              73.8164503003122,
              18.549428359021
            ],
            [
              73.8164417420429,
              18.5534545567447
            ],
            [
              73.8177030292969,
              18.5518592804132
            ],
            [
              73.8182149357352,
              18.5512791909766
            ],
            [
              73.8184514816949,
              18.5511682294517
            ],
            [
              73.8185641374689,
              18.5507866303512
            ],
            [
              73.8190130823198,
              18.5506470128373
            ],
            [
              73.8208842812045,
              18.548259938404
            ],
            [
              73.8211464039357,
              18.5475705229779
            ],
            [
              73.8223859984003,
              18.5458799085043
            ],
            [
              73.8224136882782,
              18.5454232832769
            ],
            [
              73.8242392935571,
              18.5442282441321
            ],
            [
              73.8249441588756,
              18.5437422691884
            ],
            [
              73.8254877628075,
              18.5430771870879
            ],
            [
              73.825769979068,
              18.5427802506139
            ],
            [
              73.8265132288277,
              18.5425490609133
            ]
          ]
        ]
      }
    }
  ]
}