{
  "type": "FeatureCollection",
  "features": [
    {
      "type": "Feature",
      "properties": {
        "ward_number": 31,
        "ward_name_en": "31 Kothrud Gaothan - Shivtirthnagar",
        "ward_name_mr": "प्रभाग ३१ : कोथरूड गोठाण - शिवतीर्थनगर",
        "entity_type": "ward",
        "parent_municipality": "Pune Municipal Corporation",
        "parent_municipality_mr": "पुणे महानगरपालिका",
        "district": "Pune",
        "district_mr": "पुणे",
        "state": "Maharashtra",
        "state_mr": "महाराष्ट्र",
        "country": "India",
        "country_mr": "भारत",
        "area_sq_km": 1.8491,
        "perimeter_km": 7.8242,
        "author": "Nikhil VJ",
        "added_by": "mahanvyakti",
        "source_url": "http://www.pmc.gov.in/sites/default/files/final_ward_maps/31_F_Ward.pdf",
        "created_date": "2025-11-02",
        "data_year": 2022
      },
      "geometry": {
        "type": "Polygon",
        "coordinates": [
          [
            [
              73.80918,
              18.50819
            ],
            [
              73.80873,
              18.50802
            ],
            [
              73.80882,
              18.50772
            ],
            [
              73.80901,
              18.50708
            ],
            [
              73.80923,
              18.50671
            ],
            [
              73.80941,
              18.50663
            ],
            [
              73.80993,
              18.5064
            ],
            [
              73.81054,
              18.50613
            ],
            [
              73.81087,
              18.50598
            ],
            [
              73.81115,
              18.50578
            ],
            [
              73.81142,
              18.50552
            ],
            [
              73.81203,
              18.50495
            ],
            [
              73.81239,
              18.50466
            ],
            [
              73.81274,
              18.50445
            ],
            [
              73.81311,
              18.50428
            ],
            [
              73.81328,
              18.50419
            ],
            [
              73.81344,
              18.50407
            ],
            [
              73.81368,
              18.50389
            ],
            [
              73.81385,
              18.50381
            ],
            [
              73.81389,
              18.50374
            ],
            [
              73.81405,
              18.50354
            ],
            [
              73.81435,
              18.50326
            ],
            [
              73.81481,
              18.50281
            ],
            [
              73.81491,
              18.50279
            ],
            [
              73.81501,
              18.50278
            ],
            [
              73.81502,
              18.50216
            ],
            [
              73.8158,
              18.50223
            ],
            [
              73.81495,
              18.50177
            ],
            [
              73.81476,
              18.50165
            ],
            [
              73.81449,
              18.50141
            ],
            [
              73.81422,
              18.50103
            ],
            [
              73.81399,
              18.50055
            ],
            [
              73.8138,
              18.50012
            ],
            [
              73.81367,
              18.49972
            ],
            [
              73.81365,
              18.49949
            ],
            [
              73.81366,
              18.49912
            ],
            [
              73.8138,
              18.49798
            ],
            [
              73.81349,
              18.49801
            ],
            [
              73.81272,
              18.49816
            ],
            [
              73.81244,
              18.4982
            ],
            [
              73.81213,
              18.4982
            ],
            [
              73.81181,
              18.49817
            ],
            [
              73.81066,
              18.49818
            ],
            [
              73.81002,
              18.49821
            ],
            [
              73.80929,
              18.49834
            ],
            [
              73.809,
              18.49841
            ],
            [
              73.80849,
              18.49866
            ],
            [
              73.80789,
              18.49891
            ],
            [
              73.80762,
              18.49891
            ],
            [
              73.8071,
              18.49892
            ],
            [
              73.80649,
              18.49895
            ],
            [
              73.80587,
              18.49898
            ],
            [
              73.80534,
              18.49901
            ],
            [
              73.80521,
              18.49903
            ],
            [
              73.80484,
              18.49912
            ],
            [
              73.8045,
              18.49915
            ],
            [
              73.80442,
              18.49816
            ],
            [
              73.80261,
              18.49824
            ],
            [
              73.80251,
              18.49753
            ],
            [
              73.80211,
              18.49753
            ],
            [
              73.80216,
              18.49976
            ],
            [
              73.80136,
              18.4998
            ],
            [
              73.80131,
              18.49936
            ],
            [
              73.80098,
              18.4994
            ],
            [
              73.80095,
              18.4991
            ],
            [
              73.80066,
              18.49913
            ],
            [
              73.8007,
              18.4995
            ],
            [
              73.80035,
              18.49953
            ],
            [
              73.80041,
              18.49991
            ],
            [
              73.80046,
              18.50035
            ],
            [
              73.80042,
              18.50041
            ],
            [
              73.80051,
              18.50048
            ],
            [
              73.80059,
              18.50138
            ],
            [
              73.80081,
              18.50156
            ],
            [
              73.8018,
              18.50133
            ],
            [
              73.80188,
              18.5016
            ],
            [
              73.8019,
              18.50184
            ],
            [
              73.80195,
              18.50244
            ],
            [
              73.80202,
              18.50287
            ],
            [
              73.80215,
              18.50357
            ],
            [
              73.80237,
              18.50449
            ],
            [
              73.80247,
              18.50535
            ],
            [
              73.80254,
              18.50565
            ],
            [
              73.80277,
              18.50652
            ],
            [
              73.80285,
              18.50703
            ],
            [
              73.80247,
              18.50707
            ],
            [
              73.80173,
              18.50726
            ],
            [
              73.80152,
              18.50728
            ],
            [
              73.80018,
              18.50749
            ],
            [
              73.79902,
              18.50763
            ],
            [
              73.79878,
              18.50854
            ],
            [
              73.79876,
              18.50946
            ],
            [
              73.79879,
              18.51089
            ],
            [
              73.79879,
              18.51183
            ],
            [
              73.79875,
              18.51194
            ],
            [
              73.79927,
              18.51203
            ],
            [
              73.80024,
              18.5122
            ],
            [
              73.8021,
              18.51255
            ],
            [
              73.80372,
              18.51283
            ],
            [
              73.80426,
              18.51288
            ],
            [
              73.80504,
              18.51289
            ],
            [
              73.8059,
              18.51285
            ],
            [
              73.80589,
              18.51562
            ],
            [
              73.80604,
              18.5156
            ],
            [
              73.80787,
              18.51553
            ],
            [
              73.8078,
              18.51354
            ],
            [
              73.8078,
              18.51313
            ],
            [
              73.80773,
              18.51278
            ],
            [
              73.80762,
              18.51241
            ],
            [
              73.80906,
              18.51251
            ],
            [
              73.80904,
              18.51225
            ],
            [
              73.80901,
              18.50996
            ],
            [
              73.80902,
              18.50953
            ],
            [
              73.8091,
              18.50873
            ],
            [
              73.80918,
              18.50819
            ]
          ]
        ]
      }
    }
  ]
}